{"type":"FeatureCollection","features":[{"type":"Feature","properties":{"source":"BRouter, profile hiking-mountain; \u00a9 OpenStreetMap contributors, ODbL"},"geometry":{"type":"LineString","coordinates":[[38.760505,9.011035],[38.762241,9.010776],[38.762551,9.010721],[38.762685,9.010697],[38.762528,9.010488],[38.762497,9.010457],[38.762412,9.010374],[38.762378,9.010347],[38.762412,9.010374],[38.762497,9.010457],[38.762528,9.010488],[38.762685,9.010697],[38.762551,9.010721],[38.762556,9.010735],[38.762485,9.010745],[38.762489,9.010784],[38.762498,9.010869],[38.762518,9.011057],[38.76206,9.011112],[38.761896,9.011134],[38.761915,9.01127],[38.761494,9.011331],[38.761514,9.01151],[38.761485,9.011812],[38.761475,9.01185],[38.761456,9.011935],[38.761443,9.012014],[38.761492,9.012029],[38.76126,9.013077],[38.761265,9.013216],[38.761311,9.013308],[38.761464,9.013546],[38.761622,9.013702],[38.761917,9.01388],[38.762177,9.013996],[38.762448,9.014015],[38.762614,9.013861],[38.762721,9.013729],[38.762835,9.013513],[38.763006,9.013481],[38.763062,9.013464],[38.76307,9.013504],[38.763113,9.013894],[38.76311,9.013958],[38.763045,9.013992],[38.763299,9.014317],[38.763373,9.01445],[38.763454,9.014645],[38.76348,9.014762],[38.763497,9.014901],[38.763606,9.015843],[38.763617,9.015959],[38.7637,9.016835],[38.763699,9.017064],[38.763107,9.01715],[38.762936,9.017184],[38.76234,9.017288],[38.762198,9.017315],[38.762064,9.017354],[38.761925,9.017428],[38.761694,9.017583],[38.76125,9.017911],[38.761234,9.017818],[38.761237,9.017435],[38.761221,9.017308],[38.760746,9.017273],[38.760681,9.016431],[38.760661,9.016269],[38.760681,9.016431],[38.760746,9.017273],[38.761221,9.017308],[38.761237,9.017435],[38.761234,9.017818],[38.76125,9.017911],[38.761313,9.01802],[38.760893,9.018337],[38.76068,9.018475],[38.760713,9.018524],[38.760624,9.018578],[38.76055,9.018622],[38.760703,9.018837],[38.760865,9.019165],[38.760976,9.019425],[38.761048,9.019707],[38.761078,9.019942],[38.76107,9.020084],[38.761027,9.020325],[38.760925,9.020695],[38.76084,9.020935],[38.760622,9.021595],[38.760473,9.021825],[38.760257,9.021945],[38.760276,9.022091],[38.760299,9.022126],[38.760309,9.022166],[38.760306,9.022208],[38.76029,9.022246],[38.760262,9.022277],[38.760225,9.022298],[38.760185,9.022307],[38.760142,9.022301],[38.760091,9.022536],[38.760084,9.022568],[38.760191,9.022609],[38.760278,9.022729],[38.760317,9.02282],[38.760363,9.022811],[38.76043,9.022787],[38.760565,9.022663],[38.760609,9.022661],[38.760655,9.022703],[38.760669,9.022772],[38.760646,9.022829],[38.760555,9.022892],[38.760512,9.022942],[38.760511,9.023009],[38.760533,9.023072],[38.76059,9.023123],[38.760647,9.023142],[38.760724,9.023124],[38.760795,9.023056],[38.760842,9.022961],[38.760891,9.022865],[38.76093,9.022816],[38.761001,9.02279],[38.761072,9.022806],[38.761118,9.022837],[38.761131,9.022906],[38.761097,9.023031],[38.761074,9.023094],[38.760992,9.023252],[38.760966,9.023317],[38.760966,9.023455],[38.760984,9.023525],[38.761045,9.023615],[38.761088,9.023687],[38.761119,9.023742],[38.761131,9.023795],[38.761119,9.023883],[38.76111,9.023898],[38.761073,9.023962],[38.760814,9.024274],[38.760752,9.024368],[38.760722,9.024458],[38.760714,9.024564],[38.760727,9.024649],[38.760752,9.024747],[38.760821,9.024845],[38.761123,9.025219],[38.761304,9.02545],[38.761331,9.025534],[38.761335,9.025625],[38.761308,9.025776],[38.761301,9.025856],[38.761317,9.025932],[38.761343,9.025998],[38.761391,9.026056],[38.761489,9.026131],[38.761527,9.026187],[38.761545,9.026232],[38.76154,9.026371],[38.761556,9.026391],[38.76157,9.026407],[38.761597,9.026467],[38.761589,9.026525],[38.761541,9.026571],[38.761497,9.026588],[38.761612,9.026998],[38.761972,9.026859],[38.762287,9.026703],[38.762325,9.026794],[38.762323,9.02685],[38.76219,9.026895],[38.762239,9.026941],[38.7623,9.027026],[38.761928,9.027765],[38.761481,9.028638],[38.761187,9.029281],[38.761166,9.029321],[38.761124,9.029397],[38.761127,9.029602],[38.76123,9.029849],[38.761446,9.030244],[38.761512,9.030459],[38.761575,9.030664],[38.761593,9.030839],[38.762611,9.03082],[38.76348,9.030829],[38.763639,9.030832],[38.764196,9.030815],[38.764698,9.0308],[38.765419,9.030794],[38.765617,9.030793],[38.766004,9.030789],[38.766004,9.0308],[38.766004,9.030789],[38.765617,9.030793],[38.765419,9.030794],[38.764698,9.0308],[38.76465,9.031214],[38.764598,9.031728],[38.764592,9.032156],[38.7646,9.032292],[38.764312,9.032362],[38.763971,9.032519],[38.763706,9.03265],[38.763722,9.032698],[38.763757,9.032803],[38.763649,9.032856],[38.763648,9.032917],[38.763628,9.032993],[38.763608,9.033024],[38.763628,9.032993],[38.763648,9.032917],[38.763649,9.032856],[38.763757,9.032803],[38.76378,9.032869],[38.763787,9.032985],[38.763773,9.033031],[38.763753,9.033073],[38.763656,9.033207],[38.763576,9.033162],[38.763466,9.033229],[38.763253,9.033205],[38.763236,9.033203],[38.763222,9.033353],[38.763166,9.033786],[38.763185,9.033895],[38.763125,9.034297],[38.762809,9.034289],[38.76266,9.034328],[38.761908,9.0347],[38.761682,9.034806],[38.761053,9.035176],[38.760529,9.03555],[38.760359,9.035676],[38.759945,9.036121],[38.759617,9.036656],[38.759577,9.036726],[38.760126,9.036992],[38.760522,9.037183],[38.760839,9.037336],[38.761617,9.037712],[38.7625,9.037776],[38.762552,9.037852],[38.762528,9.038019],[38.762496,9.038415],[38.762487,9.038461],[38.762294,9.038425],[38.762182,9.038383],[38.76214,9.038299],[38.762037,9.038185],[38.762017,9.038033],[38.761961,9.038029],[38.762017,9.038033],[38.762037,9.038185],[38.76214,9.038299],[38.762182,9.038383],[38.762294,9.038425],[38.762487,9.038461],[38.762443,9.038682],[38.762511,9.038717],[38.762324,9.039569],[38.762667,9.039649],[38.762727,9.039694],[38.762735,9.039782],[38.762414,9.040951],[38.762388,9.04098],[38.762331,9.040982],[38.762037,9.040904],[38.762008,9.041038],[38.761923,9.040944],[38.761892,9.041072],[38.760906,9.040766],[38.76069,9.040969],[38.76053,9.041151],[38.76017,9.041514],[38.759848,9.041782],[38.760557,9.042802],[38.761085,9.043617],[38.761141,9.043594],[38.761177,9.04359],[38.761226,9.043585],[38.761309,9.043602],[38.761383,9.043645],[38.761447,9.043723],[38.761467,9.043769],[38.761477,9.043817],[38.761478,9.043867],[38.761469,9.043916],[38.761445,9.043974],[38.761408,9.044025],[38.761359,9.044066],[38.761472,9.044182],[38.762022,9.045053],[38.76234,9.045559],[38.762859,9.046304],[38.762809,9.046355],[38.762784,9.046421],[38.762787,9.046491],[38.761593,9.046521],[38.76147,9.046528],[38.76133,9.046539],[38.761233,9.046546],[38.761191,9.046548],[38.761146,9.04655],[38.760657,9.046569],[38.760096,9.046592],[38.759539,9.046614],[38.759534,9.046812],[38.759353,9.04691],[38.759161,9.046964],[38.758771,9.047013],[38.758521,9.047005],[38.758253,9.046956],[38.757953,9.047016],[38.757624,9.047039],[38.757368,9.047058],[38.757319,9.047038],[38.757275,9.046996],[38.757258,9.046886],[38.757255,9.046625],[38.757279,9.046483],[38.757302,9.046232],[38.757325,9.046245],[38.757366,9.04625],[38.757637,9.046236],[38.757671,9.046225],[38.757695,9.046188],[38.757697,9.046136],[38.75767,9.045523],[38.757673,9.045398],[38.757675,9.045063],[38.757666,9.044433],[38.757648,9.044096],[38.757628,9.043922],[38.757569,9.043961],[38.75749,9.043819],[38.757326,9.043948],[38.757084,9.043505],[38.756918,9.04329],[38.756767,9.043126],[38.756581,9.042964],[38.757081,9.04219],[38.757358,9.042441],[38.75739,9.042455],[38.757414,9.042454],[38.757479,9.042403],[38.757519,9.042389],[38.757743,9.042384],[38.757796,9.042401],[38.757858,9.042445],[38.75812,9.042679],[38.758143,9.042587],[38.758177,9.042399],[38.758227,9.041892],[38.758223,9.041816],[38.758199,9.041763],[38.75815,9.041702],[38.758103,9.041401],[38.758089,9.041159],[38.758029,9.04115],[38.757947,9.041121],[38.75772,9.040981],[38.757266,9.040603],[38.756629,9.04044],[38.756636,9.04019],[38.756607,9.03982],[38.756564,9.039728],[38.756534,9.039755],[38.756391,9.039813],[38.756186,9.039879],[38.755895,9.039823],[38.755825,9.039778],[38.75553,9.039829],[38.755313,9.039832],[38.755117,9.03977],[38.754916,9.039768],[38.754624,9.039832],[38.754122,9.040012],[38.75329,9.040086],[38.753211,9.040099],[38.753116,9.040107],[38.752977,9.040117],[38.75284,9.040111],[38.752643,9.040073],[38.752459,9.040017],[38.752203,9.039922],[38.75192,9.039786],[38.751388,9.0395],[38.751355,9.03955],[38.7513,9.039527],[38.751178,9.039471],[38.751104,9.039433],[38.751137,9.039378],[38.750795,9.039199],[38.750328,9.038929],[38.750668,9.038375],[38.750928,9.037822],[38.751055,9.037774],[38.751195,9.037743],[38.751286,9.037731],[38.751399,9.03773],[38.751502,9.037766],[38.751899,9.037411],[38.75194,9.037403],[38.752014,9.037434],[38.752059,9.037343],[38.752095,9.037309],[38.752126,9.037293],[38.752188,9.037199],[38.752214,9.037146],[38.752227,9.037026],[38.752214,9.037146],[38.752188,9.037199],[38.752126,9.037293],[38.752095,9.037309],[38.752059,9.037343],[38.752014,9.037434],[38.75194,9.037403],[38.751894,9.03735],[38.751706,9.03718],[38.751747,9.036897],[38.751755,9.036616],[38.751669,9.036392],[38.751953,9.036128],[38.751802,9.03598],[38.751736,9.035842],[38.75174,9.03573],[38.751846,9.035682],[38.751908,9.035653],[38.75195,9.035583],[38.751992,9.035529],[38.752086,9.035407],[38.752158,9.035373],[38.752242,9.035339],[38.752292,9.035319],[38.752315,9.035318],[38.752438,9.035345],[38.752557,9.035337],[38.752795,9.034866],[38.753732,9.033084],[38.75384,9.032779],[38.753843,9.032715],[38.753855,9.032499],[38.75386,9.032409],[38.754197,9.03243],[38.754415,9.032164],[38.755138,9.031286],[38.755176,9.03126],[38.754833,9.031049],[38.754725,9.031004],[38.754661,9.030986],[38.754567,9.030976],[38.754485,9.031],[38.754441,9.030757],[38.754429,9.030625],[38.754381,9.030449],[38.754358,9.030411],[38.754319,9.030399],[38.754219,9.0304],[38.754183,9.030389],[38.754174,9.030368]]}}]}
