{"type":"FeatureCollection","features":[{"type":"Feature","properties":{"source":"BRouter, profile hiking-mountain; \u00a9 OpenStreetMap contributors, ODbL"},"geometry":{"type":"LineString","coordinates":[[29.892999,31.178355],[29.892933,31.178356],[29.89274,31.178465],[29.892711,31.178553],[29.892685,31.17858],[29.892667,31.178598],[29.892703,31.178606],[29.892727,31.178619],[29.892745,31.178648],[29.892819,31.178796],[29.892934,31.179056],[29.893106,31.179176],[29.893163,31.179225],[29.893178,31.179267],[29.893172,31.179337],[29.893147,31.179412],[29.893214,31.179446],[29.893411,31.179547],[29.893575,31.17963],[29.893688,31.179688],[29.894027,31.179861],[29.894336,31.180018],[29.894539,31.180127],[29.894733,31.180231],[29.894908,31.180324],[29.894894,31.180342],[29.894968,31.180384],[29.895169,31.180471],[29.895419,31.18057],[29.895723,31.180693],[29.895898,31.180766],[29.896064,31.180836],[29.896128,31.180869],[29.896271,31.18095],[29.896533,31.181125],[29.896588,31.181158],[29.896849,31.181334],[29.897324,31.181672],[29.897334,31.181676],[29.897328,31.181732],[29.897336,31.181733],[29.897846,31.181797],[29.897803,31.182033],[29.897767,31.182229],[29.897733,31.182426],[29.897696,31.182614],[29.897249,31.182555],[29.897241,31.182554],[29.897234,31.182603],[29.897241,31.182554],[29.897249,31.182555],[29.897696,31.182614],[29.898376,31.182711],[29.899241,31.182838],[29.899612,31.183042],[29.899814,31.183153],[29.899841,31.183169],[29.900275,31.183408],[29.900338,31.183443],[29.900508,31.183538],[29.900748,31.18367],[29.90085,31.183726],[29.901013,31.183815],[29.901244,31.183942],[29.9013,31.183975],[29.901579,31.184146],[29.901696,31.18422],[29.901783,31.184266],[29.902009,31.184386],[29.902293,31.184537],[29.902514,31.184655],[29.902789,31.184801],[29.903098,31.184965],[29.903086,31.184982],[29.903299,31.185099],[29.903299,31.185261],[29.9033,31.185471],[29.903284,31.185829],[29.903283,31.185979],[29.903282,31.186024],[29.903284,31.186506],[29.903279,31.186721],[29.903275,31.186894],[29.903266,31.187231],[29.903268,31.187714],[29.903173,31.187671],[29.902772,31.188445],[29.902691,31.188409],[29.902587,31.188574],[29.902451,31.188779],[29.902362,31.188912],[29.902329,31.188962],[29.902217,31.189132],[29.902052,31.189404],[29.902002,31.189475],[29.901823,31.189698],[29.901783,31.189746],[29.901628,31.189928],[29.901887,31.190297],[29.901813,31.190327],[29.901604,31.190415],[29.901595,31.190419],[29.901611,31.190444],[29.901606,31.190451],[29.901369,31.190767],[29.901662,31.190919],[29.901517,31.191162],[29.901378,31.19141],[29.901294,31.191561],[29.901227,31.19168],[29.901144,31.191828],[29.900954,31.19217],[29.900919,31.19223],[29.900753,31.19257],[29.900621,31.19284],[29.900327,31.193411],[29.900687,31.193529],[29.900888,31.193595],[29.901345,31.193751],[29.901096,31.194149],[29.901238,31.194175],[29.901377,31.19421],[29.901555,31.194269],[29.901725,31.194341],[29.901888,31.194425],[29.901744,31.19473],[29.901707,31.194815],[29.901504,31.195256],[29.901444,31.195387],[29.901576,31.195438],[29.903706,31.196261],[29.903737,31.196279],[29.903743,31.196302],[29.903686,31.196446],[29.90358,31.196713],[29.90364,31.196693],[29.904031,31.19659],[29.904257,31.196532],[29.904398,31.196508],[29.904533,31.196505],[29.904638,31.196528],[29.904724,31.196573],[29.904783,31.196496],[29.904863,31.196425],[29.904893,31.196458],[29.90497,31.196506],[29.905005,31.19652],[29.90537,31.196669],[29.905594,31.19676],[29.905697,31.196563],[29.906206,31.196736],[29.906577,31.196862],[29.906786,31.19694],[29.907047,31.197034],[29.907148,31.197073],[29.907075,31.197203],[29.907079,31.197244],[29.907095,31.197264],[29.907362,31.197394],[29.907476,31.197452],[29.90749,31.197469],[29.907501,31.197495],[29.907511,31.197503],[29.907604,31.197535],[29.907523,31.19772],[29.907746,31.197798],[29.908007,31.197875],[29.908196,31.197922],[29.908295,31.197937],[29.908776,31.198042],[29.908912,31.198117],[29.909014,31.198202],[29.909082,31.198228],[29.909233,31.198255],[29.90936,31.19828],[29.909627,31.198349],[29.909657,31.19836],[29.909593,31.198507],[29.90959,31.198534],[29.9096,31.198558],[29.909623,31.198577],[29.909663,31.198588],[29.909421,31.199136],[29.909431,31.199139],[29.909181,31.199636],[29.908992,31.199997],[29.909411,31.200153],[29.909692,31.200258],[29.909773,31.200289],[29.910142,31.20043],[29.910409,31.200531],[29.9111,31.200798],[29.91151,31.20096],[29.911951,31.201133],[29.911999,31.201018],[29.912001,31.201],[29.911999,31.201018],[29.911951,31.201133],[29.911879,31.201291],[29.911768,31.201623],[29.911302,31.201531],[29.910786,31.201427],[29.910647,31.201715],[29.910564,31.201887],[29.910513,31.201992],[29.910449,31.202087],[29.910238,31.202429],[29.910121,31.202614],[29.910039,31.202746],[29.909929,31.202921],[29.909722,31.203264],[29.909496,31.20366],[29.909408,31.203834],[29.909285,31.204077],[29.909204,31.204237],[29.909166,31.204311],[29.909149,31.204345],[29.909017,31.204585],[29.908953,31.204689],[29.908907,31.204766],[29.908877,31.204821],[29.908734,31.205076],[29.908695,31.205057],[29.908665,31.205104],[29.908646,31.205136],[29.908607,31.2052],[29.908651,31.205221],[29.908522,31.205321],[29.907855,31.20585],[29.908224,31.206217],[29.90721,31.207009],[29.90752,31.207519],[29.908926,31.207866],[29.908952,31.208011],[29.90896,31.208027],[29.908992,31.208044],[29.909039,31.208043],[29.909375,31.207976],[29.90944,31.207991],[29.909507,31.208007],[29.909571,31.208022],[29.909613,31.207926],[29.909749,31.20797],[29.909517,31.208141],[29.909196,31.208375],[29.908837,31.208637],[29.909196,31.208375],[29.909517,31.208141],[29.909749,31.20797],[29.909613,31.207926],[29.909571,31.208022],[29.909507,31.208007],[29.90944,31.207991],[29.909375,31.207976],[29.909039,31.208043],[29.908992,31.208044],[29.90896,31.208027],[29.908952,31.208011],[29.908939,31.20808],[29.908939,31.208149],[29.908947,31.208184],[29.908968,31.208242],[29.908991,31.208283],[29.909082,31.208375],[29.908871,31.208528],[29.908804,31.208576],[29.90858,31.208744],[29.908316,31.208634],[29.908148,31.208575],[29.907985,31.208517],[29.907959,31.208536],[29.90756,31.208819],[29.9075,31.20875],[29.907392,31.208611],[29.907295,31.208466],[29.907107,31.208169],[29.906962,31.20795],[29.906927,31.2079],[29.906588,31.207415],[29.905888,31.206505],[29.905478,31.206028],[29.904855,31.205339],[29.904248,31.204734],[29.903703,31.20419],[29.903054,31.203646],[29.902409,31.203113],[29.902029,31.202813],[29.901654,31.202543],[29.901218,31.202267],[29.900807,31.202025],[29.900442,31.201818],[29.90009,31.201626],[29.899931,31.20156],[29.899758,31.201474],[29.899659,31.201425],[29.899599,31.201394],[29.899523,31.201358],[29.899494,31.201344],[29.89924,31.201234],[29.899248,31.20122],[29.899254,31.201208],[29.899272,31.201175],[29.89928,31.20116],[29.899314,31.201096],[29.899321,31.201082],[29.899355,31.201017],[29.899363,31.201002],[29.899374,31.200982],[29.899402,31.200993],[29.899374,31.200982],[29.899291,31.200949],[29.899327,31.200883],[29.899123,31.200803],[29.899098,31.200789],[29.89909,31.200778],[29.899074,31.200775],[29.899021,31.200898],[29.898994,31.200938],[29.898828,31.20104],[29.89881,31.20105],[29.898796,31.201044],[29.898717,31.201017],[29.898566,31.200968],[29.898932,31.200244],[29.89894,31.200229],[29.898953,31.200203],[29.898971,31.20016],[29.899013,31.200016],[29.899051,31.199945],[29.899092,31.199896],[29.899177,31.199828],[29.899475,31.199615],[29.899515,31.199581],[29.899539,31.199549],[29.899684,31.199234],[29.900147,31.199469],[29.900187,31.199411],[29.900147,31.199469],[29.899684,31.199234],[29.899848,31.198881],[29.900007,31.19854],[29.899848,31.198881],[29.899684,31.199234],[29.899539,31.199549],[29.899515,31.199581],[29.899475,31.199615],[29.899177,31.199828],[29.899092,31.199896],[29.899051,31.199945],[29.89828,31.199645],[29.897953,31.199536],[29.897903,31.199523],[29.89741,31.199393],[29.897357,31.199378],[29.897066,31.199301],[29.896796,31.199231],[29.896719,31.19921],[29.896527,31.199157],[29.896191,31.199243],[29.895694,31.199356],[29.895768,31.199679],[29.895772,31.199707],[29.895778,31.199742],[29.895782,31.199768],[29.895175,31.199738],[29.894721,31.199713],[29.893846,31.199701],[29.893856,31.199724],[29.893864,31.199743],[29.89395,31.199953],[29.893864,31.199743],[29.893856,31.199724],[29.893846,31.199701],[29.893322,31.199688],[29.893239,31.19966],[29.893159,31.199644],[29.892933,31.199655],[29.892928,31.19964],[29.892776,31.199222],[29.892511,31.199301],[29.892255,31.199377],[29.891959,31.199466],[29.891745,31.19953],[29.891557,31.199586],[29.891459,31.199463],[29.891355,31.199334],[29.891269,31.199227],[29.891166,31.199098],[29.891072,31.198981],[29.890452,31.199321],[29.890317,31.199096],[29.89018,31.199192],[29.890083,31.199259],[29.889868,31.199413],[29.889577,31.199619],[29.88924,31.199287],[29.888968,31.199492],[29.888799,31.199618],[29.888638,31.199736],[29.888363,31.199935],[29.888243,31.200011],[29.88812,31.200087],[29.887939,31.200195],[29.88762,31.200363],[29.887251,31.2006],[29.887123,31.200713],[29.887107,31.200727],[29.886956,31.20087],[29.886815,31.201032],[29.886734,31.201126],[29.886687,31.201178],[29.886602,31.201259],[29.886301,31.20148],[29.885801,31.201759],[29.885651,31.201844],[29.885378,31.202029],[29.88535,31.202049],[29.885324,31.202078],[29.884811,31.202652],[29.884595,31.202883],[29.884367,31.203105],[29.884032,31.203511],[29.884034,31.203559],[29.884024,31.203611],[29.883975,31.203791],[29.883923,31.203971],[29.883768,31.204215],[29.883659,31.204402],[29.883606,31.204484],[29.883434,31.204765],[29.88311,31.204622],[29.883056,31.20469],[29.882939,31.204836],[29.882824,31.204981],[29.88272,31.20511],[29.882541,31.205025],[29.882479,31.204995],[29.882062,31.204735],[29.881704,31.205107],[29.881339,31.205467],[29.880728,31.206069],[29.881222,31.206561],[29.881419,31.206765],[29.881307,31.206919],[29.881123,31.207174],[29.881008,31.207344],[29.880846,31.207583],[29.880688,31.207794],[29.880645,31.20783],[29.880594,31.207919],[29.880497,31.208089],[29.880377,31.208305],[29.880377,31.208318],[29.880392,31.208332],[29.880511,31.208382],[29.880524,31.208393],[29.880533,31.208423],[29.880413,31.208653],[29.880388,31.208701],[29.880367,31.208738],[29.880185,31.209065],[29.880388,31.209117],[29.880415,31.209138],[29.880421,31.209153],[29.880331,31.209627],[29.88025,31.20996],[29.880245,31.209981],[29.880247,31.210002],[29.880267,31.210035],[29.8803,31.210069],[29.88069,31.210346],[29.881049,31.210615],[29.881147,31.210656],[29.881201,31.210664],[29.882094,31.210588],[29.88228,31.211226],[29.882312,31.211305],[29.882305,31.211327],[29.882307,31.211351],[29.882317,31.211372],[29.882358,31.211403],[29.882384,31.211409],[29.882411,31.211408],[29.882438,31.211399],[29.882462,31.211468],[29.8825,31.211532],[29.882552,31.211588],[29.882502,31.211712],[29.882719,31.211933],[29.88276,31.211984],[29.882788,31.211999],[29.882809,31.212022],[29.882819,31.212049],[29.882818,31.212077],[29.882806,31.212104],[29.882784,31.212125],[29.883041,31.212284],[29.883242,31.212367],[29.883953,31.212693],[29.88409,31.212783],[29.884119,31.212794],[29.884197,31.212801],[29.884236,31.21281],[29.884842,31.213067],[29.885011,31.213136],[29.885089,31.213178],[29.885148,31.21322],[29.8852,31.213271],[29.885228,31.213308],[29.885226,31.213337],[29.885164,31.213487],[29.885103,31.21363],[29.885401,31.213641]]}}]}
