{"type":"FeatureCollection","features":[{"type":"Feature","properties":{"source":"BRouter, profile hiking-mountain; \u00a9 OpenStreetMap contributors, ODbL"},"geometry":{"type":"LineString","coordinates":[[4.900594,52.378894],[4.900556,52.378908],[4.900537,52.378889],[4.900532,52.378884],[4.900425,52.378776],[4.900403,52.378754],[4.900396,52.378746],[4.900389,52.378739],[4.900238,52.378583],[4.900226,52.378571],[4.900254,52.37853],[4.900194,52.378466],[4.900188,52.378461],[4.90011,52.378489],[4.899961,52.378334],[4.899905,52.378276],[4.899982,52.378249],[4.899934,52.3782],[4.89991,52.378176],[4.899374,52.378009],[4.899133,52.377872],[4.8991,52.377848],[4.899046,52.37781],[4.898782,52.377624],[4.898779,52.377621],[4.898631,52.37752],[4.898577,52.377459],[4.898561,52.377444],[4.898551,52.377431],[4.898519,52.377405],[4.898485,52.377383],[4.898454,52.377363],[4.898435,52.37735],[4.898426,52.377344],[4.898408,52.377331],[4.898362,52.377301],[4.89834,52.377292],[4.898323,52.377284],[4.898291,52.377269],[4.898265,52.377257],[4.898241,52.377247],[4.898197,52.377225],[4.898147,52.377192],[4.898116,52.377175],[4.898153,52.377135],[4.898155,52.377115],[4.898143,52.377099],[4.898187,52.37706],[4.898213,52.377036],[4.898224,52.377026],[4.898236,52.377016],[4.898282,52.376974],[4.898285,52.376972],[4.898314,52.376945],[4.898375,52.376891],[4.898392,52.376876],[4.898502,52.376858],[4.898531,52.376842],[4.898793,52.376689],[4.898949,52.37664],[4.899063,52.37663],[4.899076,52.376602],[4.899135,52.376542],[4.899609,52.376221],[4.900008,52.375915],[4.900112,52.375819],[4.900113,52.375782],[4.900167,52.375777],[4.90016,52.37575],[4.90014,52.375726],[4.899847,52.375447],[4.899699,52.375299],[4.899479,52.375076],[4.899206,52.374795],[4.899072,52.374663],[4.89894,52.374532],[4.89888,52.374473],[4.898835,52.374491],[4.898827,52.374484],[4.898697,52.37454],[4.898638,52.374576],[4.898564,52.374606],[4.898384,52.374641],[4.898156,52.374656],[4.898095,52.374655],[4.898156,52.374656],[4.898384,52.374641],[4.898564,52.374606],[4.898638,52.374576],[4.898697,52.37454],[4.898827,52.374484],[4.898835,52.374491],[4.89888,52.374473],[4.898766,52.374341],[4.89863,52.374217],[4.898423,52.374062],[4.898277,52.373969],[4.898343,52.373949],[4.89856,52.373887],[4.898636,52.373878],[4.899175,52.37373],[4.899223,52.373713],[4.89934,52.373682],[4.899405,52.373669],[4.900158,52.37348],[4.900225,52.37348],[4.900258,52.373018],[4.900164,52.372998],[4.900113,52.372955],[4.899968,52.372743],[4.900268,52.372597],[4.900667,52.372405],[4.900483,52.372085],[4.900455,52.372023],[4.900433,52.371958],[4.900428,52.371905],[4.900435,52.371841],[4.900493,52.371435],[4.900551,52.371093],[4.900556,52.371059],[4.900604,52.37073],[4.900636,52.370514],[4.900722,52.370074],[4.900727,52.370059],[4.90083,52.369815],[4.90088,52.369752],[4.900932,52.369696],[4.900954,52.369681],[4.901015,52.369643],[4.901139,52.369573],[4.90115,52.369543],[4.901175,52.36952],[4.901145,52.36949],[4.901122,52.369472],[4.90123,52.369427],[4.901122,52.369472],[4.900658,52.369077],[4.900344,52.368794],[4.900101,52.368575],[4.89952,52.368025],[4.899412,52.367927],[4.899335,52.367935],[4.899307,52.367899],[4.899079,52.367691],[4.899044,52.367651],[4.899045,52.367613],[4.899077,52.367581],[4.899142,52.367552],[4.901318,52.366695],[4.9014,52.366658],[4.901453,52.366627],[4.901473,52.366607],[4.90151,52.366577],[4.901526,52.366567],[4.90154,52.366558],[4.901594,52.366516],[4.901668,52.366446],[4.901866,52.36606],[4.901892,52.36601],[4.901894,52.366006],[4.901896,52.366002],[4.901914,52.365965],[4.901969,52.365855],[4.901994,52.365809],[4.902007,52.365783],[4.90201,52.365778],[4.902017,52.365764],[4.902264,52.365278],[4.902513,52.364798],[4.902556,52.364717],[4.902642,52.36454],[4.902661,52.364496],[4.902677,52.364455],[4.903052,52.363712],[4.902927,52.363687],[4.902457,52.363599],[4.902404,52.363589],[4.902289,52.363568],[4.901788,52.363475],[4.901681,52.363453],[4.901522,52.363751],[4.901309,52.364176],[4.901251,52.364222],[4.901119,52.364482],[4.901088,52.364541],[4.9006,52.365492],[4.900561,52.365542],[4.900457,52.365748],[4.900429,52.365805],[4.900354,52.365993],[4.90032,52.366161],[4.900307,52.366215],[4.900305,52.366223],[4.899814,52.36618],[4.899694,52.366176],[4.899325,52.366187],[4.899132,52.366195],[4.899131,52.36621],[4.899138,52.366233],[4.898477,52.366259],[4.898124,52.366274],[4.897738,52.366291],[4.897294,52.366312],[4.897299,52.36626],[4.8973,52.366245],[4.897302,52.36623],[4.897307,52.366176],[4.897308,52.366162],[4.89646,52.366164],[4.895867,52.366162],[4.895667,52.366279],[4.895159,52.366427],[4.894795,52.366527],[4.894519,52.366609],[4.893619,52.366877],[4.893574,52.366891],[4.893563,52.366894],[4.893502,52.366917],[4.893464,52.366932],[4.893455,52.366935],[4.893438,52.366942],[4.893411,52.366907],[4.893394,52.366884],[4.893293,52.366756],[4.893258,52.366682],[4.893239,52.366684],[4.893141,52.366698],[4.892368,52.366699],[4.891698,52.366726],[4.891331,52.366763],[4.890777,52.366837],[4.890559,52.366867],[4.889991,52.366965],[4.889548,52.367135],[4.889685,52.367205],[4.889858,52.367316],[4.889826,52.367344],[4.889809,52.367383],[4.889998,52.367389],[4.89054,52.367583],[4.891032,52.36776],[4.890947,52.367856],[4.890732,52.368144],[4.890444,52.368774],[4.890448,52.368828],[4.890397,52.369062],[4.890421,52.369117],[4.890436,52.369241],[4.89049,52.369417],[4.890456,52.36942],[4.890237,52.369453],[4.889997,52.369403],[4.890237,52.369453],[4.890456,52.36942],[4.89049,52.369417],[4.891037,52.369529],[4.891137,52.369538],[4.891399,52.370069],[4.891568,52.370451],[4.891666,52.370451],[4.891998,52.370408],[4.892338,52.370352],[4.892365,52.370402],[4.892455,52.370753],[4.892576,52.371119],[4.89264,52.371425],[4.892697,52.371823],[4.892737,52.372156],[4.892759,52.372358],[4.892782,52.372614],[4.892779,52.372674],[4.892777,52.372713],[4.892778,52.372718],[4.89278,52.372742],[4.892781,52.372747],[4.892785,52.372768],[4.892787,52.37278],[4.892789,52.372791],[4.892817,52.372791],[4.892859,52.372792],[4.892894,52.372795],[4.892924,52.372802],[4.893107,52.373097],[4.893141,52.373152],[4.893134,52.37316],[4.893127,52.373168],[4.893119,52.373176],[4.893111,52.373183],[4.893102,52.37319],[4.893093,52.373197],[4.893084,52.373204],[4.893073,52.37321],[4.893063,52.373217],[4.893052,52.373222],[4.89304,52.373228],[4.893028,52.373233],[4.893016,52.373238],[4.893003,52.373243],[4.89297,52.373256],[4.892474,52.373435],[4.892483,52.373444],[4.892492,52.373453],[4.892422,52.373476],[4.8924,52.373482],[4.892379,52.373488],[4.892357,52.373494],[4.892335,52.3735],[4.892312,52.373505],[4.89229,52.373511],[4.892267,52.373515],[4.892245,52.37352],[4.892222,52.373524],[4.892199,52.373529],[4.892176,52.373532],[4.892152,52.373536],[4.892128,52.373539],[4.892103,52.373542],[4.892078,52.373545],[4.892053,52.373548],[4.892028,52.37355],[4.892003,52.373552],[4.891978,52.373554],[4.891953,52.373555],[4.891928,52.373556],[4.891705,52.373562],[4.891325,52.373569],[4.891219,52.373573],[4.891202,52.373575],[4.891186,52.373576],[4.891169,52.373579],[4.891152,52.373582],[4.891136,52.373585],[4.89112,52.373589],[4.891105,52.373593],[4.891089,52.373598],[4.891075,52.373604],[4.891057,52.373611],[4.891028,52.37361],[4.890993,52.373612],[4.890933,52.373616],[4.890902,52.373621],[4.890887,52.373623],[4.890819,52.373634],[4.890798,52.373637],[4.890778,52.373641],[4.890686,52.373655],[4.890605,52.373668],[4.890447,52.37334],[4.890419,52.373313],[4.890382,52.373291],[4.890317,52.373271],[4.890234,52.373267],[4.889886,52.373298],[4.889844,52.373301],[4.889731,52.373311],[4.889635,52.373318],[4.889206,52.37334],[4.889029,52.373344],[4.888719,52.373359],[4.888553,52.373369],[4.888494,52.37337],[4.888421,52.373363],[4.887556,52.373456],[4.887516,52.373474],[4.88746,52.373484],[4.887402,52.37349],[4.887319,52.373488],[4.887094,52.373515],[4.886942,52.373537],[4.886882,52.373538],[4.886816,52.373527],[4.886709,52.373539],[4.886584,52.373563],[4.886474,52.373593],[4.886372,52.373629],[4.886273,52.373675],[4.885848,52.373917],[4.885677,52.373986],[4.885483,52.374037],[4.8854,52.374056],[4.885375,52.37408],[4.885338,52.374088],[4.885161,52.374095],[4.88492,52.374103],[4.884847,52.374111],[4.884801,52.37415],[4.884751,52.374156],[4.884754,52.374199],[4.884757,52.374252],[4.884764,52.374356],[4.884848,52.374501],[4.88492,52.374598],[4.884219,52.374835],[4.884183,52.374794]]}}]}
