{"type":"FeatureCollection","features":[{"type":"Feature","properties":{"source":"BRouter, profile hiking-mountain; \u00a9 OpenStreetMap contributors, ODbL"},"geometry":{"type":"LineString","coordinates":[[100.501332,13.751805],[100.501334,13.751798],[100.501392,13.751795],[100.501402,13.751771],[100.50145,13.751745],[100.501514,13.751743],[100.50154,13.751756],[100.501547,13.751775],[100.501588,13.751777],[100.501604,13.751775],[100.501647,13.751772],[100.501725,13.751766],[100.501772,13.751793],[100.501786,13.75181],[100.501798,13.751824],[100.501856,13.751849],[100.501888,13.751885],[100.501917,13.751907],[100.50192,13.751931],[100.501994,13.751925],[100.502077,13.751916],[100.502136,13.751921],[100.502139,13.751875],[100.502427,13.751899],[100.502528,13.751926],[100.50272,13.751936],[100.503046,13.751968],[100.503253,13.751989],[100.503619,13.752025],[100.504348,13.75209],[100.504408,13.752092],[100.504418,13.752084],[100.504428,13.752132],[100.504444,13.752202],[100.504473,13.75231],[100.504559,13.752291],[100.504644,13.752272],[100.504636,13.752226],[100.504683,13.752209],[100.504915,13.752216],[100.504937,13.752204],[100.505297,13.752211],[100.505399,13.752213],[100.505422,13.752222],[100.505433,13.752241],[100.505931,13.754103],[100.505968,13.754094],[100.506045,13.754075],[100.506102,13.75406],[100.506088,13.753716],[100.506088,13.753701],[100.506088,13.753716],[100.506102,13.75406],[100.506045,13.754075],[100.505968,13.754094],[100.506027,13.754349],[100.5062,13.755074],[100.506212,13.75514],[100.506218,13.755225],[100.506214,13.755284],[100.506206,13.755695],[100.506217,13.755761],[100.506108,13.755816],[100.505956,13.75606],[100.505923,13.756041],[100.505702,13.755916],[100.505687,13.75586],[100.505599,13.755841],[100.505439,13.755806],[100.505398,13.755764],[100.505359,13.755789],[100.50534,13.755802],[100.50532,13.755814],[100.505289,13.755809],[100.505224,13.755793],[100.505148,13.755765],[100.505119,13.755755],[100.505067,13.75577],[100.504765,13.755842],[100.504613,13.755879],[100.504596,13.755806],[100.504576,13.755722],[100.504506,13.755695],[100.504494,13.755656],[100.504413,13.755675],[100.504398,13.755617],[100.504298,13.755649],[100.504272,13.755546],[100.504262,13.75552],[100.504086,13.75558],[100.504079,13.75555],[100.50406,13.755478],[100.50433,13.75539],[100.50438,13.755374],[100.504337,13.755162],[100.504315,13.755113],[100.504269,13.755121],[100.504259,13.755078],[100.504269,13.755121],[100.504315,13.755113],[100.504337,13.755162],[100.50438,13.755374],[100.50433,13.75539],[100.50406,13.755478],[100.504079,13.75555],[100.504086,13.75558],[100.503703,13.755707],[100.503515,13.755746],[100.503325,13.755788],[100.503236,13.755808],[100.503265,13.755906],[100.503318,13.756091],[100.503336,13.756152],[100.50334,13.756172],[100.502408,13.756341],[100.502419,13.756429],[100.502465,13.756629],[100.502504,13.756834],[100.502457,13.756859],[100.502404,13.756955],[100.50237,13.757018],[100.502278,13.757137],[100.5022,13.757201],[100.502096,13.757241],[100.50206,13.757268],[100.50198,13.757291],[100.501915,13.75731],[100.501887,13.757303],[100.501842,13.757304],[100.501685,13.757267],[100.501518,13.757196],[100.501461,13.757148],[100.501613,13.756974],[100.501573,13.756939],[100.501532,13.756889],[100.501498,13.756826],[100.501485,13.756776],[100.501498,13.756826],[100.501532,13.756889],[100.501573,13.756939],[100.501613,13.756974],[100.501461,13.757148],[100.501432,13.75718],[100.501398,13.757346],[100.50138,13.757392],[100.501302,13.757413],[100.500494,13.757571],[100.500174,13.757639],[100.499971,13.757686],[100.499575,13.757771],[100.499518,13.757784],[100.499408,13.757807],[100.499238,13.757845],[100.499066,13.757876],[100.499008,13.757887],[100.498978,13.757894],[100.498993,13.757989],[100.498985,13.757999],[100.498984,13.757993],[100.498953,13.758041],[100.498848,13.758089],[100.498356,13.758318],[100.497979,13.758506],[100.497964,13.758507],[100.497924,13.758522],[100.497773,13.758601],[100.497752,13.758604],[100.497528,13.758715],[100.497562,13.758775],[100.497449,13.758829],[100.4973,13.7589],[100.497066,13.759013],[100.497048,13.759021],[100.497087,13.759082],[100.497164,13.75921],[100.497162,13.759238],[100.497138,13.759275],[100.496981,13.759445],[100.497072,13.759536],[100.496997,13.759613],[100.497305,13.759932],[100.497167,13.760054],[100.497027,13.76019],[100.497139,13.760303],[100.497285,13.760479],[100.497449,13.760736],[100.497119,13.760928],[100.497045,13.760955],[100.4971,13.761],[100.497157,13.761047],[100.497158,13.761061],[100.497186,13.76109],[100.497127,13.76115],[100.497093,13.761184],[100.497356,13.76142],[100.497681,13.761711],[100.498115,13.762118],[100.498121,13.762143],[100.498113,13.762179],[100.498093,13.762194],[100.49803,13.762245],[100.497824,13.762388],[100.497157,13.762822],[100.496748,13.763089],[100.496707,13.763125],[100.49659,13.763205],[100.496316,13.763392],[100.496012,13.7636],[100.495902,13.763649],[100.495831,13.763671],[100.495798,13.763672],[100.495736,13.763676],[100.495631,13.763642],[100.495554,13.763606],[100.495262,13.76339],[100.495204,13.763347],[100.494928,13.763139],[100.494818,13.763049],[100.494573,13.762848],[100.494503,13.76279],[100.494256,13.762589],[100.493959,13.762358],[100.493507,13.762007],[100.492919,13.761546],[100.492147,13.760918],[100.492059,13.760843],[100.492066,13.760819],[100.492097,13.760779],[100.492055,13.760743],[100.492013,13.760708],[100.491842,13.760564],[100.491745,13.760482],[100.49163,13.760385],[100.491579,13.760342],[100.491905,13.760016],[100.492515,13.759429],[100.492861,13.759054],[100.49296,13.758963],[100.492981,13.758928],[100.492983,13.75889],[100.492941,13.758734],[100.492824,13.758308],[100.492751,13.758045],[100.492597,13.757506],[100.492548,13.757524],[100.492455,13.757559],[100.492386,13.75759],[100.492115,13.757709],[100.492142,13.757772],[100.492177,13.75776],[100.492187,13.757779],[100.492231,13.75776],[100.492237,13.757773],[100.492286,13.757751],[100.4923,13.757774],[100.492322,13.757763],[100.492348,13.757819],[100.492322,13.757763],[100.4923,13.757774],[100.492286,13.757751],[100.492237,13.757773],[100.492231,13.75776],[100.492187,13.757779],[100.492177,13.75776],[100.492142,13.757772],[100.492115,13.757709],[100.492386,13.75759],[100.492455,13.757559],[100.492548,13.757524],[100.492597,13.757506],[100.492485,13.757071],[100.492465,13.756996],[100.492447,13.756926],[100.492138,13.755852],[100.492126,13.75581],[100.492068,13.755605],[100.492057,13.75559],[100.492041,13.755579],[100.492018,13.755497],[100.492,13.755432],[100.492021,13.755407],[100.49202,13.755368],[100.491958,13.755155],[100.491948,13.755071],[100.491946,13.755051],[100.491873,13.754777],[100.491858,13.754728],[100.491849,13.754702],[100.49173,13.75426],[100.491546,13.753584],[100.491521,13.753506],[100.491496,13.753475],[100.491491,13.753455],[100.491441,13.753256],[100.491425,13.75326],[100.491394,13.753149],[100.491604,13.753104],[100.4919,13.752349],[100.49204,13.752347],[100.492179,13.752348],[100.492201,13.75235],[100.4922,13.752377],[100.492499,13.752384],[100.492546,13.752371],[100.492571,13.752373],[100.492614,13.752377],[100.493329,13.752393],[100.493389,13.752403],[100.493406,13.752401],[100.493457,13.75237],[100.49348,13.752322],[100.493493,13.752239],[100.493585,13.752245],[100.493672,13.752253],[100.493673,13.752215],[100.493676,13.752196],[100.493736,13.751854],[100.493738,13.751831],[100.49374,13.751796],[100.493785,13.75154],[100.49379,13.751506],[100.493793,13.751484],[100.493842,13.751139],[100.493861,13.751107],[100.493868,13.751032],[100.493889,13.750914],[100.49389,13.750879],[100.493939,13.750544],[100.493971,13.750337],[100.493978,13.75029],[100.493985,13.750245],[100.493995,13.750181],[100.494056,13.749803],[100.494063,13.749758],[100.49415,13.749134],[100.494355,13.747805],[100.494261,13.74779],[100.494158,13.747774],[100.494157,13.747745],[100.494131,13.747707],[100.494048,13.747649],[100.493951,13.74762],[100.493968,13.747563],[100.493983,13.74749],[100.494008,13.747478],[100.494028,13.747453],[100.494037,13.747426],[100.494117,13.747072],[100.494071,13.747072],[100.493964,13.747053],[100.493912,13.746955],[100.493997,13.746851],[100.494017,13.746754],[100.493892,13.746713],[100.493898,13.746693],[100.493847,13.746679],[100.4937,13.746635],[100.493691,13.746665],[100.493617,13.746644],[100.493569,13.746629],[100.4936,13.746529],[100.493569,13.746629],[100.493617,13.746644],[100.493691,13.746665],[100.4937,13.746635],[100.493847,13.746679],[100.493898,13.746693],[100.493892,13.746713],[100.494017,13.746754],[100.493997,13.746851],[100.493912,13.746955],[100.493964,13.747053],[100.494071,13.747072],[100.494117,13.747072],[100.494122,13.747038],[100.494237,13.746187],[100.494245,13.746125],[100.494231,13.746088],[100.494239,13.746043],[100.494245,13.746004],[100.494267,13.745983],[100.494323,13.745617],[100.494375,13.745277],[100.494449,13.744773],[100.494465,13.744704],[100.494471,13.744677],[100.494474,13.744659],[100.494485,13.744589],[100.494535,13.744273],[100.494591,13.743913],[100.494651,13.743514],[100.494691,13.743221],[100.494678,13.743184],[100.494482,13.743038],[100.494412,13.743019],[100.494372,13.74303],[100.494366,13.743014],[100.494345,13.742967],[100.494321,13.74291],[100.494797,13.742734],[100.4943,13.741958],[100.494291,13.741892],[100.494273,13.741863],[100.494435,13.741764],[100.494405,13.741711],[100.49441,13.741641],[100.494464,13.741641],[100.494479,13.741608],[100.494502,13.74159],[100.495163,13.741228],[100.495301,13.74115],[100.49546,13.741086],[100.495755,13.740963],[100.496463,13.740709],[100.496786,13.740582],[100.497267,13.74042],[100.497247,13.740369],[100.497254,13.740334],[100.497894,13.740122],[100.497921,13.740203],[100.497937,13.740252],[100.498038,13.740219],[100.498305,13.74013],[100.498339,13.740123],[100.498372,13.740123],[100.498418,13.740136],[100.49845,13.740153],[100.49847,13.740176],[100.498805,13.741062],[100.498764,13.741275],[100.498758,13.741284],[100.49882,13.74131],[100.498776,13.741415],[100.498741,13.741468],[100.49869,13.741511],[100.49868,13.741536],[100.498569,13.741464],[100.498351,13.74153],[100.498216,13.741144],[100.498085,13.740763],[100.498077,13.740735],[100.498073,13.74072],[100.498035,13.740729],[100.498006,13.740728],[100.49798,13.740714],[100.497924,13.740671],[100.497881,13.740622],[100.497846,13.740592],[100.497825,13.740608],[100.497911,13.740508],[100.497928,13.740474],[100.497932,13.740443],[100.497918,13.740281],[100.497579,13.739305],[100.497918,13.740281],[100.497932,13.740443],[100.497928,13.740474],[100.497911,13.740508],[100.497825,13.740608],[100.497846,13.740592],[100.497881,13.740622],[100.497924,13.740671],[100.49798,13.740714],[100.498006,13.740728],[100.498035,13.740729],[100.498073,13.74072],[100.498077,13.740735],[100.498085,13.740763],[100.498216,13.741144],[100.498351,13.74153],[100.498569,13.741464],[100.49868,13.741536],[100.49869,13.741511],[100.498741,13.741468],[100.498776,13.741415],[100.49882,13.74131],[100.498758,13.741284],[100.498764,13.741275],[100.498805,13.741062],[100.49847,13.740176],[100.49845,13.740153],[100.498418,13.740136],[100.498372,13.740123],[100.498339,13.740123],[100.498305,13.74013],[100.498038,13.740219],[100.497937,13.740252],[100.497921,13.740203],[100.497894,13.740122],[100.497254,13.740334],[100.497247,13.740369],[100.497267,13.74042],[100.496786,13.740582],[100.496463,13.740709],[100.495755,13.740963],[100.49546,13.741086],[100.495301,13.74115],[100.495163,13.741228],[100.494502,13.74159],[100.494479,13.741608],[100.494464,13.741641],[100.49441,13.741641],[100.494405,13.741711],[100.494435,13.741764],[100.494273,13.741863],[100.494291,13.741892],[100.4943,13.741958],[100.494797,13.742734],[100.494321,13.74291],[100.494288,13.742925],[100.494216,13.742959],[100.493869,13.743151],[100.493607,13.743343],[100.493457,13.74351],[100.492875,13.74411],[100.492798,13.744196],[100.492728,13.744263],[100.492669,13.744321],[100.492465,13.74453],[100.492314,13.744685],[100.491779,13.744244],[100.491765,13.744262],[100.491625,13.74415],[100.491635,13.744122],[100.491522,13.744031],[100.491224,13.743858],[100.490833,13.743794],[100.490415,13.743791],[100.490236,13.743906],[100.490051,13.743909],[100.489941,13.743876],[100.48992,13.743857],[100.489816,13.743797],[100.489782,13.743806],[100.489572,13.743726],[100.489556,13.743759],[100.489486,13.743735]]}}]}
