{"type":"FeatureCollection","features":[{"type":"Feature","properties":{"source":"BRouter, profile hiking-mountain; \u00a9 OpenStreetMap contributors, ODbL"},"geometry":{"type":"LineString","coordinates":[[116.391799,39.903199],[116.391818,39.9032],[116.392331,39.903218],[116.392885,39.903227],[116.392868,39.90372],[116.39305,39.903725],[116.393214,39.903728],[116.393414,39.903733],[116.393441,39.903734],[116.393352,39.905617],[116.393393,39.905701],[116.393436,39.905726],[116.393783,39.905742],[116.39378,39.905818],[116.39378,39.905935],[116.393764,39.906582],[116.393761,39.906631],[116.393084,39.906609],[116.391546,39.906562],[116.391539,39.906639],[116.391527,39.906936],[116.391524,39.907088],[116.391522,39.90717],[116.391509,39.907518],[116.391506,39.907601],[116.391372,39.9076],[116.391247,39.907598],[116.391241,39.907738],[116.391647,39.907746],[116.39165,39.907689],[116.391655,39.907564],[116.391815,39.907566],[116.391849,39.907562],[116.391876,39.90755],[116.391898,39.907528],[116.391904,39.907384],[116.391904,39.907372],[116.39189,39.907372],[116.391891,39.907361],[116.391893,39.907311],[116.391894,39.907294],[116.391897,39.907227],[116.391898,39.907199],[116.391303,39.907185],[116.391898,39.907199],[116.391897,39.907227],[116.391894,39.907294],[116.391893,39.907311],[116.391891,39.907361],[116.39189,39.907372],[116.391904,39.907372],[116.391904,39.907384],[116.391898,39.907528],[116.391876,39.90755],[116.391849,39.907562],[116.391815,39.907566],[116.391655,39.907564],[116.39165,39.907689],[116.391647,39.907746],[116.391241,39.907738],[116.391219,39.908255],[116.391195,39.908829],[116.391137,39.908827],[116.391117,39.909175],[116.39118,39.909176],[116.391094,39.911229],[116.391092,39.911269],[116.391086,39.911355],[116.391078,39.911493],[116.391054,39.911867],[116.391033,39.912204],[116.391129,39.912206],[116.391125,39.912361],[116.391116,39.912604],[116.391112,39.912753],[116.391201,39.912755],[116.391112,39.912753],[116.391114,39.912905],[116.391107,39.912999],[116.3911,39.9132],[116.391078,39.913361],[116.390992,39.913402],[116.390987,39.913629],[116.390981,39.913732],[116.390961,39.913731],[116.390957,39.913829],[116.390977,39.91383],[116.390976,39.913849],[116.390966,39.914085],[116.390966,39.914097],[116.390946,39.914096],[116.390911,39.914095],[116.390902,39.914388],[116.390899,39.914472],[116.390862,39.914471],[116.390845,39.914901],[116.390838,39.915078],[116.390787,39.915077],[116.390782,39.915212],[116.39078,39.915296],[116.390778,39.915361],[116.39083,39.915362],[116.390826,39.9155],[116.390824,39.915608],[116.390934,39.915609],[116.39093,39.91572],[116.391212,39.915725],[116.39121,39.91579],[116.391448,39.915795],[116.391506,39.915796],[116.391564,39.915797],[116.391566,39.915726],[116.391585,39.915726],[116.391716,39.915729],[116.391711,39.915888],[116.39171,39.915906],[116.391776,39.915907],[116.391771,39.91606],[116.391704,39.916058],[116.391694,39.916215],[116.391682,39.916389],[116.391679,39.916439],[116.391671,39.916555],[116.391661,39.916715],[116.391658,39.916755],[116.391657,39.916781],[116.391723,39.916782],[116.391717,39.916935],[116.391651,39.916933],[116.39165,39.916951],[116.391645,39.91711],[116.391514,39.917107],[116.391513,39.917125],[116.391508,39.917291],[116.390875,39.91728],[116.390871,39.917414],[116.390843,39.917413],[116.390843,39.917466],[116.390747,39.917464],[116.390741,39.917689],[116.390739,39.917755],[116.390756,39.917756],[116.390776,39.917756],[116.390776,39.917767],[116.390774,39.917847],[116.390783,39.917847],[116.39078,39.917927],[116.39078,39.917938],[116.390799,39.917938],[116.390798,39.917978],[116.390779,39.917978],[116.39077,39.918159],[116.390784,39.918158],[116.390782,39.918299],[116.390782,39.918351],[116.390755,39.918351],[116.390752,39.918432],[116.390728,39.918431],[116.390673,39.91843],[116.39067,39.918525],[116.390666,39.918618],[116.390666,39.918624],[116.390654,39.918871],[116.390651,39.918959],[116.390784,39.918961],[116.390781,39.919097],[116.390792,39.919097],[116.390788,39.919269],[116.390645,39.919267],[116.390632,39.919381],[116.390621,39.919475],[116.39062,39.919498],[116.390601,39.919498],[116.390554,39.919497],[116.390551,39.919588],[116.390598,39.919588],[116.390598,39.919593],[116.39062,39.919593],[116.390619,39.919634],[116.390595,39.919634],[116.390594,39.919659],[116.390618,39.919659],[116.390616,39.919745],[116.390642,39.919745],[116.390642,39.919766],[116.390615,39.919765],[116.390614,39.919817],[116.390363,39.91981],[116.390356,39.919954],[116.390347,39.920129],[116.390343,39.920231],[116.390335,39.920401],[116.390593,39.920409],[116.390591,39.920448],[116.390589,39.920481],[116.390585,39.920514],[116.390582,39.920543],[116.39058,39.920577],[116.39058,39.920603],[116.390574,39.920809],[116.390565,39.92104],[116.390564,39.921066],[116.39056,39.921213],[116.390538,39.921699],[116.390535,39.921777],[116.390528,39.921806],[116.390598,39.921809],[116.390528,39.921806],[116.390535,39.921777],[116.390164,39.921765],[116.390165,39.921732],[116.389997,39.921728],[116.389979,39.922002],[116.390136,39.922008],[116.390519,39.92202],[116.390519,39.922034],[116.390503,39.922307],[116.390745,39.92234],[116.390969,39.922384],[116.391404,39.922468],[116.392274,39.92267],[116.392475,39.922744],[116.392572,39.92279],[116.392709,39.922909],[116.392877,39.923098],[116.392882,39.92336],[116.392893,39.923606],[116.392727,39.923829],[116.392453,39.923808],[116.392164,39.923772],[116.391961,39.923778],[116.391755,39.923826],[116.391495,39.923937],[116.391123,39.92408],[116.391129,39.92396],[116.391263,39.923828],[116.391646,39.923664],[116.391722,39.923631],[116.391646,39.923664],[116.391263,39.923828],[116.391129,39.92396],[116.391123,39.92408],[116.390715,39.92424],[116.39043,39.924244],[116.390129,39.924213],[116.390022,39.924175],[116.389934,39.924143],[116.389806,39.924297],[116.389711,39.924563],[116.389555,39.924543],[116.389075,39.924417],[116.388245,39.924247],[116.388055,39.924236],[116.38792,39.924237],[116.387446,39.924219],[116.386937,39.924193],[116.386532,39.924191],[116.386485,39.924343],[116.386163,39.924378],[116.385326,39.924365],[116.385225,39.924433],[116.385026,39.924482],[116.384837,39.924479],[116.384596,39.924483],[116.384247,39.924464],[116.384119,39.92446],[116.384108,39.924545],[116.384033,39.924744],[116.383927,39.92499],[116.383791,39.925161],[116.383611,39.925319],[116.383503,39.925364],[116.383479,39.925375],[116.383342,39.925403],[116.382883,39.925382],[116.382844,39.925488],[116.380986,39.928789],[116.381178,39.929136],[116.381295,39.92926],[116.381449,39.929362],[116.381807,39.929596],[116.381738,39.93018],[116.382118,39.930169],[116.382121,39.930264],[116.382157,39.930471],[116.382147,39.930738],[116.382157,39.930471],[116.382121,39.930264],[116.382118,39.930169],[116.382495,39.929994],[116.382597,39.930101],[116.382788,39.930403],[116.3829,39.930829],[116.382973,39.930925],[116.383093,39.931005],[116.383455,39.931106],[116.383606,39.931181],[116.383798,39.93126],[116.383773,39.931352],[116.383798,39.931477],[116.383844,39.931638],[116.383722,39.931635],[116.383679,39.931711],[116.383674,39.931894],[116.383509,39.931889],[116.383501,39.931985],[116.383498,39.932097],[116.383469,39.932752],[116.382179,39.932731],[116.382153,39.93289],[116.382036,39.93363],[116.381943,39.93413],[116.381925,39.934269],[116.381926,39.934395],[116.381961,39.935071],[116.381927,39.935118],[116.381977,39.936129],[116.382102,39.936279],[116.382109,39.93646],[116.382744,39.936443],[116.38271,39.935682],[116.383448,39.935652],[116.383481,39.935884],[116.383905,39.935841],[116.383941,39.936044],[116.383925,39.936769],[116.383981,39.936985],[116.38411,39.937032],[116.384542,39.93711],[116.385009,39.937157],[116.385349,39.937177],[116.385406,39.93718],[116.385431,39.937361],[116.385678,39.93732],[116.386027,39.937318],[116.387024,39.93735],[116.387032,39.937389],[116.387131,39.937546],[116.387144,39.937561],[116.387175,39.937608],[116.387214,39.937668],[116.387224,39.937684],[116.38744,39.937929],[116.388384,39.937664],[116.388737,39.937642],[116.388788,39.937653],[116.389137,39.937827],[116.38924,39.937865],[116.389759,39.937882],[116.389709,39.938645],[116.389706,39.938689],[116.389701,39.938771],[116.38978,39.938847],[116.389834,39.938885],[116.390522,39.939368],[116.389812,39.939811],[116.389752,39.940576],[116.390166,39.940968],[116.390164,39.941142],[116.389899,39.941346],[116.389698,39.941523],[116.389692,39.941744],[116.389675,39.942387],[116.389646,39.94243],[116.390626,39.94248],[116.391515,39.94249],[116.392436,39.942513],[116.393378,39.942548],[116.394947,39.942558],[116.396706,39.942588],[116.396735,39.94192],[116.396766,39.941187],[116.396788,39.940686],[116.396795,39.940302],[116.396788,39.940686],[116.397201,39.940694],[116.397706,39.940705],[116.397969,39.940711],[116.397968,39.940737],[116.398229,39.940741],[116.398228,39.940818],[116.398339,39.94082],[116.398845,39.94083],[116.398841,39.941499],[116.398895,39.942304],[116.398923,39.942303],[116.399063,39.942403],[116.399072,39.942434],[116.399076,39.942601],[116.400596,39.942606],[116.400827,39.942606],[116.401955,39.942618],[116.401935,39.943351],[116.401927,39.944042],[116.401957,39.944004],[116.402019,39.944004],[116.402148,39.944006],[116.402219,39.944007],[116.402355,39.944009],[116.402623,39.944011],[116.405414,39.944039],[116.407955,39.944073],[116.409065,39.944084],[116.410442,39.94409],[116.41045,39.9438],[116.41046,39.943634],[116.411486,39.943632]]}}]}
