{"type":"FeatureCollection","features":[{"type":"Feature","properties":{"source":"BRouter, profile hiking-mountain; \u00a9 OpenStreetMap contributors, ODbL"},"geometry":{"type":"LineString","coordinates":[[116.391799,39.903199],[116.391818,39.9032],[116.392331,39.903218],[116.392885,39.903227],[116.392868,39.90372],[116.39305,39.903725],[116.393214,39.903728],[116.393414,39.903733],[116.393441,39.903734],[116.393352,39.905617],[116.393393,39.905701],[116.393436,39.905726],[116.393783,39.905742],[116.39378,39.905818],[116.39378,39.905935],[116.393764,39.906582],[116.393761,39.906631],[116.393084,39.906609],[116.391546,39.906562],[116.391539,39.906639],[116.391527,39.906936],[116.391524,39.907088],[116.391522,39.90717],[116.391509,39.907518],[116.391506,39.907601],[116.391372,39.9076],[116.391247,39.907598],[116.391241,39.907738],[116.391647,39.907746],[116.39165,39.907689],[116.391655,39.907564],[116.391815,39.907566],[116.391849,39.907562],[116.391876,39.90755],[116.391898,39.907528],[116.391904,39.907384],[116.391904,39.907372],[116.39189,39.907372],[116.391891,39.907361],[116.391893,39.907311],[116.391894,39.907294],[116.391897,39.907227],[116.391898,39.907199],[116.391303,39.907185],[116.391898,39.907199],[116.391897,39.907227],[116.391894,39.907294],[116.391893,39.907311],[116.391891,39.907361],[116.39189,39.907372],[116.391904,39.907372],[116.391904,39.907384],[116.391898,39.907528],[116.391876,39.90755],[116.391849,39.907562],[116.391815,39.907566],[116.391655,39.907564],[116.39165,39.907689],[116.391647,39.907746],[116.391241,39.907738],[116.391219,39.908255],[116.391195,39.908829],[116.391137,39.908827],[116.391117,39.909175],[116.39118,39.909176],[116.391094,39.911229],[116.391092,39.911269],[116.391086,39.911355],[116.391078,39.911493],[116.391054,39.911867],[116.391033,39.912204],[116.391129,39.912206],[116.391125,39.912361],[116.391116,39.912604],[116.391749,39.912617],[116.391783,39.912618],[116.391786,39.912533],[116.392112,39.912541],[116.392105,39.912579],[116.392141,39.912556],[116.392143,39.912485],[116.392355,39.912488],[116.392403,39.912527],[116.392379,39.912949],[116.39245,39.913035],[116.392707,39.913242],[116.393116,39.913229],[116.393613,39.913244],[116.393726,39.913291],[116.393803,39.913362],[116.393933,39.913585],[116.394015,39.913656],[116.394155,39.913668],[116.394228,39.913705],[116.39445,39.913699],[116.394644,39.913702],[116.39506,39.913721],[116.395215,39.913724],[116.395342,39.913726],[116.395393,39.913729],[116.395476,39.913733],[116.39547,39.913877],[116.396163,39.913894],[116.396199,39.913894],[116.396605,39.913905],[116.396612,39.913766],[116.396732,39.91377],[116.397381,39.913798],[116.397351,39.914282],[116.397332,39.914301],[116.39731,39.914408],[116.397704,39.914409],[116.397696,39.91452],[116.397995,39.914525],[116.397961,39.916011],[116.39765,39.916016],[116.397642,39.916318],[116.397617,39.916738],[116.397596,39.917026],[116.397552,39.917186],[116.397539,39.917468],[116.397564,39.917639],[116.397557,39.917981],[116.397537,39.918424],[116.39809,39.918445],[116.398757,39.918463],[116.398587,39.920934],[116.397923,39.920913],[116.397909,39.921628],[116.397816,39.922299],[116.397506,39.922305],[116.397461,39.922615],[116.397359,39.922561],[116.397256,39.922478],[116.396794,39.922171],[116.396673,39.922063],[116.396464,39.921946],[116.396429,39.921919],[116.396523,39.921891],[116.397183,39.921898],[116.397251,39.921875],[116.397297,39.921819],[116.3973,39.921786],[116.397297,39.921819],[116.397251,39.921875],[116.397183,39.921898],[116.396523,39.921891],[116.396429,39.921919],[116.396464,39.921946],[116.396453,39.922004],[116.396406,39.922117],[116.396373,39.9222],[116.396358,39.922236],[116.396348,39.922261],[116.396251,39.922239],[116.39613,39.922237],[116.395856,39.922246],[116.393547,39.922186],[116.393432,39.922172],[116.393395,39.923279],[116.393326,39.923342],[116.393318,39.923498],[116.393262,39.923549],[116.393228,39.924403],[116.392903,39.92441],[116.392773,39.924405],[116.392689,39.924369],[116.392136,39.924461],[116.391812,39.924515],[116.391487,39.924569],[116.391123,39.92408],[116.391129,39.92396],[116.391263,39.923828],[116.391646,39.923664],[116.391722,39.923631],[116.391646,39.923664],[116.391263,39.923828],[116.391129,39.92396],[116.391123,39.92408],[116.390715,39.92424],[116.39043,39.924244],[116.390129,39.924213],[116.390022,39.924175],[116.389934,39.924143],[116.389806,39.924297],[116.389711,39.924563],[116.389555,39.924543],[116.389075,39.924417],[116.388245,39.924247],[116.388055,39.924236],[116.38792,39.924237],[116.387446,39.924219],[116.386937,39.924193],[116.386532,39.924191],[116.386485,39.924343],[116.386163,39.924378],[116.385326,39.924365],[116.385225,39.924433],[116.385026,39.924482],[116.384837,39.924479],[116.384596,39.924483],[116.384247,39.924464],[116.384119,39.92446],[116.384108,39.924545],[116.384033,39.924744],[116.383927,39.92499],[116.383791,39.925161],[116.383611,39.925319],[116.383503,39.925364],[116.383479,39.925375],[116.383342,39.925403],[116.382883,39.925382],[116.382844,39.925488],[116.380986,39.928789],[116.381178,39.929136],[116.381295,39.92926],[116.381449,39.929362],[116.381807,39.929596],[116.381738,39.93018],[116.382118,39.930169],[116.382121,39.930264],[116.382157,39.930471],[116.382147,39.930738],[116.382157,39.930471],[116.382121,39.930264],[116.382118,39.930169],[116.382495,39.929994],[116.382597,39.930101],[116.382788,39.930403],[116.3829,39.930829],[116.382973,39.930925],[116.383093,39.931005],[116.383455,39.931106],[116.383606,39.931181],[116.383798,39.93126],[116.383773,39.931352],[116.383798,39.931477],[116.383844,39.931638],[116.383722,39.931635],[116.383679,39.931711],[116.383674,39.931894],[116.383509,39.931889],[116.383501,39.931985],[116.383498,39.932097],[116.383469,39.932752],[116.382179,39.932731],[116.382153,39.93289],[116.382036,39.93363],[116.381943,39.93413],[116.381925,39.934269],[116.381926,39.934395],[116.381961,39.935071],[116.381927,39.935118],[116.381977,39.936129],[116.382102,39.936279],[116.382109,39.93646],[116.382744,39.936443],[116.38271,39.935682],[116.383448,39.935652],[116.383481,39.935884],[116.383905,39.935841],[116.383941,39.936044],[116.383925,39.936769],[116.383981,39.936985],[116.38411,39.937032],[116.384542,39.93711],[116.385009,39.937157],[116.385349,39.937177],[116.385406,39.93718],[116.385431,39.937361],[116.385678,39.93732],[116.386027,39.937318],[116.387024,39.93735],[116.387032,39.937389],[116.387131,39.937546],[116.387144,39.937561],[116.387175,39.937608],[116.387214,39.937668],[116.387224,39.937684],[116.38744,39.937929],[116.388384,39.937664],[116.388737,39.937642],[116.388788,39.937653],[116.389137,39.937827],[116.38924,39.937865],[116.389759,39.937882],[116.389709,39.938645],[116.389706,39.938689],[116.389701,39.938771],[116.38978,39.938847],[116.389834,39.938885],[116.390522,39.939368],[116.389812,39.939811],[116.389752,39.940576],[116.390166,39.940968],[116.390164,39.941142],[116.389899,39.941346],[116.389698,39.941523],[116.389692,39.941744],[116.390617,39.941839],[116.390917,39.941805],[116.39099,39.94178],[116.390959,39.941719],[116.39091,39.940734],[116.391183,39.940732],[116.391243,39.940666],[116.391558,39.940469],[116.391661,39.940508],[116.392155,39.94064],[116.392205,39.940653],[116.39271,39.940684],[116.392749,39.940693],[116.392778,39.940993],[116.392772,39.941176],[116.393429,39.941192],[116.393548,39.93944],[116.393638,39.938683],[116.393674,39.938123],[116.393723,39.937638],[116.394196,39.937656],[116.395285,39.937702],[116.396879,39.937701],[116.396884,39.937029],[116.396908,39.9363],[116.396899,39.935687],[116.396934,39.934885],[116.396923,39.934181],[116.396928,39.933515],[116.396906,39.933194]]}}]}
