{"type":"FeatureCollection","features":[{"type":"Feature","properties":{"source":"BRouter, profile hiking-mountain; \u00a9 OpenStreetMap contributors, ODbL"},"geometry":{"type":"LineString","coordinates":[[13.390533,52.535138],[13.390563,52.535165],[13.39048,52.535205],[13.390191,52.535352],[13.390167,52.535365],[13.390064,52.535296],[13.389444,52.534749],[13.388378,52.533813],[13.388274,52.533706],[13.388211,52.533646],[13.388032,52.533515],[13.387795,52.533389],[13.387768,52.533363],[13.388201,52.533049],[13.38978,52.53183],[13.389796,52.531819],[13.38985,52.531824],[13.389867,52.53181],[13.389906,52.531777],[13.389925,52.531761],[13.389943,52.531745],[13.389981,52.531714],[13.390003,52.531694],[13.389981,52.531676],[13.390237,52.53147],[13.390538,52.531228],[13.391568,52.530399],[13.39163,52.530349],[13.391663,52.530323],[13.391856,52.530168],[13.391899,52.530146],[13.391949,52.53014],[13.391959,52.53013],[13.391999,52.530091],[13.392049,52.530045],[13.392065,52.53003],[13.392072,52.529998],[13.391999,52.529963],[13.391943,52.529937],[13.391927,52.529929],[13.392086,52.529804],[13.392611,52.52939],[13.393197,52.528927],[13.393622,52.528591],[13.393559,52.528577],[13.392597,52.528375],[13.392611,52.528347],[13.392646,52.528278],[13.392685,52.528204],[13.392701,52.528172],[13.392641,52.528126],[13.392746,52.527941],[13.392816,52.527791],[13.392964,52.527557],[13.392983,52.52753],[13.393021,52.527516],[13.393052,52.527502],[13.393074,52.527476],[13.393161,52.527314],[13.393217,52.527211],[13.393286,52.527083],[13.393603,52.526484],[13.39361,52.526472],[13.393632,52.52643],[13.393656,52.526381],[13.39366,52.526372],[13.393695,52.526306],[13.393429,52.525801],[13.393387,52.525722],[13.39324,52.525465],[13.393223,52.525432],[13.393043,52.525099],[13.393025,52.52507],[13.393019,52.525049],[13.393109,52.525027],[13.393571,52.524911],[13.394375,52.524709],[13.394953,52.524565],[13.395345,52.524466],[13.395375,52.524459],[13.395472,52.524433],[13.395566,52.524408],[13.395581,52.524403],[13.396639,52.524109],[13.396772,52.524076],[13.397568,52.523878],[13.397927,52.523811],[13.398034,52.523793],[13.398245,52.523779],[13.398323,52.523773],[13.399031,52.523736],[13.399238,52.523725],[13.399454,52.523721],[13.39953,52.52372],[13.399549,52.523719],[13.399614,52.523716],[13.399666,52.523714],[13.399695,52.523713],[13.399735,52.523711],[13.40006,52.523699],[13.400991,52.523695],[13.401293,52.523694],[13.40145,52.523693],[13.401764,52.523697],[13.401879,52.523722],[13.402377,52.523831],[13.402534,52.523978],[13.402704,52.524151],[13.40275,52.524228],[13.402767,52.524256],[13.402743,52.524261],[13.402542,52.524299],[13.402469,52.524315],[13.402351,52.524339],[13.402194,52.524363],[13.402351,52.524339],[13.402469,52.524315],[13.402542,52.524299],[13.402743,52.524261],[13.402767,52.524256],[13.40275,52.524228],[13.402704,52.524151],[13.402534,52.523978],[13.402377,52.523831],[13.402418,52.523815],[13.402443,52.523806],[13.402461,52.523799],[13.40249,52.523788],[13.402526,52.523775],[13.402553,52.523765],[13.402554,52.523764],[13.402591,52.52375],[13.402596,52.523749],[13.402626,52.523738],[13.402667,52.523722],[13.402633,52.523668],[13.40263,52.523618],[13.402647,52.523598],[13.40276,52.523549],[13.403554,52.523205],[13.403586,52.523198],[13.403633,52.523194],[13.403731,52.523138],[13.403787,52.523106],[13.403998,52.52286],[13.404035,52.522813],[13.404351,52.522432],[13.40451,52.522237],[13.404712,52.521988],[13.40475,52.521937],[13.404308,52.521797],[13.404337,52.521767],[13.404468,52.521697],[13.404664,52.521592],[13.404763,52.521541],[13.404818,52.521511],[13.405329,52.521238],[13.405383,52.521209],[13.405541,52.521156],[13.405589,52.521134],[13.405945,52.520906],[13.40599,52.520877],[13.405796,52.520782],[13.405842,52.520748],[13.405909,52.520697],[13.405937,52.520677],[13.405953,52.520665],[13.405965,52.520656],[13.405981,52.520644],[13.406007,52.520625],[13.406021,52.520614],[13.406046,52.520595],[13.406079,52.520571],[13.406137,52.520527],[13.406171,52.520502],[13.406351,52.5205],[13.406913,52.520084],[13.406971,52.520044],[13.407198,52.520152],[13.40773,52.520012],[13.408394,52.520331],[13.408994,52.520175],[13.409213,52.520234],[13.409488,52.520375],[13.409534,52.520411],[13.409616,52.520457],[13.40976,52.520528],[13.409616,52.520457],[13.409534,52.520411],[13.409488,52.520375],[13.409213,52.520234],[13.408994,52.520175],[13.408394,52.520331],[13.40773,52.520012],[13.407112,52.519719],[13.407053,52.519756],[13.40698,52.519783],[13.406898,52.519798],[13.406813,52.519801],[13.406729,52.51979],[13.406667,52.519772],[13.406611,52.519746],[13.406566,52.519715],[13.405306,52.520066],[13.405239,52.520013],[13.405251,52.519964],[13.405199,52.519939],[13.405129,52.519905],[13.405033,52.519859],[13.404999,52.519843],[13.404968,52.519827],[13.404902,52.519796],[13.404833,52.519763],[13.404785,52.519781],[13.40475,52.519801],[13.404683,52.519852],[13.404597,52.519918],[13.404565,52.519942],[13.404513,52.519982],[13.404441,52.520036],[13.404404,52.520063],[13.403497,52.519593],[13.403542,52.519551],[13.403164,52.519331],[13.402744,52.519117],[13.402625,52.519034],[13.402587,52.519002],[13.402565,52.518983],[13.401974,52.518744],[13.401918,52.518724],[13.401119,52.518447],[13.401057,52.51844],[13.400552,52.51892],[13.400616,52.518945],[13.400643,52.518954],[13.400616,52.518945],[13.400552,52.51892],[13.400493,52.518897],[13.400421,52.51887],[13.400343,52.51884],[13.400219,52.518792],[13.399827,52.518642],[13.399858,52.518597],[13.400155,52.518313],[13.399887,52.518211],[13.399401,52.518025],[13.399543,52.517881],[13.399339,52.517829],[13.398898,52.517765],[13.398159,52.517722],[13.398022,52.517711],[13.397953,52.517706],[13.397777,52.517695],[13.396357,52.517603],[13.396328,52.517601],[13.39626,52.517597],[13.396181,52.517625],[13.396119,52.517621],[13.396105,52.517621],[13.394957,52.517548],[13.394966,52.51749],[13.394972,52.517449],[13.394979,52.517408],[13.394983,52.51738],[13.394989,52.517339],[13.394996,52.517297],[13.395013,52.51718],[13.394956,52.517176],[13.394257,52.517129],[13.39418,52.517124],[13.393408,52.517072],[13.393502,52.516482],[13.393508,52.51645],[13.393576,52.516005],[13.393587,52.515928],[13.393589,52.51592],[13.393593,52.515897],[13.393597,52.515873],[13.3936,52.515852],[13.393003,52.515812],[13.393037,52.515631],[13.393135,52.515088],[13.393139,52.515064],[13.393149,52.515007],[13.393159,52.514949],[13.393173,52.514926],[13.393297,52.514206],[13.393292,52.514176],[13.393303,52.514111],[13.393178,52.514104],[13.393094,52.514088],[13.392852,52.514073],[13.392447,52.514047],[13.392521,52.51361],[13.392419,52.513604],[13.392299,52.513598],[13.392419,52.513604],[13.392521,52.51361],[13.392595,52.513177],[13.392622,52.513019],[13.392037,52.512847],[13.391997,52.51281],[13.392012,52.512702],[13.39203,52.512581],[13.392076,52.51256],[13.391927,52.512388],[13.391856,52.512331],[13.391859,52.512311],[13.391863,52.512287],[13.39172,52.512279],[13.391625,52.512252],[13.391645,52.51221],[13.391671,52.512155],[13.391674,52.512149],[13.391662,52.512149],[13.391559,52.512145],[13.391467,52.512142],[13.391426,52.51214],[13.391474,52.51187],[13.391548,52.51141],[13.391535,52.511384],[13.391544,52.51133],[13.391537,52.511283],[13.391559,52.51125],[13.391627,52.510871],[13.391673,52.510583],[13.391671,52.510568],[13.39165,52.510566],[13.391048,52.51053],[13.390227,52.510481],[13.390151,52.510477],[13.39009,52.510473],[13.390094,52.510452],[13.390095,52.510443],[13.390109,52.51037],[13.390123,52.510296],[13.390128,52.510269],[13.390051,52.510258],[13.390101,52.509951],[13.390119,52.509832],[13.390144,52.509662],[13.390169,52.509536],[13.390174,52.509508],[13.390182,52.50946],[13.39019,52.509411],[13.390194,52.509383],[13.390307,52.508653],[13.390309,52.508634],[13.390315,52.5086],[13.390327,52.508524],[13.390331,52.508499],[13.390451,52.507779],[13.390455,52.507752],[13.390464,52.507696],[13.390474,52.507637],[13.390477,52.507619],[13.390448,52.507617],[13.390404,52.507615],[13.390426,52.507501],[13.390404,52.507615],[13.390367,52.507612],[13.390332,52.50761],[13.390294,52.507608],[13.390254,52.507605],[13.390229,52.507604],[13.387625,52.507454],[13.386293,52.507375],[13.385749,52.507341],[13.385688,52.507336],[13.385589,52.507328],[13.385482,52.50732],[13.385449,52.507317],[13.385432,52.507349],[13.385391,52.507425],[13.385367,52.507468],[13.385361,52.507478],[13.383765,52.507377],[13.382374,52.507292],[13.380802,52.507197],[13.379229,52.507102],[13.379166,52.507153],[13.378787,52.507457],[13.378608,52.5076],[13.378177,52.507939],[13.377896,52.50817],[13.377692,52.508339],[13.377647,52.508376],[13.37761,52.508406],[13.377347,52.508614],[13.377058,52.508853],[13.377034,52.508879],[13.377011,52.508926],[13.377045,52.508927],[13.376977,52.509322],[13.376916,52.509318],[13.376902,52.509317],[13.376813,52.50931],[13.376746,52.509305],[13.376657,52.509298],[13.376608,52.509294],[13.376531,52.509288],[13.376513,52.509286],[13.376505,52.509286],[13.376441,52.509284],[13.376434,52.50932],[13.376432,52.509333],[13.37642,52.5094],[13.37641,52.509454],[13.376403,52.509495],[13.376393,52.509548],[13.376385,52.509588],[13.376373,52.509642],[13.376327,52.509641],[13.375995,52.509614],[13.376327,52.509641],[13.376373,52.509642],[13.376371,52.509652],[13.376371,52.509671],[13.376371,52.509699],[13.376362,52.510033],[13.376389,52.510086],[13.376411,52.510129],[13.376429,52.510172],[13.376443,52.510231],[13.376474,52.510381],[13.376541,52.510699],[13.376551,52.510749],[13.376878,52.512265],[13.376885,52.512317],[13.376883,52.512362],[13.376882,52.512396],[13.376881,52.512424],[13.37688,52.512452],[13.376879,52.512496],[13.376865,52.512553],[13.376856,52.512589],[13.376838,52.512792],[13.376865,52.512867],[13.3769,52.512866],[13.37692,52.512951],[13.376965,52.512945],[13.377031,52.512945],[13.377121,52.512945],[13.377206,52.512958],[13.377299,52.512972],[13.377364,52.513008],[13.377362,52.513037],[13.37736,52.51307],[13.377357,52.513109],[13.377356,52.513162],[13.37741,52.513137],[13.377482,52.513139],[13.377905,52.513224],[13.378591,52.513359],[13.378589,52.513531],[13.378586,52.513819],[13.378585,52.513899],[13.378583,52.51411],[13.37858,52.514399],[13.377896,52.514398],[13.377611,52.514397],[13.377616,52.514436],[13.377627,52.514504],[13.37763,52.514527],[13.377636,52.51456],[13.37764,52.514583],[13.37765,52.514641],[13.377666,52.514741],[13.37779,52.515659],[13.377712,52.515841],[13.37757,52.515959],[13.377544,52.516002],[13.377516,52.516148],[13.377495,52.516259],[13.377609,52.516265],[13.377703,52.51627],[13.377609,52.516265],[13.377495,52.516259],[13.377474,52.516369],[13.377438,52.516562],[13.377512,52.516833],[13.377488,52.517006],[13.377487,52.517016],[13.377469,52.517054],[13.37717,52.517688],[13.377171,52.51771],[13.377173,52.517734],[13.377124,52.517781],[13.377109,52.517809],[13.377089,52.517847],[13.377062,52.5179],[13.376915,52.517888],[13.376785,52.517888],[13.374978,52.517884],[13.375012,52.517931],[13.375047,52.51798],[13.375098,52.518092],[13.375135,52.518204],[13.375157,52.518314],[13.37517,52.518471],[13.375169,52.518592],[13.375168,52.518602],[13.375169,52.518592],[13.37517,52.518471],[13.375157,52.518314],[13.375135,52.518204],[13.375098,52.518092],[13.375047,52.51798],[13.375012,52.517931],[13.374978,52.517884],[13.374567,52.517883],[13.374419,52.517883],[13.374327,52.517882],[13.374216,52.517882],[13.37406,52.517882],[13.373899,52.517882],[13.371025,52.517875],[13.370999,52.517875],[13.370947,52.517875],[13.370847,52.517875],[13.370755,52.517875],[13.370692,52.517874],[13.370259,52.517875],[13.370011,52.517876],[13.369859,52.517837],[13.369728,52.517784],[13.369075,52.517397],[13.369027,52.517389],[13.367665,52.517454],[13.367086,52.517481],[13.367068,52.517422],[13.367046,52.517372],[13.366726,52.516916],[13.366632,52.516772],[13.365735,52.516653],[13.365344,52.516352],[13.364775,52.516325],[13.364392,52.516288],[13.364111,52.51623],[13.363899,52.516193],[13.363804,52.516172],[13.363702,52.516141],[13.363588,52.516119],[13.363308,52.516092],[13.362821,52.516069],[13.362202,52.516074],[13.361451,52.51607],[13.360969,52.516044],[13.360834,52.51603],[13.36027,52.515947],[13.35885,52.515699],[13.358559,52.515607],[13.358202,52.515492],[13.357993,52.515438],[13.357682,52.515389],[13.357246,52.515346],[13.355895,52.51525],[13.354495,52.515159],[13.354372,52.515142],[13.353378,52.514993],[13.353296,52.514982],[13.353155,52.514971],[13.352654,52.514957],[13.352276,52.514923],[13.352214,52.514911],[13.351908,52.51485],[13.351783,52.514791],[13.35181,52.514863],[13.351852,52.514623],[13.350848,52.514557],[13.350738,52.51455],[13.350707,52.514548],[13.350548,52.514537],[13.350486,52.514533],[13.350458,52.514531],[13.350437,52.51453],[13.350398,52.514527],[13.350388,52.514461],[13.350337,52.514402],[13.350253,52.514359],[13.35014,52.514338],[13.350131,52.514395]]}}]}
