{"type":"FeatureCollection","features":[{"type":"Feature","properties":{"source":"BRouter, profile hiking-mountain; \u00a9 OpenStreetMap contributors, ODbL"},"geometry":{"type":"LineString","coordinates":[[-58.371002,-34.608101],[-58.370984,-34.608342],[-58.370966,-34.608672],[-58.371136,-34.608681],[-58.371166,-34.608705],[-58.371213,-34.608728],[-58.371279,-34.608743],[-58.372065,-34.608798],[-58.372139,-34.608803],[-58.372145,-34.608738],[-58.372158,-34.608612],[-58.372212,-34.608609],[-58.372264,-34.608595],[-58.372311,-34.608574],[-58.372352,-34.608544],[-58.372384,-34.608508],[-58.372406,-34.608467],[-58.372417,-34.608424],[-58.372834,-34.608448],[-58.373234,-34.608197],[-58.373278,-34.608172],[-58.373339,-34.608132],[-58.373399,-34.608097],[-58.373418,-34.608022],[-58.373434,-34.607978],[-58.373539,-34.607973],[-58.373557,-34.607836],[-58.373585,-34.607517],[-58.373557,-34.607836],[-58.373539,-34.607973],[-58.373434,-34.607978],[-58.373418,-34.608022],[-58.373399,-34.608097],[-58.373339,-34.608132],[-58.373278,-34.608172],[-58.373234,-34.608197],[-58.37327,-34.608238],[-58.373288,-34.608269],[-58.373313,-34.608342],[-58.373307,-34.608476],[-58.373291,-34.608602],[-58.373254,-34.608701],[-58.373207,-34.60876],[-58.373172,-34.608786],[-58.373198,-34.608812],[-58.373246,-34.608862],[-58.373301,-34.608916],[-58.373331,-34.608947],[-58.373377,-34.608948],[-58.373438,-34.608945],[-58.3735,-34.608946],[-58.373548,-34.608946],[-58.373557,-34.6088],[-58.373567,-34.608635],[-58.373583,-34.608612],[-58.373615,-34.608605],[-58.373896,-34.608619],[-58.373615,-34.608605],[-58.373583,-34.608612],[-58.373567,-34.608635],[-58.373557,-34.6088],[-58.373548,-34.608946],[-58.373548,-34.608991],[-58.373558,-34.609017],[-58.373572,-34.609039],[-58.373604,-34.609063],[-58.373665,-34.609076],[-58.373702,-34.609104],[-58.374325,-34.609146],[-58.374883,-34.609185],[-58.37634,-34.609289],[-58.377681,-34.609384],[-58.377746,-34.609388],[-58.377749,-34.609332],[-58.377784,-34.608797],[-58.377789,-34.60869],[-58.378101,-34.608708],[-58.378348,-34.608722],[-58.37885,-34.608752],[-58.379196,-34.608772],[-58.379221,-34.608331],[-58.379223,-34.608292],[-58.379281,-34.608295],[-58.380611,-34.608369],[-58.380732,-34.608376],[-58.381008,-34.608393],[-58.381121,-34.608397],[-58.38127,-34.608401],[-58.381375,-34.608405],[-58.381435,-34.608409],[-58.381583,-34.608418],[-58.381878,-34.608435],[-58.381964,-34.608443],[-58.38208,-34.608456],[-58.383416,-34.608562],[-58.383467,-34.608566],[-58.383565,-34.608574],[-58.384836,-34.608677],[-58.384881,-34.608681],[-58.384852,-34.609285],[-58.385608,-34.609334],[-58.386257,-34.609375],[-58.386236,-34.609905],[-58.386234,-34.609952],[-58.386331,-34.609956],[-58.387432,-34.610006],[-58.387577,-34.609964],[-58.387657,-34.609969],[-58.38764,-34.609919],[-58.387882,-34.609935],[-58.388088,-34.609951],[-58.388946,-34.610002],[-58.388965,-34.609992],[-58.388982,-34.60996],[-58.389066,-34.609967],[-58.389188,-34.609978],[-58.389299,-34.609888],[-58.390172,-34.609941],[-58.390323,-34.609983],[-58.390916,-34.610007],[-58.391237,-34.610035],[-58.391294,-34.609992],[-58.391413,-34.610049],[-58.391506,-34.610084],[-58.391544,-34.610099],[-58.391727,-34.610159],[-58.391871,-34.6102],[-58.391966,-34.610226],[-58.392007,-34.610214],[-58.392006,-34.610165],[-58.392034,-34.609765],[-58.39204,-34.609697],[-58.39206,-34.609443],[-58.39207,-34.60936],[-58.391945,-34.609359],[-58.39181,-34.609377],[-58.391757,-34.609381],[-58.391577,-34.609394],[-58.391474,-34.609411],[-58.391349,-34.609436],[-58.391311,-34.609406],[-58.390982,-34.609382],[-58.390472,-34.609348],[-58.390224,-34.609329],[-58.389414,-34.60928],[-58.389363,-34.609306],[-58.389322,-34.609252],[-58.389297,-34.60922],[-58.389271,-34.60922],[-58.389167,-34.609218],[-58.389184,-34.609093],[-58.389191,-34.608969],[-58.389274,-34.60786],[-58.389278,-34.607806],[-58.389199,-34.607802],[-58.388884,-34.607784],[-58.388162,-34.607732],[-58.387832,-34.607708],[-58.38774,-34.607701],[-58.387661,-34.607696],[-58.387595,-34.607691],[-58.386385,-34.60761],[-58.386325,-34.607604],[-58.386327,-34.607558],[-58.38638,-34.606511],[-58.386384,-34.606429],[-58.38632,-34.606425],[-58.385467,-34.606363],[-58.385113,-34.606341],[-58.385008,-34.606334],[-58.384942,-34.606329],[-58.383683,-34.606237],[-58.383596,-34.606231],[-58.383597,-34.606178],[-58.383618,-34.605277],[-58.383629,-34.605139],[-58.383633,-34.605088],[-58.383581,-34.605085],[-58.382768,-34.605038],[-58.382237,-34.605007],[-58.382241,-34.604926],[-58.382144,-34.604916],[-58.382055,-34.604907],[-58.381792,-34.604883],[-58.381703,-34.604861],[-58.38171,-34.604798],[-58.381723,-34.604753],[-58.381684,-34.604751],[-58.381643,-34.604752],[-58.381631,-34.604675],[-58.381508,-34.60444],[-58.381397,-34.604276],[-58.381329,-34.604072],[-58.381333,-34.604021],[-58.38135,-34.603972],[-58.381353,-34.603932],[-58.381356,-34.603872],[-58.38136,-34.603789],[-58.381363,-34.603742],[-58.381369,-34.603638],[-58.381371,-34.603598],[-58.381482,-34.60359],[-58.381607,-34.603595],[-58.381482,-34.60359],[-58.381371,-34.603598],[-58.381374,-34.603542],[-58.381377,-34.603488],[-58.381378,-34.603464],[-58.381374,-34.603308],[-58.381437,-34.603175],[-58.381492,-34.603081],[-58.38158,-34.60299],[-58.381669,-34.60287],[-58.381793,-34.602672],[-58.381713,-34.602672],[-58.381643,-34.60267],[-58.381668,-34.602547],[-58.381676,-34.602465],[-58.381684,-34.602397],[-58.381714,-34.601551],[-58.381725,-34.601479],[-58.381741,-34.60138],[-58.381745,-34.601267],[-58.381825,-34.601272],[-58.381981,-34.601274],[-58.3821,-34.601276],[-58.382263,-34.601284],[-58.382298,-34.601285],[-58.382345,-34.600543],[-58.382361,-34.600417],[-58.382433,-34.600423],[-58.382508,-34.600435],[-58.38257,-34.600446],[-58.382566,-34.600513],[-58.382552,-34.600783],[-58.382552,-34.600791],[-58.383019,-34.60081],[-58.382552,-34.600791],[-58.382552,-34.600783],[-58.382566,-34.600513],[-58.38257,-34.600446],[-58.382508,-34.600435],[-58.382433,-34.600423],[-58.382361,-34.600417],[-58.382153,-34.600386],[-58.38214,-34.600384],[-58.382151,-34.600283],[-58.38216,-34.600182],[-58.382139,-34.600158],[-58.382041,-34.600152],[-58.381879,-34.600143],[-58.381786,-34.600137],[-58.381796,-34.600077],[-58.381827,-34.599407],[-58.381861,-34.599259],[-58.381868,-34.599163],[-58.381876,-34.599042],[-58.38189,-34.598905],[-58.381877,-34.598733],[-58.381916,-34.598041],[-58.381903,-34.597986],[-58.381903,-34.597878],[-58.381908,-34.597778],[-58.381839,-34.597776],[-58.381716,-34.597768],[-58.381606,-34.597763],[-58.381594,-34.597431],[-58.381535,-34.596788],[-58.381486,-34.596778],[-58.381417,-34.596765],[-58.381327,-34.596748],[-58.381293,-34.596661],[-58.379958,-34.596511],[-58.379909,-34.596505],[-58.379852,-34.596499],[-58.378511,-34.59636],[-58.37844,-34.596355],[-58.378382,-34.596351],[-58.378325,-34.596347],[-58.377039,-34.596279],[-58.376957,-34.596275],[-58.376959,-34.596235],[-58.376971,-34.59595],[-58.37698,-34.595694],[-58.377047,-34.595639],[-58.376938,-34.595566],[-58.376971,-34.59554],[-58.376888,-34.595485],[-58.376691,-34.595525],[-58.37659,-34.595525],[-58.376496,-34.595503],[-58.376267,-34.59524],[-58.376219,-34.595177],[-58.376061,-34.594991],[-58.375969,-34.59504],[-58.375768,-34.594787],[-58.375738,-34.594797],[-58.375706,-34.594795],[-58.375677,-34.594784],[-58.375655,-34.594765],[-58.375416,-34.59489],[-58.375655,-34.594765],[-58.375677,-34.594784],[-58.375706,-34.594795],[-58.375738,-34.594797],[-58.375768,-34.594787],[-58.375969,-34.59504],[-58.376061,-34.594991],[-58.376531,-34.59474],[-58.376665,-34.594675],[-58.376769,-34.594624],[-58.376839,-34.594637],[-58.377009,-34.594645],[-58.377039,-34.594631],[-58.377053,-34.594624],[-58.377211,-34.594549],[-58.377324,-34.594592],[-58.377414,-34.594637],[-58.377485,-34.594676],[-58.377531,-34.594712],[-58.377587,-34.594773],[-58.377648,-34.594877],[-58.377727,-34.594932],[-58.377772,-34.594937],[-58.377837,-34.594938],[-58.377924,-34.594928],[-58.377951,-34.594942],[-58.378043,-34.594947],[-58.378424,-34.594973],[-58.378516,-34.594979],[-58.378518,-34.595026],[-58.378514,-34.595094],[-58.378618,-34.595108],[-58.379075,-34.595141],[-58.379848,-34.595213],[-58.379959,-34.595221],[-58.380041,-34.595227],[-58.380929,-34.595307],[-58.381014,-34.595314],[-58.381034,-34.595316],[-58.381057,-34.595254],[-58.381297,-34.59524],[-58.381378,-34.595207],[-58.381495,-34.595215],[-58.381968,-34.595244],[-58.3821,-34.595265],[-58.382142,-34.595281],[-58.382323,-34.59529],[-58.382472,-34.595309],[-58.382743,-34.595327],[-58.382807,-34.595334],[-58.382849,-34.595364],[-58.38423,-34.595479],[-58.384265,-34.595457],[-58.384316,-34.595458],[-58.38438,-34.595459],[-58.38441,-34.595488],[-58.385673,-34.59556],[-58.38575,-34.595563],[-58.385867,-34.595568],[-58.387079,-34.595613],[-58.387166,-34.595617],[-58.387289,-34.59562],[-58.388345,-34.595652],[-58.388436,-34.595656],[-58.388545,-34.595656],[-58.389838,-34.5957],[-58.389929,-34.59571],[-58.390076,-34.595716],[-58.391883,-34.59573],[-58.391976,-34.595728],[-58.392073,-34.595738],[-58.39296,-34.595748],[-58.392959,-34.595859],[-58.392959,-34.595935],[-58.393185,-34.595939],[-58.393336,-34.595955],[-58.393484,-34.595953],[-58.394295,-34.595917],[-58.394628,-34.595901],[-58.394627,-34.595817],[-58.394618,-34.595698],[-58.394711,-34.595691],[-58.394542,-34.59478],[-58.394525,-34.594686],[-58.394517,-34.594639],[-58.394339,-34.593675],[-58.394332,-34.593615],[-58.395688,-34.593382],[-58.395672,-34.593323],[-58.395637,-34.593261],[-58.394931,-34.592677],[-58.394868,-34.592621],[-58.393945,-34.591821],[-58.393891,-34.591774],[-58.393834,-34.591724],[-58.393158,-34.591124],[-58.393019,-34.59099],[-58.392916,-34.590915],[-58.392813,-34.590826],[-58.39191,-34.590053],[-58.391988,-34.590005],[-58.392339,-34.589721],[-58.392954,-34.589245],[-58.392994,-34.589218],[-58.392919,-34.589162],[-58.392858,-34.589082],[-58.3927,-34.588825],[-58.392665,-34.588778],[-58.392489,-34.588592],[-58.392526,-34.588574],[-58.392231,-34.587939],[-58.39218,-34.587825],[-58.392245,-34.587801],[-58.392353,-34.587766],[-58.392377,-34.587822],[-58.392403,-34.587881],[-58.392554,-34.587835],[-58.39257,-34.587873],[-58.392579,-34.587893],[-58.392599,-34.587938],[-58.392607,-34.587956],[-58.392624,-34.587995],[-58.392607,-34.587956],[-58.392599,-34.587938],[-58.392579,-34.587893],[-58.39257,-34.587873],[-58.392554,-34.587835],[-58.392529,-34.587778],[-58.392503,-34.58772],[-58.392477,-34.587662],[-58.392449,-34.587599],[-58.392408,-34.587505],[-58.39226,-34.587548],[-58.392235,-34.587555],[-58.392145,-34.587581],[-58.39208,-34.587603],[-58.392024,-34.58748],[-58.39183,-34.587049],[-58.391709,-34.58678],[-58.391672,-34.586698],[-58.39166,-34.586669],[-58.391584,-34.586501],[-58.391495,-34.586304],[-58.391379,-34.586046],[-58.39132,-34.586001],[-58.391212,-34.585788],[-58.391278,-34.585741],[-58.391422,-34.585628],[-58.391492,-34.585546],[-58.391517,-34.585488],[-58.391528,-34.585428],[-58.391602,-34.585407],[-58.391688,-34.585357],[-58.391773,-34.585327],[-58.391937,-34.585312],[-58.391932,-34.585251],[-58.391901,-34.585193],[-58.39185,-34.58515],[-58.391961,-34.585003],[-58.392042,-34.584901],[-58.392116,-34.584808],[-58.392008,-34.584651],[-58.391937,-34.584533],[-58.392535,-34.584328],[-58.393025,-34.58416],[-58.393003,-34.584109],[-58.392992,-34.584085],[-58.392983,-34.584065],[-58.392979,-34.584057],[-58.392983,-34.584065],[-58.392992,-34.584085],[-58.393003,-34.584109],[-58.393025,-34.58416],[-58.393691,-34.583904],[-58.393772,-34.583879],[-58.393786,-34.583874],[-58.393622,-34.583593],[-58.393574,-34.58351],[-58.393559,-34.58351],[-58.393295,-34.58351],[-58.393222,-34.583538],[-58.393023,-34.583238],[-58.392926,-34.583098],[-58.392978,-34.583075],[-58.393216,-34.582969],[-58.393129,-34.582835],[-58.39328,-34.58277],[-58.393573,-34.582652],[-58.393588,-34.582594],[-58.393656,-34.582422],[-58.393599,-34.5824],[-58.393521,-34.58232],[-58.3935,-34.582254],[-58.393502,-34.58218],[-58.393537,-34.582072],[-58.393542,-34.581973],[-58.39353,-34.58188],[-58.393509,-34.581793],[-58.393461,-34.581719]]}}]}
