{"type":"FeatureCollection","features":[{"type":"Feature","properties":{"source":"BRouter, profile hiking-mountain; \u00a9 OpenStreetMap contributors, ODbL"},"geometry":{"type":"LineString","coordinates":[[31.233626,30.047301],[31.233625,30.047263],[31.233626,30.047231],[31.233626,30.04721],[31.233627,30.047172],[31.233598,30.047172],[31.233549,30.047138],[31.23351,30.047094],[31.233486,30.04705],[31.233482,30.046999],[31.233496,30.046951],[31.233531,30.046916],[31.233572,30.046896],[31.233626,30.046882],[31.233628,30.046812],[31.233633,30.046724],[31.233742,30.04673],[31.234039,30.04674],[31.234284,30.046749],[31.234428,30.046767],[31.234519,30.046781],[31.234521,30.046696],[31.234532,30.046626],[31.234586,30.046455],[31.234619,30.04638],[31.234897,30.046459],[31.235172,30.046531],[31.23587,30.046714],[31.235796,30.046789],[31.235773,30.046817],[31.235764,30.046841],[31.235768,30.046865],[31.235785,30.046884],[31.236018,30.047027],[31.236054,30.047041],[31.236098,30.047041],[31.236139,30.047028],[31.236165,30.047007],[31.236237,30.046927],[31.236295,30.046847],[31.236843,30.047025],[31.237338,30.047187],[31.238429,30.047595],[31.23845,30.047569],[31.238466,30.047561],[31.2385,30.047561],[31.238466,30.047561],[31.238436,30.047501],[31.238215,30.047068],[31.238951,30.046776],[31.238791,30.046451],[31.239383,30.046207],[31.23978,30.046043],[31.240141,30.045894],[31.240874,30.045591],[31.241867,30.045181],[31.242076,30.045207],[31.242608,30.045259],[31.242542,30.044904],[31.242714,30.044868],[31.242813,30.044848],[31.242987,30.044815],[31.243198,30.044774],[31.243399,30.044735],[31.243604,30.044695],[31.243696,30.044672],[31.243867,30.0446],[31.243646,30.04414],[31.243493,30.043796],[31.243442,30.043666],[31.243369,30.043479],[31.243224,30.04311],[31.2435,30.042936],[31.243523,30.042932],[31.243536,30.042942],[31.243564,30.04302],[31.243677,30.042983],[31.243715,30.043095],[31.2439,30.043044],[31.243905,30.042881],[31.244243,30.042868],[31.244401,30.042826],[31.244438,30.042816],[31.244741,30.042735],[31.245133,30.042629],[31.245543,30.042531],[31.245558,30.042607],[31.245586,30.042694],[31.245941,30.042579],[31.245946,30.042431],[31.246078,30.042389],[31.246182,30.042357],[31.246078,30.042389],[31.245946,30.042431],[31.245941,30.042579],[31.245945,30.042614],[31.245967,30.042678],[31.246144,30.042986],[31.246372,30.043417],[31.24649,30.043377],[31.246548,30.043357],[31.246814,30.043912],[31.24686,30.044007],[31.246957,30.044208],[31.24698,30.044269],[31.247014,30.044436],[31.247039,30.044525],[31.247126,30.044721],[31.247138,30.044749],[31.24716,30.044803],[31.247473,30.044726],[31.247567,30.044957],[31.247676,30.045243],[31.248141,30.045105],[31.248627,30.044962],[31.249195,30.044793],[31.249367,30.044743],[31.249513,30.044702],[31.249786,30.044619],[31.249877,30.044771],[31.250126,30.044702],[31.250146,30.044689],[31.250156,30.044669],[31.250143,30.044612],[31.250056,30.044443],[31.250057,30.044428],[31.250197,30.044385],[31.25023,30.044406],[31.250254,30.04441],[31.250393,30.044368],[31.250934,30.044197],[31.251053,30.044365],[31.251131,30.044454],[31.25136,30.044658],[31.251621,30.044989],[31.251754,30.045211],[31.251682,30.045413],[31.25185,30.045484],[31.25202,30.045394],[31.252169,30.045284],[31.252198,30.045273],[31.252358,30.045238],[31.252379,30.045228],[31.252445,30.045029],[31.252461,30.045014],[31.252482,30.045005],[31.252574,30.044978],[31.252522,30.044855],[31.252574,30.044978],[31.252625,30.045101],[31.252635,30.045174],[31.252624,30.045405],[31.252624,30.045428],[31.252637,30.045468],[31.252681,30.045536],[31.252767,30.045622],[31.252918,30.045772],[31.252963,30.045807],[31.253121,30.045929],[31.253171,30.045965],[31.253401,30.046151],[31.253455,30.046244],[31.253747,30.046957],[31.253901,30.046897],[31.254041,30.047199],[31.254259,30.047873],[31.254321,30.047823],[31.254382,30.047795],[31.254463,30.047778],[31.254556,30.047783],[31.254651,30.047805],[31.254748,30.047818],[31.254905,30.048012],[31.255074,30.047994],[31.255817,30.047944],[31.255754,30.048094],[31.255756,30.04813],[31.255793,30.04819],[31.255809,30.048241],[31.255863,30.048697],[31.255896,30.048916],[31.256479,30.048771],[31.256919,30.048635],[31.25744,30.048476],[31.258102,30.048274],[31.258815,30.048057],[31.259137,30.047959],[31.259383,30.047884],[31.259724,30.04778],[31.259768,30.047767],[31.260378,30.047581],[31.260519,30.047908],[31.260659,30.048206],[31.260696,30.048277],[31.26081,30.048496],[31.260866,30.048605],[31.260916,30.0487],[31.260952,30.048769],[31.260985,30.048848],[31.261126,30.049176],[31.261133,30.049207],[31.261132,30.04925],[31.261132,30.049313],[31.261157,30.049457],[31.26116,30.049475],[31.261209,30.049723],[31.261236,30.049843],[31.26125,30.049899],[31.261413,30.050333],[31.261522,30.050671],[31.261595,30.050911],[31.26166,30.051133],[31.261696,30.051258],[31.26183,30.05176],[31.261931,30.051719],[31.262041,30.051665],[31.261931,30.051719],[31.26183,30.05176],[31.261853,30.051865],[31.261891,30.052045],[31.261901,30.052094],[31.261929,30.052225],[31.262191,30.05308],[31.262213,30.053147],[31.262247,30.053206],[31.262309,30.053293],[31.262493,30.053679],[31.262623,30.053981],[31.262717,30.054202],[31.262773,30.054337],[31.262872,30.054511],[31.262977,30.054675],[31.263148,30.054954],[31.263223,30.054888],[31.263247,30.054868],[31.263098,30.054687],[31.263247,30.054868],[31.263223,30.054888],[31.263148,30.054954],[31.26326,30.055136],[31.263308,30.055238],[31.263314,30.055262],[31.26331,30.055287],[31.263297,30.055308],[31.263243,30.055338],[31.263292,30.055388],[31.263369,30.055467],[31.263413,30.055511],[31.26349,30.05559],[31.263556,30.055657],[31.264117,30.055218],[31.26405,30.055146],[31.264056,30.055128],[31.264256,30.054973],[31.264295,30.054973],[31.264311,30.054966],[31.264444,30.054859],[31.264443,30.054836],[31.26445,30.054825],[31.264661,30.054672],[31.265129,30.0543],[31.265024,30.05423],[31.265008,30.054216],[31.264994,30.054203],[31.264923,30.05414],[31.264869,30.054098],[31.264784,30.054067],[31.264748,30.054047],[31.264458,30.053806],[31.264378,30.053739],[31.264324,30.053655],[31.264137,30.053264],[31.263918,30.052675],[31.263872,30.052506],[31.263835,30.052362],[31.263809,30.052268],[31.263774,30.052176],[31.263671,30.051961],[31.263627,30.051876],[31.263596,30.051778],[31.263538,30.051318],[31.263454,30.051004],[31.263412,30.050896],[31.263334,30.050815],[31.26326,30.050482],[31.263258,30.050457],[31.263253,30.050358],[31.263264,30.050243],[31.263317,30.050102],[31.263222,30.049949],[31.263178,30.049861],[31.263045,30.049463],[31.263023,30.049397],[31.263002,30.049334],[31.263008,30.04926],[31.263041,30.049227],[31.263186,30.049177],[31.263225,30.049146],[31.263244,30.04909],[31.263181,30.048738],[31.263089,30.048409],[31.26302,30.048246],[31.262716,30.047611],[31.26252,30.047676],[31.262417,30.047533],[31.262303,30.047297],[31.262296,30.047283],[31.26228,30.047269],[31.262257,30.047271],[31.262184,30.047298],[31.262097,30.047339],[31.262064,30.047308],[31.262015,30.047224],[31.262026,30.047198],[31.26199,30.047124],[31.262125,30.047084],[31.261924,30.046669],[31.26192,30.046655],[31.261931,30.046628],[31.26198,30.046608],[31.262119,30.046569],[31.261988,30.046223],[31.262068,30.04619],[31.262181,30.046144],[31.261851,30.045695],[31.261996,30.045604],[31.262121,30.045515],[31.261996,30.045604],[31.261851,30.045695],[31.261644,30.045737],[31.261508,30.045753],[31.261401,30.045765],[31.261281,30.045791],[31.261143,30.045449],[31.261003,30.045288],[31.26096,30.045265],[31.260887,30.045262],[31.260863,30.045253],[31.260759,30.045158],[31.260741,30.045152],[31.260687,30.045167],[31.260639,30.045161],[31.260525,30.045049],[31.260333,30.045136],[31.260224,30.045176],[31.259755,30.045342],[31.259482,30.045439],[31.25974,30.045849],[31.259775,30.045909],[31.25974,30.045849],[31.259482,30.045439],[31.25934,30.045235],[31.259199,30.045033],[31.258967,30.044655],[31.258774,30.04434],[31.258674,30.044178],[31.258663,30.044167],[31.258566,30.044123],[31.258429,30.044061],[31.258404,30.044039],[31.258154,30.043497],[31.257945,30.043098],[31.257913,30.043011],[31.257841,30.042815],[31.257791,30.042679],[31.258135,30.042517],[31.258481,30.042376],[31.258648,30.0423],[31.258768,30.042219],[31.259026,30.041975],[31.259223,30.041776],[31.259376,30.041569],[31.259542,30.041297],[31.259569,30.041254],[31.259706,30.041065],[31.259804,30.040922],[31.259821,30.040867],[31.259814,30.040809],[31.259754,30.040598],[31.259649,30.040183],[31.259629,30.040111],[31.259618,30.040011],[31.259634,30.039645],[31.259677,30.038602],[31.259686,30.038584],[31.259705,30.038228],[31.259713,30.037997],[31.259712,30.037934],[31.25969,30.03758],[31.259732,30.037263],[31.259786,30.037047],[31.259831,30.036866],[31.259916,30.036524],[31.259925,30.036477],[31.260198,30.036488],[31.260217,30.036495],[31.260198,30.036488],[31.259925,30.036477],[31.259916,30.036524],[31.25976,30.036531],[31.259511,30.036541],[31.259473,30.036534],[31.259422,30.036509],[31.259311,30.036439],[31.259146,30.036335],[31.258923,30.036205],[31.258691,30.036065],[31.258457,30.035923],[31.258421,30.035979],[31.258368,30.035799],[31.258284,30.035521],[31.258295,30.035439],[31.258288,30.035408],[31.258196,30.035246],[31.258131,30.035157],[31.258099,30.035126],[31.25805,30.035078],[31.257905,30.034958],[31.257683,30.034773],[31.257936,30.034522],[31.25793,30.034483],[31.257822,30.034393],[31.257492,30.034125],[31.257436,30.034034],[31.257238,30.033896],[31.257126,30.033817],[31.257018,30.033632],[31.257113,30.033595],[31.257003,30.03351],[31.256243,30.032885],[31.256322,30.032803],[31.256489,30.032663],[31.257003,30.032235],[31.257141,30.032104],[31.256751,30.0315],[31.256717,30.031441],[31.257412,30.03123],[31.257496,30.0311],[31.257526,30.031039],[31.257547,30.030976],[31.257571,30.030843],[31.257593,30.03078],[31.25762,30.030732],[31.257662,30.030694],[31.257716,30.030669],[31.257776,30.030659],[31.257836,30.030666],[31.257891,30.030689],[31.257935,30.030725],[31.257965,30.03077],[31.257976,30.030822],[31.257969,30.030875],[31.257928,30.030956],[31.257922,30.031019],[31.257936,30.031086],[31.258069,30.031065],[31.258293,30.031031],[31.2585,30.030999],[31.258578,30.031032],[31.25859,30.031085],[31.258606,30.0311],[31.258913,30.031094],[31.258979,30.031091],[31.25908,30.03108],[31.259149,30.031064],[31.259266,30.031016],[31.259699,30.030835],[31.259739,30.030827],[31.259778,30.030838],[31.260033,30.031031],[31.260059,30.031042],[31.260088,30.031046],[31.260117,30.031042],[31.260143,30.03103],[31.260867,30.030559],[31.260664,30.03012],[31.260642,30.030074],[31.260592,30.030001],[31.260499,30.029914],[31.260341,30.029766],[31.260284,30.029733],[31.260133,30.029646],[31.260061,30.029622],[31.260028,30.029616],[31.259873,30.029594],[31.259782,30.029571],[31.259739,30.029535],[31.259718,30.029488],[31.259721,30.029437],[31.259748,30.029392],[31.259828,30.029322],[31.259801,30.029297],[31.259913,30.029207]]}}]}
