{"type":"FeatureCollection","features":[{"type":"Feature","properties":{"source":"BRouter, profile hiking-mountain; \u00a9 OpenStreetMap contributors, ODbL"},"geometry":{"type":"LineString","coordinates":[[18.400012,-33.901527],[18.400021,-33.901522],[18.400064,-33.901571],[18.400116,-33.90163],[18.400144,-33.90166],[18.400501,-33.902042],[18.400535,-33.902079],[18.400577,-33.902125],[18.400895,-33.902459],[18.401432,-33.903024],[18.401784,-33.903395],[18.401934,-33.903553],[18.402054,-33.90368],[18.402614,-33.904278],[18.402704,-33.904353],[18.402852,-33.90447],[18.402897,-33.904505],[18.403291,-33.904812],[18.403415,-33.904909],[18.405816,-33.906782],[18.405903,-33.906776],[18.406124,-33.906761],[18.406285,-33.906749],[18.406381,-33.906744],[18.406476,-33.90674],[18.406513,-33.906739],[18.406657,-33.906736],[18.408379,-33.906622],[18.409322,-33.906624],[18.410125,-33.906168],[18.40981,-33.905766],[18.410421,-33.905396],[18.410152,-33.905067],[18.410217,-33.905028],[18.410357,-33.904945],[18.410658,-33.904784],[18.410357,-33.904945],[18.410217,-33.905028],[18.410489,-33.905355],[18.410748,-33.90566],[18.412398,-33.904726],[18.412498,-33.90484],[18.41289,-33.905288],[18.412963,-33.905257],[18.41304,-33.905248],[18.413469,-33.905094],[18.413687,-33.904985],[18.413968,-33.904822],[18.414084,-33.904749],[18.41411,-33.9047],[18.414111,-33.904654],[18.414157,-33.904629],[18.414191,-33.90461],[18.41424,-33.904584],[18.414281,-33.904592],[18.414341,-33.904594],[18.414394,-33.904587],[18.414479,-33.904509],[18.414539,-33.904489],[18.415334,-33.90397],[18.415562,-33.90383],[18.415703,-33.903735],[18.415944,-33.903599],[18.415984,-33.903643],[18.416072,-33.903739],[18.416102,-33.903773],[18.416261,-33.903701],[18.416319,-33.90369],[18.416401,-33.903702],[18.416523,-33.90377],[18.41658,-33.903729],[18.416627,-33.903692],[18.416638,-33.903683],[18.417011,-33.903993],[18.417264,-33.904235],[18.417288,-33.904238],[18.417394,-33.904342],[18.417833,-33.904782],[18.417942,-33.9049],[18.418052,-33.905019],[18.418109,-33.905043],[18.418148,-33.90504],[18.418446,-33.904838],[18.418468,-33.90482],[18.418485,-33.904777],[18.41848,-33.904712],[18.418462,-33.904693],[18.418472,-33.904685],[18.418476,-33.904682],[18.418506,-33.904661],[18.418533,-33.904644],[18.418561,-33.904638],[18.418589,-33.904622],[18.41862,-33.9046],[18.418624,-33.904598],[18.418635,-33.90459],[18.418671,-33.904612],[18.418737,-33.904628],[18.418804,-33.904666],[18.418849,-33.904678],[18.418873,-33.904703],[18.418882,-33.904729],[18.418893,-33.904738],[18.418957,-33.904799],[18.418968,-33.904808],[18.418996,-33.904803],[18.419023,-33.904841],[18.419051,-33.9049],[18.419386,-33.905306],[18.419428,-33.905281],[18.419459,-33.905263],[18.419507,-33.905234],[18.419675,-33.905188],[18.41997,-33.905112],[18.420049,-33.905092],[18.42009,-33.905099],[18.420221,-33.90535],[18.420408,-33.90572],[18.42047,-33.905845],[18.420495,-33.905865],[18.420559,-33.905856],[18.420726,-33.90587],[18.420853,-33.905823],[18.420893,-33.905828],[18.420932,-33.905832],[18.420986,-33.905866],[18.421074,-33.905996],[18.421106,-33.906024],[18.421197,-33.906042],[18.421303,-33.906028],[18.421532,-33.90595],[18.421629,-33.905999],[18.42173,-33.906038],[18.421844,-33.90605],[18.42188,-33.906122],[18.42202,-33.906445],[18.422041,-33.906477],[18.422154,-33.906429],[18.422041,-33.906477],[18.42202,-33.906445],[18.42188,-33.906122],[18.421844,-33.90605],[18.42173,-33.906038],[18.421629,-33.905999],[18.421532,-33.90595],[18.421303,-33.906028],[18.421197,-33.906042],[18.421106,-33.906024],[18.421074,-33.905996],[18.420986,-33.905866],[18.420932,-33.905832],[18.420893,-33.905828],[18.420853,-33.905823],[18.420726,-33.90587],[18.420559,-33.905856],[18.420495,-33.905865],[18.42047,-33.905845],[18.420408,-33.90572],[18.420221,-33.90535],[18.42009,-33.905099],[18.420049,-33.905092],[18.41997,-33.905112],[18.419675,-33.905188],[18.419507,-33.905234],[18.419459,-33.905263],[18.419428,-33.905281],[18.419386,-33.905306],[18.419319,-33.905353],[18.419296,-33.905372],[18.419444,-33.905491],[18.419465,-33.905519],[18.419506,-33.905571],[18.419553,-33.90566],[18.41959,-33.905769],[18.419589,-33.905874],[18.419547,-33.905993],[18.419633,-33.906022],[18.419571,-33.906133],[18.419632,-33.90622],[18.419673,-33.90629],[18.419864,-33.906578],[18.419668,-33.906668],[18.419441,-33.906772],[18.419544,-33.906923],[18.419654,-33.907092],[18.419749,-33.907219],[18.419829,-33.907348],[18.419968,-33.907569],[18.420114,-33.907796],[18.420167,-33.907879],[18.420159,-33.908008],[18.420138,-33.90809],[18.420132,-33.908114],[18.420075,-33.908141],[18.420036,-33.90818],[18.420017,-33.908216],[18.420714,-33.909314],[18.420751,-33.909372],[18.420848,-33.909531],[18.420849,-33.909579],[18.420866,-33.909622],[18.420861,-33.909682],[18.420873,-33.909792],[18.420843,-33.90985],[18.420861,-33.910008],[18.420901,-33.91008],[18.421262,-33.91064],[18.421299,-33.910677],[18.421495,-33.910991],[18.421487,-33.911021],[18.421745,-33.911378],[18.421785,-33.911452],[18.421895,-33.911706],[18.421923,-33.911767],[18.422138,-33.911825],[18.422169,-33.911842],[18.422128,-33.911884],[18.42232,-33.912367],[18.422377,-33.912491],[18.422454,-33.912724],[18.422477,-33.912794],[18.422674,-33.913311],[18.422957,-33.913525],[18.423238,-33.91372],[18.423294,-33.913704],[18.423338,-33.913824],[18.423337,-33.913853],[18.423326,-33.913873],[18.423334,-33.913881],[18.423346,-33.913907],[18.423373,-33.913968],[18.423368,-33.913979],[18.423386,-33.913991],[18.423585,-33.914363],[18.423656,-33.914449],[18.423738,-33.914548],[18.423689,-33.914608],[18.423484,-33.914743],[18.423276,-33.914898],[18.423139,-33.915027],[18.423068,-33.915154],[18.422854,-33.915366],[18.422651,-33.915542],[18.422469,-33.91571],[18.422507,-33.915754],[18.422587,-33.915847],[18.422674,-33.915949],[18.422676,-33.915975],[18.422712,-33.916027],[18.422798,-33.916149],[18.422974,-33.916494],[18.423044,-33.916714],[18.423064,-33.916804],[18.423083,-33.916889],[18.423099,-33.916959],[18.423107,-33.916968],[18.423107,-33.917005],[18.42312,-33.917054],[18.423189,-33.917389],[18.423197,-33.917402],[18.423221,-33.917437],[18.423261,-33.91746],[18.423291,-33.917463],[18.423303,-33.917462],[18.423325,-33.917533],[18.423349,-33.917606],[18.423369,-33.917642],[18.423323,-33.917765],[18.423308,-33.917895],[18.423429,-33.918054],[18.423517,-33.918127],[18.423603,-33.918186],[18.423676,-33.918244],[18.423701,-33.918249],[18.423762,-33.918288],[18.423862,-33.918357],[18.424313,-33.918687],[18.424527,-33.918836],[18.424594,-33.918882],[18.424639,-33.918917],[18.424627,-33.918964],[18.424615,-33.919014],[18.424611,-33.91903],[18.424579,-33.919068],[18.424571,-33.919081],[18.424541,-33.919125],[18.4245,-33.919186],[18.425033,-33.919561],[18.425076,-33.919591],[18.425021,-33.919644],[18.425059,-33.920006],[18.42509,-33.920056],[18.424974,-33.92017],[18.424348,-33.920737],[18.424425,-33.920793],[18.42448,-33.920834],[18.424527,-33.920868],[18.424576,-33.920903],[18.424642,-33.920953],[18.424684,-33.920983],[18.42469,-33.921],[18.424546,-33.921151],[18.424173,-33.921491],[18.423999,-33.921663],[18.423929,-33.921732],[18.423862,-33.921797],[18.423643,-33.922014],[18.423618,-33.922074],[18.423624,-33.922106],[18.423656,-33.922136],[18.424023,-33.922413],[18.424309,-33.922622],[18.424406,-33.922693],[18.424506,-33.922766],[18.424534,-33.922786],[18.424632,-33.922859],[18.424734,-33.922935],[18.424788,-33.922975],[18.425576,-33.923547],[18.425643,-33.923596],[18.426285,-33.924056],[18.426621,-33.924171],[18.426588,-33.924246],[18.426528,-33.924385],[18.42649,-33.924472],[18.426437,-33.924485],[18.426395,-33.924505],[18.426358,-33.924535],[18.426148,-33.924765],[18.426107,-33.924826],[18.426091,-33.924874],[18.426093,-33.924931],[18.426197,-33.925217],[18.426199,-33.925263],[18.426184,-33.925303],[18.426146,-33.925337],[18.426224,-33.925399],[18.426295,-33.925374],[18.426337,-33.92536],[18.426604,-33.925272],[18.426678,-33.925257],[18.426754,-33.92526],[18.426802,-33.925275],[18.426825,-33.925282],[18.426936,-33.925356],[18.427064,-33.925444],[18.427099,-33.925468],[18.427084,-33.925483],[18.427108,-33.925501],[18.426883,-33.92571],[18.426853,-33.925738],[18.426862,-33.925745],[18.42687,-33.92575],[18.426846,-33.925773],[18.426833,-33.925763],[18.426814,-33.925781],[18.426755,-33.92574],[18.426716,-33.92576],[18.42663,-33.925804],[18.426728,-33.925871],[18.42663,-33.925804],[18.426716,-33.92576],[18.426755,-33.92574],[18.426814,-33.925781],[18.426833,-33.925763],[18.426846,-33.925773],[18.42687,-33.92575],[18.426862,-33.925745],[18.426853,-33.925738],[18.426883,-33.92571],[18.427108,-33.925501],[18.427084,-33.925483],[18.427099,-33.925468],[18.427064,-33.925444],[18.426936,-33.925356],[18.426825,-33.925282],[18.426802,-33.925275],[18.426754,-33.92526],[18.426678,-33.925257],[18.426604,-33.925272],[18.426337,-33.92536],[18.426295,-33.925374],[18.426224,-33.925399],[18.426041,-33.92552],[18.425966,-33.925541],[18.425948,-33.92553],[18.4258,-33.925669],[18.425647,-33.925824],[18.425477,-33.926028],[18.425482,-33.926055],[18.425397,-33.926135],[18.425329,-33.926198],[18.425297,-33.926194],[18.42523,-33.926147],[18.424809,-33.92654],[18.424752,-33.926502],[18.423957,-33.925914],[18.423504,-33.92559],[18.423957,-33.925914],[18.423904,-33.925965],[18.423419,-33.926432],[18.42286,-33.926971],[18.42366,-33.927552],[18.423886,-33.927718],[18.42366,-33.927552],[18.42286,-33.926971],[18.42233,-33.927479],[18.421486,-33.926867],[18.421293,-33.926728],[18.420934,-33.926468],[18.420647,-33.926747],[18.42049,-33.926894],[18.420275,-33.927118],[18.419602,-33.927794],[18.419592,-33.927807],[18.419527,-33.927874],[18.419455,-33.927949],[18.419403,-33.927966],[18.419061,-33.928277],[18.419035,-33.928299],[18.418996,-33.928266],[18.418953,-33.928233],[18.41887,-33.928323],[18.418329,-33.928857],[18.418003,-33.929174],[18.417209,-33.928629],[18.417193,-33.928644],[18.416895,-33.928423],[18.416553,-33.92817],[18.416374,-33.928337],[18.416303,-33.928403],[18.416151,-33.928547],[18.416015,-33.928677],[18.415614,-33.928378],[18.415155,-33.928034],[18.414782,-33.928365],[18.414753,-33.928387],[18.414716,-33.928398],[18.414635,-33.928564],[18.414535,-33.928678],[18.414635,-33.928564],[18.414716,-33.928398],[18.414753,-33.928387],[18.414782,-33.928365],[18.415155,-33.928034],[18.415309,-33.927881],[18.415475,-33.927729],[18.415551,-33.927793],[18.415611,-33.927811],[18.415714,-33.927838],[18.415927,-33.927997],[18.416099,-33.927834],[18.416138,-33.927863],[18.416669,-33.927362],[18.416759,-33.927286],[18.416793,-33.927301],[18.41683,-33.9273],[18.416863,-33.927284],[18.416882,-33.927258],[18.416883,-33.927226],[18.416866,-33.927199],[18.417401,-33.926668],[18.417428,-33.92668],[18.417459,-33.926682],[18.417488,-33.926674],[18.417512,-33.926658],[18.417766,-33.926834],[18.417886,-33.926917],[18.419046,-33.925834],[18.41994,-33.924974],[18.419584,-33.924721],[18.41994,-33.924974],[18.42001,-33.925025],[18.42014,-33.92512],[18.420691,-33.925528],[18.420936,-33.925303],[18.421034,-33.925213],[18.421026,-33.925157],[18.420518,-33.924772],[18.420591,-33.924696],[18.420567,-33.924679],[18.420517,-33.924646],[18.420434,-33.92459],[18.420375,-33.92455],[18.42055,-33.924382],[18.420575,-33.924361],[18.419981,-33.923918],[18.420528,-33.923407],[18.420149,-33.923122],[18.420089,-33.923056],[18.419869,-33.922895],[18.420086,-33.922692],[18.419869,-33.922895],[18.419655,-33.922734],[18.419547,-33.922705],[18.419174,-33.922432],[18.419122,-33.922391],[18.418595,-33.922003],[18.418577,-33.922019],[18.418541,-33.922051],[18.418088,-33.922461],[18.418062,-33.922483],[18.418043,-33.9225],[18.41802,-33.922519],[18.417522,-33.922964],[18.417465,-33.922922],[18.417411,-33.922882],[18.417394,-33.92287],[18.417386,-33.922865],[18.416867,-33.92248],[18.416846,-33.922464],[18.41682,-33.922445],[18.416723,-33.922372],[18.416703,-33.922357],[18.41668,-33.92234],[18.416663,-33.922356],[18.416635,-33.922382],[18.416552,-33.922458],[18.416505,-33.922501],[18.416483,-33.922522],[18.415952,-33.922136],[18.415916,-33.922112],[18.415868,-33.922078],[18.415779,-33.92201],[18.415751,-33.921989],[18.415709,-33.921909],[18.415543,-33.922061],[18.41523,-33.92235],[18.41507,-33.922234],[18.414735,-33.921987],[18.414471,-33.921793],[18.41408,-33.921492],[18.413801,-33.921291],[18.413767,-33.921227],[18.413448,-33.920504],[18.413174,-33.92054],[18.412816,-33.920588]]}}]}
