{"type":"FeatureCollection","features":[{"type":"Feature","properties":{"source":"BRouter, profile hiking-mountain; \u00a9 OpenStreetMap contributors, ODbL"},"geometry":{"type":"LineString","coordinates":[[-75.548814,10.422685],[-75.548843,10.422712],[-75.548862,10.422729],[-75.548892,10.422755],[-75.548919,10.422779],[-75.548958,10.422814],[-75.549046,10.422891],[-75.549116,10.423062],[-75.549234,10.423141],[-75.549287,10.423176],[-75.549425,10.423438],[-75.549703,10.423447],[-75.550382,10.423424],[-75.550385,10.423489],[-75.550449,10.424262],[-75.551109,10.424208],[-75.551207,10.42502],[-75.552048,10.424928],[-75.552115,10.424311],[-75.552048,10.424928],[-75.551207,10.42502],[-75.551109,10.424208],[-75.550449,10.424262],[-75.550405,10.423723],[-75.550385,10.423489],[-75.550382,10.423424],[-75.550248,10.422785],[-75.550952,10.422763],[-75.55095,10.422906],[-75.55096,10.422994],[-75.551029,10.422977],[-75.551452,10.423035],[-75.551531,10.423026],[-75.55152,10.423193],[-75.551504,10.423426],[-75.551498,10.423451],[-75.551465,10.423461],[-75.551015,10.423508],[-75.551109,10.424208],[-75.551207,10.42502],[-75.551366,10.426063],[-75.551419,10.426476],[-75.551282,10.426491],[-75.551296,10.426621],[-75.551352,10.42702],[-75.551328,10.427047],[-75.551386,10.427095],[-75.551426,10.427054],[-75.551437,10.427018],[-75.551474,10.427018],[-75.551495,10.427021],[-75.551612,10.427025],[-75.55167,10.427035],[-75.552415,10.426396],[-75.552562,10.426284],[-75.552699,10.426196],[-75.552562,10.426284],[-75.552415,10.426396],[-75.55167,10.427035],[-75.551612,10.427025],[-75.551495,10.427021],[-75.551487,10.427048],[-75.550965,10.42752],[-75.550814,10.427598],[-75.550308,10.427851],[-75.550166,10.427781],[-75.549375,10.428309],[-75.549346,10.42827],[-75.548628,10.428752],[-75.548574,10.42877],[-75.54843,10.428857],[-75.54842,10.428888],[-75.5484,10.428945],[-75.547974,10.429252],[-75.54791,10.429252],[-75.54772,10.429326],[-75.547626,10.429363],[-75.54715,10.429677],[-75.547079,10.429572],[-75.547048,10.429592],[-75.547007,10.429619],[-75.546962,10.429649],[-75.546913,10.42968],[-75.54687,10.429709],[-75.546827,10.429737],[-75.546782,10.429766],[-75.546731,10.429799],[-75.546685,10.429829],[-75.546643,10.429857],[-75.546602,10.429883],[-75.546549,10.429918],[-75.546505,10.429946],[-75.54646,10.429976],[-75.546487,10.43001],[-75.54646,10.429976],[-75.546414,10.430006],[-75.546367,10.430036],[-75.546322,10.430065],[-75.546278,10.430094],[-75.546229,10.430126],[-75.546184,10.430156],[-75.546136,10.430187],[-75.546093,10.430215],[-75.546048,10.430244],[-75.545855,10.43037],[-75.545868,10.43033],[-75.54593,10.430286],[-75.545914,10.430266],[-75.545869,10.430197],[-75.545802,10.430289],[-75.545791,10.430326],[-75.545786,10.430377],[-75.545798,10.430441],[-75.545845,10.430519],[-75.545091,10.429631],[-75.544874,10.429415],[-75.54502,10.4292],[-75.545002,10.429189],[-75.545171,10.428871],[-75.545148,10.428857],[-75.545092,10.428823],[-75.545024,10.428782],[-75.544999,10.428767],[-75.545065,10.428511],[-75.54511,10.428213],[-75.545264,10.428052],[-75.545245,10.428001],[-75.545205,10.428015],[-75.545172,10.428014],[-75.545196,10.42798],[-75.545229,10.427968],[-75.545215,10.427928],[-75.545111,10.427947],[-75.545066,10.427909],[-75.544987,10.427685],[-75.544859,10.42741],[-75.544638,10.426965],[-75.544632,10.426855],[-75.544642,10.426802],[-75.544693,10.426704],[-75.54465,10.42663],[-75.544629,10.426594],[-75.544607,10.426556],[-75.54459,10.426526],[-75.544569,10.426491],[-75.545239,10.425997],[-75.545705,10.425649],[-75.545788,10.425578],[-75.545976,10.425417],[-75.546103,10.42532],[-75.545933,10.424916],[-75.545889,10.42493],[-75.545647,10.424337],[-75.545632,10.424304],[-75.545674,10.42429],[-75.54558,10.424068],[-75.545872,10.423959],[-75.545859,10.423922],[-75.545833,10.42385],[-75.545817,10.423804],[-75.545634,10.423871],[-75.545549,10.423042],[-75.545453,10.422249],[-75.54545,10.42222],[-75.545447,10.422193],[-75.54537,10.421255],[-75.545319,10.420735],[-75.545421,10.420744],[-75.545479,10.420734],[-75.545482,10.420701],[-75.545492,10.420648],[-75.545521,10.420549],[-75.545484,10.420531],[-75.545429,10.420513],[-75.545484,10.420531],[-75.545521,10.420549],[-75.545492,10.420648],[-75.545482,10.420701],[-75.545479,10.420734],[-75.545421,10.420744],[-75.545319,10.420735],[-75.54537,10.421255],[-75.545447,10.422193],[-75.54545,10.42222],[-75.545453,10.422249],[-75.544578,10.422501],[-75.544373,10.422559],[-75.544141,10.422619],[-75.544134,10.422592],[-75.543913,10.422634],[-75.543869,10.422648],[-75.543799,10.42256],[-75.543779,10.422518],[-75.543771,10.422473],[-75.543777,10.422418],[-75.54374,10.422419],[-75.543728,10.422512],[-75.54371,10.422553],[-75.543681,10.422587],[-75.543644,10.422612],[-75.5436,10.422625],[-75.543555,10.422626],[-75.543357,10.422607],[-75.54261,10.422488],[-75.542414,10.422442],[-75.541989,10.422344],[-75.541851,10.422302],[-75.541724,10.422255],[-75.541595,10.422196],[-75.541453,10.422097],[-75.541364,10.422016],[-75.541335,10.422058],[-75.541285,10.422132],[-75.541273,10.422149],[-75.541266,10.422161],[-75.54124,10.422131],[-75.541212,10.4221],[-75.54119,10.422134],[-75.540877,10.422614],[-75.540374,10.42237],[-75.540072,10.422233],[-75.539978,10.422205],[-75.539938,10.422179],[-75.53975,10.422167],[-75.539636,10.422441],[-75.539546,10.422441],[-75.539377,10.422031],[-75.539303,10.422441],[-75.539317,10.422561],[-75.539381,10.422585],[-75.539386,10.4227]]}}]}
