{"type":"FeatureCollection","features":[{"type":"Feature","properties":{"source":"BRouter, profile hiking-mountain; \u00a9 OpenStreetMap contributors, ODbL"},"geometry":{"type":"LineString","coordinates":[[-71.978907,-13.516802],[-71.978904,-13.516811],[-71.978885,-13.516842],[-71.978855,-13.516866],[-71.978819,-13.51688],[-71.97878,-13.516881],[-71.978723,-13.51686],[-71.978647,-13.51695],[-71.978198,-13.517029],[-71.978128,-13.51715],[-71.978081,-13.517226],[-71.978224,-13.517318],[-71.978081,-13.517226],[-71.978128,-13.51715],[-71.978198,-13.517029],[-71.978237,-13.516979],[-71.978144,-13.516918],[-71.978088,-13.516881],[-71.978511,-13.516349],[-71.978539,-13.516312],[-71.978561,-13.516283],[-71.978459,-13.516175],[-71.978432,-13.51615],[-71.97832,-13.516249],[-71.978219,-13.516097],[-71.97814,-13.5162],[-71.978316,-13.516333],[-71.978041,-13.516665],[-71.977723,-13.516439],[-71.977569,-13.516632],[-71.977578,-13.516638],[-71.977561,-13.516663],[-71.976813,-13.516308],[-71.976676,-13.516234],[-71.976577,-13.516177],[-71.976082,-13.515915],[-71.975978,-13.515859],[-71.975689,-13.515705],[-71.975483,-13.515575],[-71.975145,-13.51534],[-71.97478,-13.515029],[-71.974719,-13.514988],[-71.974644,-13.514937],[-71.974599,-13.514975],[-71.974453,-13.515121],[-71.974423,-13.515239],[-71.974383,-13.515278],[-71.974336,-13.515325],[-71.974286,-13.515276],[-71.974272,-13.51529],[-71.974259,-13.515277],[-71.974248,-13.515288],[-71.974217,-13.515258],[-71.974202,-13.515272],[-71.974162,-13.515237],[-71.974177,-13.515222],[-71.974146,-13.515192],[-71.974157,-13.515181],[-71.974143,-13.515169],[-71.974157,-13.515155],[-71.974107,-13.515107],[-71.974064,-13.515149],[-71.973979,-13.515055],[-71.973965,-13.515039],[-71.973983,-13.514988],[-71.973966,-13.514967],[-71.974028,-13.514895],[-71.974196,-13.514684],[-71.97422,-13.514655],[-71.974444,-13.514431],[-71.974354,-13.514314],[-71.974355,-13.514313],[-71.974653,-13.514001],[-71.974828,-13.513804],[-71.974941,-13.513675],[-71.974941,-13.513645],[-71.975197,-13.513396],[-71.974983,-13.51323],[-71.974842,-13.513298],[-71.97458,-13.51286],[-71.974428,-13.512632],[-71.974401,-13.512563],[-71.974172,-13.512147],[-71.974093,-13.512088],[-71.973451,-13.511671],[-71.973633,-13.511423],[-71.973802,-13.511186],[-71.973999,-13.510912],[-71.974058,-13.51083],[-71.974165,-13.51075],[-71.97434,-13.510683],[-71.974416,-13.510669],[-71.974504,-13.510669],[-71.974838,-13.510678],[-71.975589,-13.510693],[-71.975805,-13.510673],[-71.975943,-13.510625],[-71.976088,-13.510556],[-71.976219,-13.510442],[-71.976315,-13.510426],[-71.976427,-13.51038],[-71.977179,-13.510141],[-71.977444,-13.509991],[-71.977667,-13.509832],[-71.97784,-13.509618],[-71.97793,-13.509617],[-71.978011,-13.50959],[-71.978009,-13.509533],[-71.978072,-13.509496],[-71.978125,-13.509493],[-71.978173,-13.509516],[-71.978307,-13.509487],[-71.978433,-13.509437],[-71.978611,-13.509375],[-71.97885,-13.509325],[-71.979035,-13.509273],[-71.979122,-13.509216],[-71.97924,-13.509215],[-71.979331,-13.509103],[-71.979418,-13.509031],[-71.979624,-13.508909],[-71.979684,-13.508797],[-71.979729,-13.508662],[-71.979758,-13.508435],[-71.979789,-13.50839],[-71.979827,-13.508381],[-71.97985,-13.508376],[-71.979919,-13.508379],[-71.979947,-13.508354],[-71.980006,-13.508304],[-71.980133,-13.508218],[-71.98017,-13.508016],[-71.980163,-13.507809],[-71.980142,-13.50771],[-71.980207,-13.507717],[-71.980253,-13.507776],[-71.980303,-13.508051],[-71.980343,-13.508231],[-71.980398,-13.508325],[-71.980561,-13.508342],[-71.9805,-13.508469],[-71.980909,-13.508562],[-71.981059,-13.508542],[-71.981523,-13.508499],[-71.981571,-13.508524],[-71.981742,-13.508532],[-71.982001,-13.508524],[-71.981742,-13.508532],[-71.981571,-13.508524],[-71.981523,-13.508499],[-71.981059,-13.508542],[-71.980909,-13.508562],[-71.9805,-13.508469],[-71.980561,-13.508342],[-71.980398,-13.508325],[-71.980343,-13.508231],[-71.980303,-13.508051],[-71.980253,-13.507776],[-71.980207,-13.507717],[-71.980142,-13.50771],[-71.980163,-13.507809],[-71.98017,-13.508016],[-71.980133,-13.508218],[-71.980006,-13.508304],[-71.979947,-13.508354],[-71.979919,-13.508379],[-71.97985,-13.508376],[-71.979827,-13.508381],[-71.979789,-13.50839],[-71.979758,-13.508435],[-71.979729,-13.508662],[-71.979684,-13.508797],[-71.979624,-13.508909],[-71.979418,-13.509031],[-71.979331,-13.509103],[-71.97924,-13.509215],[-71.979122,-13.509216],[-71.979035,-13.509273],[-71.97885,-13.509325],[-71.978611,-13.509375],[-71.978433,-13.509437],[-71.978307,-13.509487],[-71.978173,-13.509516],[-71.978125,-13.509493],[-71.978072,-13.509496],[-71.978009,-13.509533],[-71.978011,-13.50959],[-71.97793,-13.509617],[-71.97784,-13.509618],[-71.977773,-13.509702],[-71.977667,-13.509832],[-71.977444,-13.509991],[-71.977179,-13.510141],[-71.976427,-13.51038],[-71.976315,-13.510426],[-71.976219,-13.510442],[-71.976088,-13.510556],[-71.975943,-13.510625],[-71.975805,-13.510673],[-71.975589,-13.510693],[-71.974838,-13.510678],[-71.974504,-13.510669],[-71.974416,-13.510669],[-71.97434,-13.510683],[-71.974165,-13.51075],[-71.974058,-13.51083],[-71.973999,-13.510912],[-71.973802,-13.511186],[-71.973633,-13.511423],[-71.973451,-13.511671],[-71.97328,-13.511903],[-71.97324,-13.511944],[-71.973159,-13.512028],[-71.973037,-13.51209],[-71.972944,-13.512105],[-71.972193,-13.512106],[-71.971762,-13.512109],[-71.971498,-13.512111],[-71.97138,-13.512087],[-71.971338,-13.512067],[-71.971002,-13.511812],[-71.970763,-13.511609],[-71.970679,-13.511531],[-71.970529,-13.51142],[-71.970422,-13.511369],[-71.970268,-13.511377],[-71.970244,-13.511346],[-71.970211,-13.511352],[-71.970152,-13.511269],[-71.970036,-13.511047],[-71.969982,-13.510911],[-71.969943,-13.510709],[-71.96984,-13.510384],[-71.969725,-13.510074],[-71.969386,-13.509404],[-71.969246,-13.509128],[-71.969134,-13.508869],[-71.969066,-13.508594],[-71.969076,-13.508496],[-71.9691,-13.508402],[-71.969203,-13.508151],[-71.969219,-13.508044],[-71.969309,-13.50808],[-71.969353,-13.508122],[-71.969455,-13.508261],[-71.969704,-13.508353],[-71.969914,-13.508417],[-71.969958,-13.508497],[-71.970211,-13.508586],[-71.970264,-13.5086],[-71.970284,-13.508656],[-71.970294,-13.508675],[-71.970306,-13.508719],[-71.970325,-13.508726],[-71.970354,-13.508775],[-71.970279,-13.508836],[-71.970191,-13.508955],[-71.970149,-13.50906],[-71.970306,-13.509057],[-71.970405,-13.509091],[-71.970306,-13.509057],[-71.970149,-13.50906],[-71.970191,-13.508955],[-71.970279,-13.508836],[-71.970354,-13.508775],[-71.970325,-13.508726],[-71.970306,-13.508719],[-71.970294,-13.508675],[-71.970284,-13.508656],[-71.970264,-13.5086],[-71.970211,-13.508586],[-71.969958,-13.508497],[-71.969914,-13.508417],[-71.969704,-13.508353],[-71.969455,-13.508261],[-71.969353,-13.508122],[-71.969309,-13.50808],[-71.969219,-13.508044],[-71.969203,-13.508151],[-71.9691,-13.508402],[-71.969076,-13.508496],[-71.969066,-13.508594],[-71.969134,-13.508869],[-71.969246,-13.509128],[-71.969386,-13.509404],[-71.969725,-13.510074],[-71.96984,-13.510384],[-71.969943,-13.510709],[-71.969982,-13.510911],[-71.970036,-13.511047],[-71.970152,-13.511269],[-71.970211,-13.511352],[-71.970244,-13.511346],[-71.970268,-13.511377],[-71.970422,-13.511369],[-71.970529,-13.51142],[-71.970679,-13.511531],[-71.970763,-13.511609],[-71.971002,-13.511812],[-71.971338,-13.512067],[-71.97138,-13.512087],[-71.971498,-13.512111],[-71.971762,-13.512109],[-71.972193,-13.512106],[-71.972944,-13.512105],[-71.973037,-13.51209],[-71.973159,-13.512028],[-71.97324,-13.511944],[-71.97328,-13.511903],[-71.973451,-13.511671],[-71.974093,-13.512088],[-71.974172,-13.512147],[-71.974401,-13.512563],[-71.974428,-13.512632],[-71.97458,-13.51286],[-71.974842,-13.513298],[-71.974983,-13.51323],[-71.975197,-13.513396],[-71.975195,-13.513415],[-71.975201,-13.513432],[-71.975829,-13.513996],[-71.97584,-13.51399],[-71.976322,-13.513553],[-71.976773,-13.514069],[-71.977,-13.513673],[-71.977735,-13.514039],[-71.977768,-13.514006],[-71.978275,-13.514266],[-71.97869,-13.514468],[-71.97896,-13.513822],[-71.979809,-13.514203],[-71.979926,-13.513992],[-71.979971,-13.513882],[-71.979952,-13.513827],[-71.979875,-13.513558],[-71.979952,-13.513827],[-71.979971,-13.513882],[-71.979926,-13.513992],[-71.979809,-13.514203],[-71.979763,-13.514484],[-71.979737,-13.514568],[-71.97966,-13.514666],[-71.979555,-13.514776],[-71.979656,-13.514869],[-71.978843,-13.515761],[-71.978848,-13.515772],[-71.978883,-13.515744],[-71.978893,-13.515753],[-71.979075,-13.515929],[-71.979096,-13.51595],[-71.979105,-13.515959],[-71.97957,-13.516434],[-71.979616,-13.51648],[-71.979638,-13.516502],[-71.979612,-13.516528],[-71.97963,-13.516526],[-71.979661,-13.516537],[-71.979846,-13.516681],[-71.980023,-13.516785],[-71.980042,-13.516796],[-71.980024,-13.516824],[-71.980074,-13.516847],[-71.98011,-13.516782],[-71.980131,-13.516991],[-71.980176,-13.516994],[-71.980194,-13.517003],[-71.980197,-13.516999],[-71.980194,-13.517003],[-71.98022,-13.517026],[-71.980234,-13.517056],[-71.980235,-13.517097],[-71.980225,-13.517122],[-71.980184,-13.517157],[-71.980171,-13.517161],[-71.98022,-13.517347],[-71.9802,-13.517403],[-71.980172,-13.517454],[-71.98025,-13.517497],[-71.980226,-13.517538],[-71.979888,-13.518101],[-71.979864,-13.518145],[-71.979796,-13.518331],[-71.980801,-13.518918],[-71.980998,-13.519033],[-71.981256,-13.519195],[-71.981347,-13.519254],[-71.981585,-13.519414],[-71.981733,-13.519514],[-71.982683,-13.520109],[-71.982811,-13.520194],[-71.982795,-13.520217],[-71.982652,-13.520433],[-71.982551,-13.520584],[-71.98253,-13.520616],[-71.982252,-13.521046],[-71.981895,-13.521594],[-71.981715,-13.521849],[-71.981662,-13.521886],[-71.980716,-13.520837],[-71.979995,-13.520244],[-71.979522,-13.519782],[-71.978988,-13.519258],[-71.978955,-13.519226],[-71.978911,-13.519269],[-71.978294,-13.519926],[-71.977662,-13.51942],[-71.97758,-13.519363],[-71.977572,-13.519358],[-71.977537,-13.519335],[-71.977494,-13.519309],[-71.977373,-13.519241],[-71.976915,-13.518972],[-71.976548,-13.519493],[-71.97611,-13.520014],[-71.976071,-13.520049],[-71.976027,-13.520065],[-71.976,-13.520062],[-71.975728,-13.519937],[-71.975614,-13.519906],[-71.975425,-13.51984],[-71.97531,-13.519826],[-71.975139,-13.519848],[-71.975115,-13.519861],[-71.975098,-13.519905],[-71.975092,-13.51992],[-71.974969,-13.520203]]}}]}
