{"type":"FeatureCollection","features":[{"type":"Feature","properties":{"source":"BRouter, profile hiking-mountain; \u00a9 OpenStreetMap contributors, ODbL"},"geometry":{"type":"LineString","coordinates":[[-17.435199,14.676801],[-17.435397,14.676983],[-17.435604,14.67724],[-17.435916,14.677754],[-17.435965,14.677731],[-17.436064,14.677681],[-17.435753,14.67718],[-17.435633,14.677028],[-17.435521,14.676905],[-17.435328,14.676711],[-17.43513,14.676545],[-17.434949,14.67642],[-17.434584,14.676228],[-17.434513,14.67619],[-17.434113,14.67598],[-17.434018,14.675907],[-17.433841,14.675756],[-17.433723,14.675624],[-17.433422,14.675208],[-17.433342,14.675131],[-17.433267,14.675077],[-17.433145,14.675032],[-17.43311,14.675071],[-17.433065,14.6751],[-17.433013,14.675116],[-17.432958,14.675119],[-17.432905,14.675107],[-17.432865,14.675245],[-17.432858,14.675326],[-17.432869,14.675485],[-17.432883,14.67556],[-17.43292,14.675669],[-17.433012,14.675867],[-17.433067,14.675964],[-17.433012,14.675867],[-17.43292,14.675669],[-17.432883,14.67556],[-17.432869,14.675485],[-17.432858,14.675326],[-17.432865,14.675245],[-17.432905,14.675107],[-17.432958,14.675119],[-17.433013,14.675116],[-17.433065,14.6751],[-17.43311,14.675071],[-17.433145,14.675032],[-17.433169,14.674979],[-17.433177,14.674922],[-17.433166,14.674863],[-17.433339,14.674776],[-17.433476,14.674734],[-17.433984,14.674638],[-17.434254,14.674607],[-17.434378,14.674689],[-17.434509,14.673788],[-17.434591,14.672954],[-17.434628,14.672337],[-17.434586,14.67171],[-17.434546,14.671112],[-17.434507,14.670519],[-17.434473,14.669997],[-17.434433,14.66939],[-17.434367,14.668445],[-17.434321,14.667787],[-17.43428,14.667183],[-17.434235,14.666534],[-17.434191,14.665901],[-17.434154,14.665368],[-17.43411,14.664731],[-17.43405,14.663926],[-17.43399,14.66393],[-17.433823,14.663821],[-17.433959,14.6634],[-17.433707,14.663329],[-17.433696,14.663364],[-17.433646,14.663531],[-17.433617,14.663567],[-17.433548,14.663575],[-17.433617,14.663567],[-17.433646,14.663531],[-17.433696,14.663364],[-17.433707,14.663329],[-17.433959,14.6634],[-17.433823,14.663821],[-17.43399,14.66393],[-17.43405,14.663926],[-17.434819,14.663869],[-17.435563,14.663814],[-17.436057,14.663778],[-17.436044,14.663212],[-17.436047,14.663105],[-17.436085,14.662704],[-17.436193,14.662064],[-17.437164,14.662185],[-17.437528,14.66223],[-17.437936,14.662281],[-17.437576,14.662783],[-17.437608,14.662804],[-17.437649,14.662847],[-17.437668,14.662878],[-17.437676,14.662912],[-17.437823,14.662853],[-17.438208,14.662694],[-17.438247,14.662677],[-17.438208,14.662694],[-17.437823,14.662853],[-17.437676,14.662912],[-17.437684,14.662941],[-17.437686,14.66297],[-17.43768,14.663006],[-17.437649,14.663073],[-17.437624,14.663101],[-17.437749,14.663189],[-17.4378,14.663228],[-17.437843,14.66321],[-17.437878,14.66321],[-17.437939,14.663231],[-17.438004,14.663275],[-17.438028,14.663304],[-17.438044,14.663337],[-17.438125,14.663319],[-17.438232,14.663305],[-17.438307,14.663327],[-17.438336,14.663345],[-17.438358,14.663368],[-17.438379,14.663402],[-17.438398,14.663483],[-17.438398,14.663516],[-17.438369,14.663703],[-17.438362,14.663721],[-17.438369,14.663703],[-17.438398,14.663516],[-17.438398,14.663483],[-17.438379,14.663402],[-17.438358,14.663368],[-17.438336,14.663345],[-17.438307,14.663327],[-17.438232,14.663305],[-17.438125,14.663319],[-17.438044,14.663337],[-17.438028,14.663304],[-17.438004,14.663275],[-17.437939,14.663231],[-17.437878,14.66321],[-17.437843,14.66321],[-17.4378,14.663228],[-17.437749,14.663189],[-17.437624,14.663101],[-17.437577,14.663134],[-17.43755,14.663145],[-17.43758,14.663242],[-17.437652,14.663459],[-17.437567,14.663503],[-17.437583,14.663665],[-17.437241,14.663691],[-17.436728,14.663729],[-17.436471,14.663747],[-17.436057,14.663778],[-17.435563,14.663814],[-17.435611,14.664531],[-17.435654,14.665232],[-17.435697,14.665786],[-17.436452,14.665728],[-17.436976,14.665672],[-17.437417,14.665799],[-17.437465,14.665673],[-17.437523,14.665693],[-17.437631,14.665727],[-17.437679,14.665725],[-17.437768,14.665704],[-17.437811,14.665673],[-17.437842,14.66562],[-17.437876,14.665522],[-17.43793,14.665355],[-17.437935,14.665294],[-17.437929,14.665235],[-17.437915,14.665177],[-17.437897,14.665131],[-17.437867,14.665092],[-17.437824,14.665061],[-17.437725,14.665032],[-17.437669,14.665032],[-17.437615,14.665045],[-17.437561,14.665071],[-17.437518,14.665107],[-17.437481,14.665157],[-17.437454,14.665214],[-17.437412,14.665338],[-17.437454,14.665214],[-17.437481,14.665157],[-17.437518,14.665107],[-17.437561,14.665071],[-17.437615,14.665045],[-17.437669,14.665032],[-17.437725,14.665032],[-17.437824,14.665061],[-17.437867,14.665092],[-17.437897,14.665131],[-17.437915,14.665177],[-17.437929,14.665235],[-17.437935,14.665294],[-17.43793,14.665355],[-17.437876,14.665522],[-17.437842,14.66562],[-17.437811,14.665673],[-17.437768,14.665704],[-17.437679,14.665725],[-17.437631,14.665727],[-17.437586,14.665851],[-17.438038,14.666006],[-17.438233,14.666046],[-17.438361,14.66607],[-17.438418,14.666071],[-17.43849,14.666057],[-17.43853,14.666024],[-17.438554,14.666012],[-17.438583,14.666004],[-17.438643,14.666003],[-17.438731,14.665984],[-17.438828,14.66593],[-17.4388,14.665997],[-17.438775,14.66612],[-17.438878,14.666225],[-17.438972,14.666288],[-17.439454,14.66644],[-17.439573,14.666478],[-17.440122,14.666681],[-17.440366,14.66676],[-17.440412,14.666776],[-17.440482,14.666798],[-17.440494,14.667412],[-17.440547,14.668054],[-17.44057,14.668685],[-17.44059,14.668866],[-17.440687,14.669136],[-17.440726,14.669248],[-17.440802,14.669469],[-17.440917,14.669801],[-17.440017,14.67007],[-17.439598,14.670239],[-17.439637,14.670823],[-17.439658,14.671147],[-17.439678,14.671445],[-17.439718,14.672039],[-17.439773,14.67272],[-17.439832,14.673384],[-17.439894,14.674349],[-17.439948,14.675639],[-17.439935,14.675675],[-17.439838,14.675857],[-17.439802,14.675966],[-17.439911,14.676089],[-17.439814,14.676238],[-17.439745,14.676465],[-17.439579,14.677442],[-17.439492,14.677978],[-17.43957,14.678016],[-17.440796,14.678608],[-17.44097,14.678685],[-17.441065,14.678663],[-17.441182,14.678621],[-17.44136,14.678534],[-17.441424,14.678532],[-17.441468,14.678543],[-17.441858,14.678876],[-17.441923,14.678919],[-17.441971,14.678915],[-17.442019,14.678897],[-17.442233,14.678709],[-17.442297,14.67866],[-17.442354,14.678613],[-17.442207,14.678445],[-17.442354,14.678613],[-17.442297,14.67866],[-17.442981,14.679456],[-17.443115,14.679618],[-17.443143,14.679653],[-17.443176,14.679696],[-17.443246,14.679787],[-17.443332,14.67971],[-17.443518,14.679915],[-17.443596,14.680112],[-17.443656,14.680245],[-17.444088,14.680493],[-17.444352,14.680736],[-17.444728,14.68104],[-17.44489,14.681172],[-17.44517,14.681376],[-17.445297,14.681469],[-17.445566,14.681649],[-17.445879,14.681859],[-17.446074,14.681998],[-17.446828,14.681244],[-17.447615,14.680464],[-17.447486,14.680387],[-17.447415,14.680372],[-17.447311,14.680384],[-17.447306,14.679263],[-17.447289,14.679214],[-17.44724,14.679156],[-17.447024,14.678987],[-17.446947,14.678941],[-17.446867,14.678927],[-17.446947,14.678941],[-17.447024,14.678987],[-17.44724,14.679156],[-17.447289,14.679214],[-17.447306,14.679263],[-17.447311,14.680384],[-17.447415,14.680372],[-17.447486,14.680387],[-17.447615,14.680464],[-17.448024,14.680053],[-17.448318,14.67974],[-17.448376,14.679683],[-17.449133,14.678941],[-17.44952,14.679309],[-17.450317,14.678519],[-17.451088,14.677755],[-17.451869,14.676983],[-17.452182,14.676672],[-17.45265,14.676209],[-17.453016,14.676556],[-17.453413,14.676171],[-17.454131,14.676861],[-17.454436,14.676561],[-17.454498,14.676541],[-17.454545,14.676538],[-17.45461,14.676557],[-17.454649,14.676579],[-17.455262,14.677163],[-17.455628,14.677512],[-17.456007,14.677133],[-17.456506,14.677617],[-17.456742,14.67727],[-17.457145,14.677616],[-17.457651,14.678044],[-17.45782,14.677936],[-17.457991,14.67778],[-17.45805,14.677772],[-17.458089,14.67778],[-17.458096,14.677747],[-17.458107,14.677733],[-17.458137,14.677715],[-17.458154,14.677713],[-17.458141,14.677668],[-17.458109,14.677621],[-17.457572,14.677144],[-17.458109,14.677621],[-17.458141,14.677668],[-17.458154,14.677713],[-17.458137,14.677715],[-17.458107,14.677733],[-17.458096,14.677747],[-17.458089,14.67778],[-17.45805,14.677772],[-17.457991,14.67778],[-17.45782,14.677936],[-17.457651,14.678044],[-17.457145,14.677616],[-17.456577,14.678417],[-17.456808,14.678637],[-17.456907,14.678732],[-17.456941,14.678714],[-17.457714,14.67871],[-17.458285,14.678708],[-17.458788,14.678705],[-17.458792,14.679691],[-17.459319,14.679691],[-17.459321,14.680481],[-17.459321,14.680676],[-17.459322,14.681169],[-17.459323,14.681673],[-17.458793,14.681676],[-17.458803,14.682698],[-17.459334,14.682694],[-17.459351,14.683679],[-17.459591,14.68358],[-17.460245,14.683312],[-17.460497,14.683195],[-17.460505,14.684951],[-17.460623,14.684953],[-17.460721,14.684952],[-17.46086,14.684958],[-17.460955,14.68496],[-17.461368,14.68496],[-17.461697,14.684949],[-17.462284,14.684943],[-17.462536,14.684949],[-17.462537,14.684999]]}}]}
