{"type":"FeatureCollection","features":[{"type":"Feature","properties":{"source":"BRouter, profile hiking-mountain; \u00a9 OpenStreetMap contributors, ODbL"},"geometry":{"type":"LineString","coordinates":[[-4.992957,34.052915],[-4.992877,34.052813],[-4.992634,34.052579],[-4.992599,34.052607],[-4.992356,34.052767],[-4.992126,34.052878],[-4.992073,34.052906],[-4.992007,34.052937],[-4.99192,34.05299],[-4.9919,34.053001],[-4.991652,34.053138],[-4.991321,34.053309],[-4.991042,34.053474],[-4.991002,34.053484],[-4.990922,34.053377],[-4.990894,34.053327],[-4.990873,34.053336],[-4.990951,34.053507],[-4.990758,34.053588],[-4.990672,34.053641],[-4.990436,34.053784],[-4.990269,34.05395],[-4.990152,34.054096],[-4.990041,34.054109],[-4.990046,34.054209],[-4.990049,34.054291],[-4.990053,34.05436],[-4.990054,34.054386],[-4.990048,34.054617],[-4.99011,34.054898],[-4.990194,34.055208],[-4.990238,34.055369],[-4.990283,34.055539],[-4.990347,34.0558],[-4.990463,34.056247],[-4.990599,34.056728],[-4.990608,34.056774],[-4.990887,34.057561],[-4.990889,34.05774],[-4.990813,34.058107],[-4.99084,34.058146],[-4.990891,34.058195],[-4.990961,34.058231],[-4.991033,34.058254],[-4.990693,34.058311],[-4.990621,34.058306],[-4.99028,34.058189],[-4.989961,34.058009],[-4.989927,34.058056],[-4.989863,34.058127],[-4.989819,34.058195],[-4.98979,34.058262],[-4.989724,34.059062],[-4.989724,34.05908],[-4.989741,34.059127],[-4.988345,34.05969],[-4.98805,34.059817],[-4.987933,34.059867],[-4.987609,34.060009],[-4.987523,34.060053],[-4.987479,34.060074],[-4.98744,34.060096],[-4.987396,34.060106],[-4.987333,34.060145],[-4.987316,34.060159],[-4.987295,34.0602],[-4.987137,34.060022],[-4.985833,34.060656],[-4.985796,34.060673],[-4.985019,34.061041],[-4.984938,34.061071],[-4.984533,34.061353],[-4.98414,34.061627],[-4.984057,34.061682],[-4.984042,34.06169],[-4.984,34.061714],[-4.983988,34.06172],[-4.983824,34.061809],[-4.98366,34.06186],[-4.983642,34.061839],[-4.98358,34.061865],[-4.983523,34.061884],[-4.983466,34.061903],[-4.983475,34.061947],[-4.983482,34.06198],[-4.983485,34.061991],[-4.98342,34.061996],[-4.983238,34.062067],[-4.983145,34.06211],[-4.983127,34.062119],[-4.983033,34.06219],[-4.982972,34.062244],[-4.982802,34.062384],[-4.98274,34.062434],[-4.982708,34.062465],[-4.982616,34.062552],[-4.98257,34.062588],[-4.982418,34.062717],[-4.982378,34.062745],[-4.982345,34.062771],[-4.982305,34.062802],[-4.982273,34.062833],[-4.982215,34.062878],[-4.982113,34.062974],[-4.982054,34.063022],[-4.981937,34.063118],[-4.98183,34.063215],[-4.9818,34.06324],[-4.981739,34.06333],[-4.98164,34.063481],[-4.98147,34.063591],[-4.981283,34.063676],[-4.981226,34.063702],[-4.981058,34.063779],[-4.980933,34.063844],[-4.980909,34.063856],[-4.980637,34.063982],[-4.980557,34.064028],[-4.980297,34.064143],[-4.980098,34.064237],[-4.979988,34.064292],[-4.979868,34.064341],[-4.979691,34.064402],[-4.97947,34.064451],[-4.979372,34.064443],[-4.979235,34.064362],[-4.978948,34.064455],[-4.978858,34.064488],[-4.978814,34.0645],[-4.978689,34.064559],[-4.978603,34.064621],[-4.978484,34.064702],[-4.978446,34.064727],[-4.978378,34.064752],[-4.97831,34.064779],[-4.978159,34.064837],[-4.97806,34.06486],[-4.978012,34.064873],[-4.977916,34.064917],[-4.977618,34.065034],[-4.977481,34.065076],[-4.977323,34.065125],[-4.97728,34.06514],[-4.977164,34.065129],[-4.977034,34.065123],[-4.976901,34.065118],[-4.976837,34.065112],[-4.976673,34.065115],[-4.976572,34.065127],[-4.976315,34.065171],[-4.976102,34.065204],[-4.975989,34.065208],[-4.97571,34.065244],[-4.975536,34.065255],[-4.975382,34.065267],[-4.974974,34.065272],[-4.974818,34.065271],[-4.974742,34.06527],[-4.974669,34.065266],[-4.974663,34.065067],[-4.974639,34.064981],[-4.974616,34.064903],[-4.974558,34.064909],[-4.974459,34.064915],[-4.974442,34.064771],[-4.974354,34.06479],[-4.974266,34.064806],[-4.97417,34.06483],[-4.974098,34.064846],[-4.974027,34.06486],[-4.973948,34.064876],[-4.97395,34.064906],[-4.973851,34.064915],[-4.973815,34.065048],[-4.973809,34.065071],[-4.973734,34.065057],[-4.973507,34.065049],[-4.973439,34.065064],[-4.973412,34.064985],[-4.973439,34.065064],[-4.973507,34.065049],[-4.973734,34.065057],[-4.973809,34.065071],[-4.973795,34.065107],[-4.973741,34.065261],[-4.973673,34.065243],[-4.973655,34.065407],[-4.973651,34.065424],[-4.973632,34.065771],[-4.973137,34.065778],[-4.97275,34.065852],[-4.972554,34.065897],[-4.972239,34.06601],[-4.9721,34.065809],[-4.97206,34.065696],[-4.971796,34.065781],[-4.971749,34.06563],[-4.971453,34.065713],[-4.971451,34.065757],[-4.971136,34.065767],[-4.971112,34.065912],[-4.971136,34.065767],[-4.971451,34.065757],[-4.971453,34.065713],[-4.97145,34.065593],[-4.971459,34.065231],[-4.971487,34.065097],[-4.971597,34.064685],[-4.971364,34.064465],[-4.971272,34.064543],[-4.971214,34.064618],[-4.971169,34.064695],[-4.971052,34.064653],[-4.970796,34.064535],[-4.970655,34.064457],[-4.970504,34.064389],[-4.97038,34.064253],[-4.970268,34.064324],[-4.970191,34.064294],[-4.970092,34.064222],[-4.970011,34.064209],[-4.969985,34.064218],[-4.969865,34.064183],[-4.969605,34.06404],[-4.969315,34.063904],[-4.969229,34.063985],[-4.969082,34.063901],[-4.968978,34.063985],[-4.968686,34.06382],[-4.968615,34.063985],[-4.968579,34.064135],[-4.968559,34.064187],[-4.968335,34.064224],[-4.968233,34.064288],[-4.968079,34.06431],[-4.967906,34.064322],[-4.967744,34.064284],[-4.967969,34.063872],[-4.968035,34.063685],[-4.968038,34.063577],[-4.968077,34.063501],[-4.967795,34.063243],[-4.967814,34.063198],[-4.967844,34.063183],[-4.967856,34.063157]]}}]}
