{"type":"FeatureCollection","features":[{"type":"Feature","properties":{"source":"BRouter, profile hiking-mountain; \u00a9 OpenStreetMap contributors, ODbL"},"geometry":{"type":"LineString","coordinates":[[105.837009,21.0285],[105.837009,21.028629],[105.837062,21.028621],[105.837364,21.028571],[105.838317,21.02838],[105.838452,21.028346],[105.838769,21.028262],[105.839164,21.028147],[105.840016,21.027909],[105.840415,21.027784],[105.840506,21.027756],[105.840764,21.027696],[105.841098,21.027665],[105.841143,21.027661],[105.841407,21.027643],[105.841411,21.027673],[105.841443,21.02768],[105.841461,21.027696],[105.841467,21.027723],[105.841554,21.02772],[105.841675,21.027714],[105.841693,21.027708],[105.841758,21.027711],[105.842318,21.027821],[105.842549,21.027878],[105.84259,21.027914],[105.842623,21.027941],[105.843109,21.028204],[105.843135,21.028179],[105.843159,21.028157],[105.843227,21.02822],[105.843249,21.028233],[105.843275,21.028232],[105.843426,21.028182],[105.843448,21.028171],[105.843455,21.028156],[105.843452,21.028147],[105.843508,21.028127],[105.843573,21.028105],[105.843655,21.02808],[105.84365,21.028043],[105.84365,21.028002],[105.843858,21.028045],[105.843898,21.028045],[105.843928,21.02803],[105.843958,21.028004],[105.843989,21.027964],[105.844007,21.027867],[105.844007,21.027805],[105.844069,21.027787],[105.844121,21.027772],[105.844156,21.027873],[105.844174,21.027897],[105.844206,21.027905],[105.844239,21.027903],[105.844272,21.027885],[105.844299,21.027855],[105.844312,21.02783],[105.844345,21.027842],[105.844379,21.027854],[105.844938,21.026762],[105.844945,21.02675],[105.844993,21.026674],[105.845069,21.026612],[105.845104,21.026597],[105.845536,21.026468],[105.845565,21.026475],[105.845579,21.026491],[105.845646,21.026471],[105.845702,21.026454],[105.84572,21.026429],[105.845744,21.026418],[105.845774,21.026408],[105.845752,21.026338],[105.845728,21.026261],[105.845753,21.026264],[105.84587,21.026228],[105.846223,21.02612],[105.846749,21.02596],[105.846773,21.025919],[105.846771,21.025903],[105.846748,21.025807],[105.846601,21.025368],[105.846748,21.025807],[105.846771,21.025903],[105.846831,21.025886],[105.846888,21.02587],[105.846915,21.025891],[105.846948,21.025896],[105.846993,21.02589],[105.847216,21.025826],[105.847237,21.025892],[105.847265,21.025984],[105.847329,21.026],[105.847376,21.026041],[105.8474,21.026089],[105.847489,21.026345],[105.847691,21.026923],[105.847747,21.026906],[105.847791,21.027044],[105.847807,21.027223],[105.84781,21.027793],[105.847808,21.027864],[105.847791,21.02812],[105.847983,21.028171],[105.848234,21.028408],[105.848576,21.028772],[105.849071,21.029],[105.849104,21.028976],[105.84912,21.028948],[105.84916,21.02897],[105.8493,21.028737],[105.849316,21.02871],[105.848897,21.028502],[105.849316,21.02871],[105.849371,21.028737],[105.8494,21.02879],[105.849411,21.028808],[105.849434,21.028909],[105.849417,21.028946],[105.849466,21.028972],[105.849518,21.029001],[105.849563,21.028856],[105.849644,21.028912],[105.849662,21.028918],[105.850272,21.029099],[105.850286,21.02906],[105.850508,21.02912],[105.850534,21.02912],[105.850573,21.029101],[105.850587,21.029107],[105.850623,21.029121],[105.850657,21.029135],[105.850675,21.029142],[105.850744,21.029025],[105.850768,21.028979],[105.850791,21.028935],[105.851029,21.028426],[105.851043,21.028407],[105.851111,21.028235],[105.851128,21.028212],[105.851153,21.028201],[105.851174,21.028211],[105.851199,21.02824],[105.851209,21.02827],[105.851218,21.028267],[105.851265,21.028254],[105.851314,21.028241],[105.851335,21.028236],[105.851317,21.028166],[105.85131,21.028144],[105.851424,21.028072],[105.851452,21.028079],[105.851479,21.027975],[105.851494,21.027884],[105.851479,21.027975],[105.851452,21.028079],[105.85144,21.028164],[105.851448,21.028311],[105.85141,21.028366],[105.8514,21.028374],[105.851368,21.028381],[105.851401,21.028533],[105.851439,21.02873],[105.85146,21.028878],[105.851462,21.028936],[105.851464,21.029045],[105.851449,21.029188],[105.851433,21.029297],[105.851397,21.029459],[105.851369,21.029587],[105.851313,21.029827],[105.851242,21.030126],[105.851198,21.030295],[105.851188,21.03033],[105.851172,21.03039],[105.85115,21.030475],[105.851113,21.030614],[105.851101,21.03066],[105.85108,21.030745],[105.85102,21.030978],[105.85102,21.031066],[105.85103,21.031151],[105.851051,21.031248],[105.851084,21.031325],[105.851122,21.031392],[105.851188,21.031476],[105.851354,21.031644],[105.851433,21.031574],[105.851458,21.031597],[105.851503,21.031624],[105.851548,21.031641],[105.851632,21.031658],[105.851922,21.031649],[105.852111,21.031633],[105.852205,21.031623],[105.852369,21.031605],[105.852533,21.031586],[105.852722,21.031557],[105.852807,21.03154],[105.852875,21.031507],[105.852954,21.031463],[105.853061,21.031369],[105.853165,21.03118],[105.85319,21.031098],[105.853222,21.030969],[105.853215,21.03094],[105.853195,21.030908],[105.853166,21.030878],[105.853109,21.030841],[105.853064,21.030822],[105.853063,21.030805],[105.853061,21.03075],[105.853045,21.03075],[105.85304,21.03075],[105.853004,21.030749],[105.852765,21.030771],[105.853004,21.030749],[105.85304,21.03075],[105.853045,21.03075],[105.853061,21.03075],[105.853063,21.030805],[105.853064,21.030822],[105.853109,21.030841],[105.853166,21.030878],[105.853195,21.030908],[105.853215,21.03094],[105.853222,21.030969],[105.85319,21.031098],[105.8533,21.031149],[105.85333,21.031164],[105.853389,21.031185],[105.853453,21.031209],[105.85346,21.031211],[105.853458,21.031264],[105.853448,21.031283],[105.853436,21.031323],[105.853422,21.031368],[105.853389,21.031394],[105.853353,21.031452],[105.85323,21.031708],[105.85319,21.031834],[105.853202,21.032065],[105.853191,21.032066],[105.853157,21.032067],[105.853161,21.032154],[105.853163,21.032215],[105.852936,21.032227],[105.853019,21.033042],[105.853043,21.033272],[105.852683,21.033362],[105.852689,21.033398],[105.852686,21.03343],[105.852597,21.033448],[105.852512,21.033451],[105.851977,21.033501],[105.85203,21.033826],[105.852032,21.033843],[105.852045,21.033926],[105.852055,21.03401],[105.852114,21.034454],[105.852157,21.034712],[105.852064,21.034742],[105.851774,21.034805],[105.851345,21.034787],[105.851292,21.034823],[105.850948,21.035625],[105.850892,21.035855],[105.850833,21.036101],[105.850828,21.036258],[105.850836,21.036336],[105.850717,21.037089],[105.850764,21.037097],[105.850681,21.037623],[105.850611,21.038074],[105.8506,21.038142],[105.850487,21.038098],[105.849998,21.037899],[105.849961,21.037976],[105.849924,21.03796],[105.849916,21.037957],[105.849751,21.037888],[105.849916,21.037957],[105.849924,21.03796],[105.849961,21.037976],[105.849691,21.038544],[105.849656,21.038618],[105.849603,21.038732],[105.850043,21.038935],[105.84986,21.039179],[105.849651,21.039749],[105.849609,21.039849],[105.85005,21.040005],[105.850193,21.040314],[105.850283,21.040231],[105.850198,21.040181],[105.850152,21.040103],[105.850129,21.040022],[105.850139,21.039999],[105.85015,21.039975],[105.850153,21.039967],[105.850166,21.039972],[105.850186,21.03998],[105.850203,21.03994],[105.850222,21.039947],[105.850299,21.039975],[105.850311,21.039978],[105.85032,21.040013],[105.850357,21.040041],[105.857785,21.042947],[105.85878,21.043341],[105.860493,21.044011]]}}]}
