{"type":"FeatureCollection","features":[{"type":"Feature","properties":{"source":"BRouter, profile hiking-mountain; \u00a9 OpenStreetMap contributors, ODbL"},"geometry":{"type":"LineString","coordinates":[[-82.360035,23.135245],[-82.360052,23.135336],[-82.36008,23.13549],[-82.360149,23.135555],[-82.360242,23.135541],[-82.360284,23.135817],[-82.360356,23.136198],[-82.359874,23.136278],[-82.359897,23.136408],[-82.359128,23.136516],[-82.359139,23.136582],[-82.359158,23.136683],[-82.359268,23.137266],[-82.359657,23.137205],[-82.359268,23.137266],[-82.359403,23.137973],[-82.359461,23.138157],[-82.359482,23.138228],[-82.359486,23.138329],[-82.359399,23.138337],[-82.359281,23.138348],[-82.359246,23.13857],[-82.359243,23.138591],[-82.35919,23.13896],[-82.35909,23.139688],[-82.358945,23.140743],[-82.35884,23.141487],[-82.358834,23.14152],[-82.358829,23.141552],[-82.358815,23.141634],[-82.358724,23.1422],[-82.35859,23.142179],[-82.358617,23.142015],[-82.35859,23.142179],[-82.358724,23.1422],[-82.358553,23.143261],[-82.358404,23.14418],[-82.358349,23.144524],[-82.358278,23.144511],[-82.35823,23.144504],[-82.358152,23.144492],[-82.358094,23.144817],[-82.358066,23.144969],[-82.35803,23.145163],[-82.358024,23.145197],[-82.358,23.145329],[-82.357988,23.145393],[-82.357957,23.145567],[-82.357937,23.145674],[-82.357915,23.145796],[-82.357291,23.145711],[-82.357064,23.145711],[-82.357155,23.145971],[-82.357197,23.146041],[-82.357316,23.14609],[-82.357197,23.146041],[-82.357155,23.145971],[-82.357064,23.145711],[-82.357291,23.145711],[-82.357915,23.145796],[-82.357937,23.145674],[-82.357957,23.145567],[-82.357988,23.145393],[-82.358,23.145329],[-82.358024,23.145197],[-82.35803,23.145163],[-82.357865,23.14498],[-82.35763,23.14472],[-82.357592,23.144678],[-82.357425,23.144492],[-82.357337,23.144395],[-82.357033,23.144058],[-82.356963,23.143972],[-82.35694,23.143947],[-82.356858,23.143854],[-82.356749,23.143766],[-82.356653,23.143742],[-82.356423,23.143606],[-82.356339,23.143593],[-82.356231,23.143575],[-82.356031,23.143584],[-82.355888,23.14362],[-82.35578,23.143673],[-82.355715,23.143757],[-82.355435,23.143893],[-82.355163,23.143885],[-82.35456,23.143511],[-82.353997,23.143162],[-82.353792,23.142883],[-82.353759,23.142883],[-82.353686,23.142883],[-82.353663,23.142942],[-82.353608,23.142979],[-82.353577,23.142986],[-82.353548,23.142979],[-82.353407,23.142896],[-82.353147,23.142742],[-82.353058,23.142697],[-82.352864,23.142573],[-82.35266,23.14221],[-82.352611,23.142232],[-82.352288,23.141623],[-82.352244,23.141557],[-82.352243,23.141557],[-82.3519,23.14106],[-82.351815,23.141043],[-82.351539,23.14113],[-82.351232,23.141227],[-82.351173,23.141098],[-82.35103,23.140784],[-82.350722,23.140154],[-82.35012,23.140362],[-82.350109,23.140337],[-82.35003,23.14036],[-82.349622,23.140514],[-82.349369,23.140612],[-82.349262,23.140655],[-82.349271,23.140692],[-82.34928,23.140726],[-82.349324,23.140928],[-82.349361,23.140977],[-82.349416,23.141003],[-82.349533,23.141046],[-82.349416,23.141003],[-82.349361,23.140977],[-82.349324,23.140928],[-82.34928,23.140726],[-82.349271,23.140692],[-82.349262,23.140655],[-82.349369,23.140612],[-82.349622,23.140514],[-82.349616,23.140487],[-82.349557,23.140239],[-82.349589,23.140218],[-82.349597,23.140201],[-82.349595,23.140165],[-82.349572,23.14014],[-82.349537,23.140131],[-82.349519,23.140135],[-82.349481,23.139975],[-82.34946,23.139884],[-82.349579,23.139849],[-82.349558,23.139795],[-82.349388,23.139398],[-82.349176,23.138841],[-82.34899,23.138347],[-82.348984,23.138331],[-82.348975,23.138307],[-82.348906,23.13798],[-82.348698,23.137802],[-82.348564,23.137689],[-82.348866,23.137714],[-82.34888,23.137713],[-82.349379,23.137627],[-82.349612,23.137581],[-82.349581,23.137238],[-82.349738,23.136506],[-82.349763,23.136464],[-82.349839,23.136418],[-82.349882,23.136308],[-82.349856,23.136117],[-82.349805,23.13575],[-82.349712,23.135664],[-82.349651,23.135676],[-82.349624,23.135624],[-82.349349,23.13508],[-82.349081,23.134559],[-82.34879,23.133925],[-82.348413,23.132923],[-82.347913,23.132962],[-82.347874,23.132965],[-82.347866,23.132866],[-82.347946,23.132676],[-82.347889,23.132655],[-82.347865,23.132647],[-82.347829,23.132634],[-82.348092,23.131995]]}}]}
