{"type":"FeatureCollection","features":[{"type":"Feature","properties":{"source":"BRouter, profile hiking-mountain; \u00a9 OpenStreetMap contributors, ODbL"},"geometry":{"type":"LineString","coordinates":[[114.18849,22.281512],[114.18853,22.281539],[114.18858,22.281476],[114.188178,22.281205],[114.187525,22.280764],[114.18759,22.28068],[114.187494,22.280615],[114.187375,22.280766],[114.187344,22.280828],[114.187298,22.280813],[114.187249,22.280811],[114.187202,22.280823],[114.187161,22.280848],[114.18713,22.280883],[114.187112,22.280925],[114.187107,22.28097],[114.187033,22.280976],[114.186976,22.28098],[114.186969,22.280978],[114.186984,22.280941],[114.186925,22.280921],[114.186835,22.280893],[114.186785,22.280979],[114.186728,22.280962],[114.186677,22.280949],[114.186705,22.280872],[114.18665,22.280853],[114.186371,22.280757],[114.185723,22.280538],[114.185703,22.280586],[114.185623,22.280561],[114.185573,22.280546],[114.185591,22.280494],[114.185563,22.280485],[114.185078,22.280334],[114.184972,22.280301],[114.184941,22.280312],[114.18492,22.28033],[114.184767,22.280713],[114.184736,22.280719],[114.184728,22.280757],[114.184646,22.280934],[114.184595,22.281038],[114.18454,22.281165],[114.184518,22.281202],[114.184478,22.281266],[114.184384,22.281232],[114.184332,22.281334],[114.184283,22.281424],[114.183938,22.282008],[114.183807,22.281953],[114.183757,22.282044],[114.183892,22.282476],[114.183913,22.28252],[114.18393,22.28254],[114.183985,22.282581],[114.183959,22.282617],[114.183982,22.282632],[114.184076,22.282688],[114.184094,22.282673],[114.183937,22.282583],[114.183773,22.282499],[114.183091,22.282242],[114.182971,22.282522],[114.183058,22.28302],[114.182971,22.282522],[114.183091,22.282242],[114.182431,22.282067],[114.18232,22.28208],[114.182167,22.282121],[114.182154,22.282124],[114.182012,22.282031],[114.181999,22.282036],[114.181875,22.28208],[114.181856,22.282085],[114.18182,22.281852],[114.181726,22.281861],[114.181718,22.281828],[114.181736,22.281826],[114.181907,22.281812],[114.181917,22.281812],[114.182001,22.281657],[114.18212,22.281433],[114.181928,22.28129],[114.181905,22.281279],[114.181912,22.281257],[114.181739,22.281184],[114.181706,22.281165],[114.181558,22.281094],[114.180846,22.280814],[114.180812,22.280791],[114.180809,22.280773],[114.18076,22.280763],[114.18058,22.280699],[114.180531,22.28068],[114.180555,22.28065],[114.180678,22.280353],[114.180694,22.280319],[114.180713,22.280287],[114.180862,22.279952],[114.180277,22.279737],[114.179654,22.279496],[114.179671,22.279459],[114.179703,22.27939],[114.179722,22.279349],[114.179656,22.279322],[114.179668,22.279282],[114.179559,22.279252],[114.179507,22.279232],[114.179567,22.279087],[114.179628,22.278905],[114.179492,22.278855],[114.17951,22.278814],[114.17952,22.27879],[114.179397,22.278754],[114.179406,22.278725],[114.179412,22.278703],[114.179416,22.27869],[114.179428,22.278655],[114.17945,22.278593],[114.179039,22.278472],[114.178168,22.278217],[114.177989,22.278164],[114.177781,22.278103],[114.177076,22.277897],[114.177067,22.277889],[114.177029,22.277883],[114.176987,22.27786],[114.176824,22.277772],[114.176805,22.2778],[114.176639,22.277703],[114.176553,22.277654],[114.176262,22.277486],[114.175943,22.277293],[114.175582,22.277082],[114.175506,22.277036],[114.175288,22.276908],[114.175244,22.276882],[114.175167,22.276829],[114.175118,22.276794],[114.175078,22.276766],[114.174982,22.276733],[114.174956,22.276683],[114.174922,22.276629],[114.174893,22.276642],[114.174881,22.276647],[114.174536,22.276164],[114.174524,22.276167],[114.174509,22.276139],[114.174497,22.276118],[114.174502,22.276108],[114.174499,22.276099],[114.174379,22.275947],[114.174164,22.275724],[114.174145,22.275718],[114.174131,22.275689],[114.17412,22.275679],[114.17411,22.275669],[114.174104,22.275663],[114.174099,22.275657],[114.174093,22.275646],[114.174049,22.275599],[114.174038,22.275587],[114.173967,22.275483],[114.173946,22.27543],[114.173941,22.275397],[114.173934,22.275333],[114.173956,22.274975],[114.174011,22.274507],[114.17401,22.274487],[114.174006,22.274411],[114.174004,22.274362],[114.174004,22.274344],[114.174006,22.274306],[114.173988,22.274304],[114.173959,22.274303],[114.173918,22.274301],[114.173902,22.2743],[114.173948,22.274196],[114.173993,22.274037],[114.173998,22.274019],[114.173987,22.273992],[114.173947,22.273898],[114.173937,22.273873],[114.173929,22.273855],[114.173801,22.273551],[114.173783,22.273509],[114.173675,22.27325],[114.173684,22.273221],[114.173713,22.273168],[114.17373,22.273162],[114.173813,22.27313],[114.17373,22.273162],[114.173741,22.273182],[114.173755,22.273204],[114.173744,22.27323],[114.173857,22.273483],[114.173865,22.273502],[114.173875,22.273525],[114.173997,22.273813],[114.17396,22.273836],[114.173929,22.273855],[114.173937,22.273873],[114.173802,22.273929],[114.173783,22.273937],[114.173692,22.274088],[114.173567,22.274135],[114.173473,22.274156],[114.173351,22.274198],[114.173345,22.274231],[114.173374,22.274381],[114.173395,22.274444],[114.17339,22.274501],[114.173388,22.274514],[114.173427,22.274514],[114.173412,22.27453],[114.173376,22.274995],[114.17337,22.275073],[114.173319,22.275529],[114.173313,22.275572],[114.173309,22.275614],[114.173293,22.275762],[114.17323,22.276344],[114.173212,22.276489],[114.173328,22.276501],[114.173321,22.276544],[114.173319,22.276558],[114.173316,22.276581],[114.173314,22.276599],[114.173309,22.27663],[114.173302,22.276689],[114.173316,22.276691],[114.173314,22.27671],[114.173303,22.276792],[114.173277,22.27699],[114.173272,22.277035],[114.17326,22.277119],[114.17325,22.277161],[114.173236,22.277309],[114.173285,22.277313],[114.173254,22.277398],[114.173256,22.277369],[114.173288,22.277372],[114.173312,22.277445],[114.173257,22.277923],[114.173253,22.277954],[114.17321,22.278324],[114.173191,22.278475],[114.173184,22.278536],[114.173164,22.278698],[114.173119,22.279086],[114.173067,22.279526],[114.173064,22.279554],[114.173056,22.27961],[114.173053,22.279632],[114.173143,22.27964],[114.173248,22.279706],[114.173404,22.279812],[114.173418,22.279821],[114.17358,22.280131],[114.173622,22.280213],[114.173621,22.280229],[114.173661,22.280281],[114.173785,22.280479],[114.173816,22.280456],[114.173887,22.28041],[114.173951,22.280364],[114.173954,22.280592],[114.174165,22.28061],[114.17416,22.280668],[114.174149,22.280775],[114.174178,22.280782],[114.174199,22.280798],[114.174209,22.280818],[114.174202,22.280895],[114.17417,22.281285],[114.174136,22.2815],[114.174129,22.281626],[114.174127,22.281666],[114.174125,22.281728],[114.174126,22.281802],[114.174128,22.281995],[114.174119,22.282045],[114.173967,22.282064],[114.173973,22.282122],[114.173981,22.282161],[114.173986,22.282214],[114.173992,22.28226],[114.174001,22.282323],[114.174041,22.282343],[114.174077,22.282385],[114.174081,22.282459],[114.174071,22.282611],[114.174062,22.282649],[114.174036,22.282672],[114.174025,22.282724],[114.174014,22.282838],[114.174012,22.282942],[114.173992,22.283051],[114.173991,22.283252],[114.174008,22.283328],[114.17398,22.28359],[114.173939,22.283624],[114.173813,22.283625],[114.173654,22.283613],[114.173651,22.283654],[114.17364,22.283742],[114.173626,22.283842],[114.17372,22.283845],[114.173867,22.283855],[114.173942,22.283954],[114.173938,22.284007],[114.173934,22.284086],[114.173874,22.284292],[114.173897,22.284447],[114.173621,22.284428],[114.173323,22.284561],[114.173118,22.284611],[114.172966,22.284628],[114.172786,22.284612],[114.172692,22.284586],[114.172622,22.284564],[114.17247,22.284499],[114.172342,22.284403],[114.172262,22.2843],[114.172248,22.284267],[114.172162,22.284296],[114.17211,22.284138],[114.172093,22.284114],[114.171995,22.28378],[114.171927,22.283773],[114.171842,22.28371],[114.171741,22.283613],[114.171291,22.282975],[114.171145,22.282853],[114.170853,22.28268],[114.17072,22.282621],[114.170376,22.282558],[114.170153,22.282569],[114.170113,22.282571],[114.169909,22.282617],[114.169656,22.282689],[114.168861,22.282756],[114.168706,22.282764],[114.168412,22.282799],[114.168186,22.282855],[114.16803,22.282907],[114.167852,22.282991],[114.167601,22.283148],[114.16751,22.283174],[114.1673,22.283191],[114.167182,22.283201],[114.166557,22.28328],[114.166007,22.283367],[114.16588,22.283321],[114.165817,22.28334],[114.165502,22.283435],[114.165464,22.283436],[114.165408,22.283421],[114.165359,22.283388],[114.165307,22.283363],[114.165249,22.283353],[114.165179,22.283354],[114.165144,22.28336],[114.164804,22.283486],[114.16444,22.283621],[114.163707,22.283894],[114.163676,22.28391],[114.163631,22.283957],[114.163609,22.284025],[114.163579,22.284081],[114.16343,22.284222],[114.163406,22.284236],[114.163136,22.28433],[114.163111,22.284443],[114.162711,22.284689],[114.162573,22.285054],[114.162549,22.285114],[114.162525,22.285177],[114.162501,22.285244],[114.162479,22.2853],[114.16226,22.285889],[114.162225,22.285947],[114.162203,22.286002],[114.162108,22.286265],[114.161976,22.286322],[114.16193,22.286342],[114.161852,22.286373],[114.161103,22.286679],[114.161065,22.286695],[114.161018,22.286588],[114.160994,22.286537],[114.160983,22.286513],[114.160961,22.286468],[114.16087,22.286507],[114.160904,22.286488],[114.160938,22.286573],[114.160945,22.286591],[114.161019,22.286765],[114.161084,22.286915],[114.161019,22.286765],[114.160945,22.286591],[114.160938,22.286573],[114.160904,22.286488],[114.160893,22.286463],[114.161154,22.286365],[114.161146,22.286347],[114.160943,22.285919],[114.160898,22.285839],[114.160412,22.28433],[114.160328,22.284187],[114.160286,22.284129],[114.160218,22.284104],[114.159719,22.283894],[114.159658,22.283867],[114.159593,22.283846],[114.159564,22.283853],[114.159539,22.28386],[114.159519,22.283866],[114.159493,22.283878],[114.159475,22.283886],[114.159509,22.283933],[114.159478,22.283862],[114.1601,22.2835],[114.160106,22.283454],[114.160082,22.283414],[114.16011,22.283335],[114.160197,22.283296],[114.16009,22.282973],[114.160041,22.282847],[114.16001,22.282798],[114.159992,22.28274],[114.15999,22.282732],[114.159955,22.282615],[114.159876,22.282307],[114.159815,22.282082],[114.159679,22.28163],[114.159672,22.281604],[114.159649,22.281531],[114.159628,22.281465],[114.159914,22.281386],[114.160267,22.281281],[114.160246,22.281213],[114.160212,22.281103],[114.160153,22.280911],[114.160071,22.280644],[114.159992,22.280665],[114.159983,22.280631],[114.159976,22.280607],[114.159969,22.280585],[114.159963,22.280562],[114.159958,22.280546],[114.159951,22.280518],[114.159941,22.280485],[114.159868,22.280227],[114.159857,22.280187],[114.159797,22.279965],[114.159772,22.279957],[114.159667,22.279953],[114.159637,22.279968],[114.159481,22.27994],[114.159296,22.279987],[114.159481,22.27994],[114.159637,22.279968],[114.159667,22.279953],[114.159669,22.279944],[114.159672,22.27988],[114.159685,22.279803],[114.159642,22.279802],[114.159536,22.27979],[114.159723,22.279664],[114.160043,22.279423],[114.160094,22.279477],[114.160215,22.279377],[114.160329,22.279282],[114.160555,22.279098],[114.16063,22.279035],[114.160566,22.278973],[114.160694,22.278955],[114.160806,22.278927],[114.160784,22.278987],[114.160795,22.279029],[114.160835,22.279068],[114.160885,22.279083],[114.16088,22.279119],[114.160895,22.279177],[114.161119,22.279416],[114.161148,22.279483],[114.161161,22.279513],[114.161148,22.279483],[114.161119,22.279416],[114.160895,22.279177],[114.16088,22.279119],[114.160885,22.279083],[114.160835,22.279068],[114.160795,22.279029],[114.160784,22.278987],[114.160806,22.278927],[114.160936,22.278894],[114.161005,22.278877],[114.161197,22.278828],[114.16118,22.278757],[114.160953,22.278809],[114.160861,22.278611],[114.160925,22.278561],[114.161107,22.278737],[114.161195,22.278394],[114.160926,22.278096],[114.161144,22.277914],[114.161199,22.277868],[114.161242,22.27785],[114.161252,22.277829],[114.161377,22.277886],[114.161532,22.277935],[114.161712,22.278004],[114.161862,22.278054],[114.161972,22.278059],[114.162068,22.278028],[114.162089,22.277981],[114.162131,22.277969],[114.162247,22.277922],[114.162337,22.27785],[114.162391,22.278027],[114.162337,22.27785],[114.162247,22.277922],[114.162131,22.277969],[114.162089,22.277981],[114.162068,22.278028],[114.161972,22.278059],[114.161862,22.278054],[114.161712,22.278004],[114.161532,22.277935],[114.161377,22.277886],[114.161252,22.277829],[114.161242,22.27785],[114.161199,22.277868],[114.161144,22.277914],[114.160926,22.278096],[114.160832,22.278079],[114.160741,22.278113],[114.160498,22.278286],[114.1603,22.278441],[114.160545,22.278691],[114.160571,22.278839],[114.160373,22.278997],[114.160356,22.278979],[114.1603,22.278919],[114.16029,22.278908],[114.160326,22.278877],[114.160215,22.278765],[114.159955,22.278961],[114.159955,22.278961],[114.160215,22.278765],[114.159883,22.278388],[114.15983,22.278356],[114.159629,22.278178],[114.159595,22.278158],[114.159555,22.278156],[114.159516,22.27812],[114.159435,22.278052],[114.159464,22.278001],[114.159489,22.277957],[114.159524,22.277977],[114.159561,22.277983],[114.159588,22.278],[114.159633,22.278029],[114.159662,22.277991],[114.159684,22.277937],[114.159688,22.277879],[114.159683,22.277849],[114.159659,22.277785],[114.159621,22.277729],[114.159445,22.277577],[114.159554,22.277599],[114.159692,22.277616],[114.159692,22.277616],[114.159554,22.277599],[114.159445,22.277577],[114.159621,22.277729],[114.159659,22.277785],[114.159683,22.277849],[114.159688,22.277879],[114.159684,22.277937],[114.159662,22.277991],[114.159633,22.278029],[114.159588,22.278],[114.159561,22.277983],[114.159524,22.277977],[114.159489,22.277957],[114.159464,22.278001],[114.159435,22.278052],[114.159516,22.27812],[114.159555,22.278156],[114.15935,22.278253],[114.158949,22.278498],[114.158713,22.278669],[114.158626,22.278741],[114.158585,22.278784],[114.158539,22.27885],[114.158506,22.27891],[114.158439,22.279082],[114.158245,22.279467],[114.158153,22.279545],[114.158093,22.279572],[114.158001,22.279597],[114.157925,22.279602],[114.157832,22.279597],[114.157721,22.279575],[114.15751,22.279515],[114.157006,22.27932],[114.156948,22.279307],[114.156893,22.279304],[114.156841,22.279309],[114.156762,22.279339],[114.156529,22.279461],[114.156468,22.279506],[114.156431,22.279548],[114.156416,22.27959],[114.156413,22.279622],[114.156428,22.279817],[114.156427,22.279862],[114.156413,22.279938],[114.156325,22.280186],[114.156299,22.280235],[114.156256,22.28028],[114.156205,22.280314],[114.156183,22.280292],[114.156109,22.280351],[114.156031,22.280306],[114.156007,22.280333],[114.155788,22.28018],[114.15572,22.280149],[114.155598,22.280116],[114.155527,22.280104],[114.155508,22.280115],[114.155471,22.280108],[114.155423,22.280099],[114.155405,22.280121],[114.155382,22.280151],[114.155346,22.280139],[114.155297,22.280137],[114.155258,22.280145],[114.155157,22.28019],[114.155116,22.280224],[114.155035,22.280347],[114.154956,22.280529],[114.154922,22.280516],[114.154891,22.280506],[114.15485,22.28061],[114.1548,22.280736],[114.154754,22.280905],[114.154749,22.281054],[114.154764,22.281196],[114.154778,22.281278],[114.154822,22.281511],[114.154814,22.281566],[114.154784,22.281608],[114.154814,22.28163],[114.154759,22.28169],[114.154739,22.281708],[114.154644,22.281797],[114.15458,22.281822],[114.154542,22.281826],[114.1545,22.281835],[114.154489,22.281807],[114.154446,22.28182],[114.154332,22.281464],[114.154349,22.28146],[114.154577,22.281387],[114.154349,22.28146],[114.154332,22.281464],[114.154446,22.28182],[114.154423,22.281826],[114.153874,22.281983],[114.153853,22.281991],[114.153826,22.282002],[114.153801,22.282012],[114.153612,22.282087],[114.153507,22.282143],[114.153447,22.282175],[114.153423,22.282188],[114.153401,22.2822],[114.153309,22.282263],[114.153146,22.282402],[114.153094,22.282455],[114.153047,22.28252],[114.153038,22.282536],[114.15303,22.28255],[114.152862,22.282843],[114.152851,22.282863],[114.152839,22.282884],[114.152691,22.283109],[114.152467,22.283459],[114.152453,22.283473],[114.152443,22.283482],[114.152338,22.283378],[114.152112,22.283154],[114.152105,22.28316],[114.152064,22.283195],[114.152026,22.283226],[114.152064,22.283195],[114.152105,22.28316],[114.152112,22.283154],[114.152338,22.283378],[114.152443,22.283482],[114.152321,22.283598],[114.152249,22.28365],[114.152115,22.283732],[114.152087,22.283742],[114.151867,22.283819],[114.151595,22.283879],[114.151555,22.283885],[114.151512,22.283886],[114.151226,22.283887],[114.151086,22.283888],[114.15082,22.283914],[114.150628,22.283945],[114.150467,22.283981],[114.15032,22.284042],[114.150287,22.284056],[114.150105,22.284157],[114.150093,22.284169],[114.150078,22.284182],[114.149625,22.284542],[114.149524,22.284626],[114.149279,22.284823],[114.149173,22.284908],[114.149195,22.284932],[114.149177,22.284946],[114.149158,22.28496],[114.149177,22.284982],[114.149057,22.285073],[114.149214,22.28525],[114.149383,22.285421],[114.149412,22.28545],[114.149446,22.285485],[114.149681,22.28574],[114.149729,22.285803],[114.149756,22.285835],[114.149787,22.285812],[114.149808,22.285812],[114.149824,22.285818],[114.150139,22.286272],[114.150179,22.286328],[114.150115,22.286363],[114.150129,22.286387],[114.150181,22.28647],[114.150225,22.286446],[114.150283,22.286557],[114.15033,22.286546],[114.150408,22.28681],[114.15041,22.28686],[114.150395,22.286872],[114.15041,22.286921],[114.150385,22.286926],[114.150214,22.286966],[114.15018,22.286983],[114.15016,22.287012],[114.15015,22.28705],[114.150169,22.287138],[114.150181,22.287181],[114.150214,22.287295]]}}]}
