{"type":"FeatureCollection","features":[{"type":"Feature","properties":{"source":"BRouter, profile hiking-mountain; \u00a9 OpenStreetMap contributors, ODbL"},"geometry":{"type":"LineString","coordinates":[[135.782529,34.9963],[135.782473,34.996046],[135.782454,34.996034],[135.782404,34.996027],[135.782109,34.996057],[135.782089,34.995998],[135.782096,34.995989],[135.782234,34.995938],[135.7824,34.995918],[135.782543,34.995918],[135.782557,34.995923],[135.782649,34.996036],[135.782669,34.99605],[135.782696,34.996058],[135.78327,34.996009],[135.783351,34.995986],[135.783213,34.995935],[135.783168,34.995786],[135.783137,34.995727],[135.783019,34.9956],[135.782999,34.99556],[135.782998,34.995515],[135.782917,34.995513],[135.782322,34.995502],[135.782203,34.995514],[135.782127,34.995534],[135.782024,34.995583],[135.781902,34.995675],[135.781821,34.995728],[135.781271,34.996008],[135.780791,34.996178],[135.780808,34.996209],[135.780945,34.996474],[135.781019,34.996657],[135.781028,34.996947],[135.781187,34.996928],[135.781028,34.996947],[135.781063,34.997495],[135.781059,34.99765],[135.781046,34.997767],[135.78103,34.99781],[135.781005,34.997851],[135.780965,34.997897],[135.78092,34.997932],[135.780805,34.997998],[135.780733,34.998022],[135.780593,34.99805],[135.780293,34.998083],[135.780237,34.998096],[135.780194,34.998109],[135.779926,34.99823],[135.7798,34.998317],[135.779769,34.998328],[135.779503,34.998366],[135.779509,34.998388],[135.779513,34.998403],[135.779536,34.998492],[135.779513,34.998403],[135.779509,34.998388],[135.779503,34.998366],[135.779256,34.998401],[135.779113,34.99842],[135.77901,34.998435],[135.779025,34.998546],[135.77899,34.998549],[135.778771,34.998563],[135.778794,34.99924],[135.778797,34.999315],[135.778834,34.999315],[135.778839,34.999303],[135.778882,34.999284],[135.779322,34.999276],[135.779745,34.999313],[135.779847,34.99932],[135.77985,34.999375],[135.779856,34.999481],[135.779859,34.999548],[135.77988,34.999934],[135.779893,35.000177],[135.779903,35.000368],[135.779904,35.000387],[135.779905,35.000416],[135.779907,35.000454],[135.779912,35.000547],[135.779928,35.000851],[135.779959,35.00085],[135.779992,35.000849],[135.780028,35.000847],[135.780052,35.000993],[135.780028,35.000847],[135.779992,35.000849],[135.779959,35.00085],[135.779928,35.000851],[135.779958,35.001415],[135.779967,35.001578],[135.779983,35.001875],[135.780002,35.001896],[135.780031,35.001905],[135.780549,35.001891],[135.780594,35.001901],[135.780623,35.001936],[135.78064,35.002095],[135.780696,35.002624],[135.780697,35.002641],[135.780713,35.002792],[135.780696,35.002914],[135.780694,35.00296],[135.780613,35.003201],[135.780513,35.003497],[135.780563,35.003546],[135.780548,35.003645],[135.780495,35.003692],[135.780432,35.003729],[135.780362,35.003755],[135.780287,35.003768],[135.780001,35.003792],[135.779881,35.003813],[135.779375,35.003944],[135.779327,35.004018],[135.779302,35.0041],[135.779241,35.004094],[135.779189,35.004066],[135.779102,35.004174],[135.779055,35.004202],[135.778798,35.00427],[135.778568,35.004256],[135.778354,35.004193],[135.778111,35.004196],[135.777843,35.004242],[135.777483,35.004017],[135.777444,35.003978],[135.777417,35.003939],[135.777342,35.003959],[135.777306,35.003968],[135.777211,35.003993],[135.776962,35.003866],[135.77695,35.003772],[135.776938,35.003676],[135.776846,35.003684],[135.776607,35.003697],[135.775997,35.003731],[135.775234,35.003747],[135.775059,35.003747],[135.77502,35.003747],[135.77502,35.00339],[135.77496,35.003082],[135.77489,35.002756],[135.774876,35.002692],[135.774821,35.002448],[135.774766,35.002204],[135.774744,35.002105],[135.774704,35.001943],[135.774676,35.001826],[135.774667,35.001745],[135.774655,35.001647],[135.774635,35.001468],[135.774609,35.001316],[135.7746,35.001264],[135.774532,35.000868],[135.774523,35.000826],[135.774515,35.000799],[135.774506,35.00077],[135.774496,35.000735],[135.774445,35.000727],[135.774425,35.000703],[135.774389,35.000692],[135.774335,35.000686],[135.774297,35.000666],[135.774279,35.000678],[135.774233,35.00068],[135.774185,35.000699],[135.774062,35.000702],[135.774048,35.000673],[135.774023,35.000541],[135.773976,35.000302],[135.774023,35.000541],[135.774048,35.000673],[135.773833,35.000703],[135.773694,35.000722],[135.773356,35.000769],[135.773297,35.000798],[135.773465,35.001623],[135.773428,35.001631],[135.773467,35.001825],[135.773552,35.002144],[135.773583,35.002261],[135.773568,35.002288],[135.773645,35.002609],[135.773662,35.002691],[135.773703,35.002837],[135.773661,35.002845],[135.773666,35.002874],[135.773601,35.002882],[135.773455,35.0029],[135.772921,35.002967],[135.772947,35.003095],[135.773074,35.003741],[135.773019,35.003741],[135.772952,35.00374],[135.77295,35.003832],[135.772948,35.003918],[135.772679,35.003915],[135.772639,35.003915],[135.772602,35.003914],[135.772407,35.003913],[135.772301,35.003913],[135.772217,35.003913],[135.772201,35.003924],[135.772197,35.003942],[135.772207,35.004006],[135.772144,35.004012],[135.772072,35.00402],[135.772039,35.004023],[135.771961,35.004031],[135.77194,35.003981],[135.771901,35.00394],[135.7719,35.003914],[135.771871,35.003912],[135.771838,35.003911],[135.77116,35.003903],[135.771136,35.003901],[135.771138,35.003923],[135.771142,35.00396],[135.771157,35.003959],[135.771231,35.003954],[135.771281,35.00395],[135.771291,35.003949],[135.771314,35.004191],[135.771291,35.003949],[135.771281,35.00395],[135.771231,35.003954],[135.771157,35.003959],[135.771142,35.00396],[135.771138,35.003923],[135.771136,35.003901],[135.771077,35.003898],[135.771034,35.003897],[135.77066,35.003894],[135.770619,35.003894],[135.770607,35.0039],[135.770589,35.0039],[135.770558,35.003899],[135.770515,35.003899],[135.770487,35.003885],[135.770455,35.003882],[135.770438,35.003882],[135.770415,35.003882],[135.770379,35.003881],[135.769677,35.003869],[135.769604,35.003867],[135.769445,35.004006],[135.769443,35.004043],[135.769442,35.004055],[135.769308,35.004055],[135.76917,35.004055],[135.769169,35.004006],[135.768991,35.003858],[135.768928,35.003856],[135.768818,35.003852],[135.768801,35.004238],[135.768792,35.004248],[135.768771,35.004254],[135.768691,35.004253],[135.768679,35.004319],[135.768663,35.004354],[135.768421,35.004678],[135.768411,35.004719],[135.768393,35.004893],[135.768126,35.004882],[135.767855,35.004862],[135.767836,35.004861],[135.767782,35.004856],[135.767645,35.004844],[135.767526,35.004834],[135.767188,35.004822],[135.767185,35.005019],[135.766861,35.005029],[135.766353,35.005039],[135.765998,35.005034]]}}]}
