{"type":"FeatureCollection","features":[{"type":"Feature","properties":{"source":"BRouter, profile hiking-mountain; \u00a9 OpenStreetMap contributors, ODbL"},"geometry":{"type":"LineString","coordinates":[[-77.034669,-12.05186],[-77.0347,-12.051846],[-77.034756,-12.051791],[-77.034786,-12.051718],[-77.034785,-12.051643],[-77.034755,-12.051575],[-77.034941,-12.051458],[-77.034976,-12.051435],[-77.035047,-12.05139],[-77.034792,-12.050984],[-77.034705,-12.050967],[-77.03468,-12.050929],[-77.03465,-12.050883],[-77.034736,-12.050818],[-77.034711,-12.050785],[-77.03435,-12.050304],[-77.034065,-12.049899],[-77.033427,-12.048979],[-77.033417,-12.048965],[-77.0334,-12.048936],[-77.033351,-12.048876],[-77.033188,-12.048981],[-77.033351,-12.048876],[-77.033328,-12.04884],[-77.033293,-12.048794],[-77.033053,-12.048457],[-77.032968,-12.048336],[-77.032768,-12.048039],[-77.032744,-12.048003],[-77.03272,-12.04797],[-77.032053,-12.047044],[-77.031428,-12.046183],[-77.031357,-12.046128],[-77.03129,-12.046044],[-77.031219,-12.046087],[-77.031178,-12.046078],[-77.031135,-12.046069],[-77.03082,-12.046011],[-77.030672,-12.046105],[-77.030509,-12.046207],[-77.030403,-12.046045],[-77.030305,-12.046107],[-77.030169,-12.04619],[-77.029977,-12.045893],[-77.029993,-12.045825],[-77.029867,-12.045799],[-77.029805,-12.045838],[-77.029698,-12.045849],[-77.029731,-12.045902],[-77.029936,-12.046211],[-77.029879,-12.046244],[-77.029936,-12.046211],[-77.029731,-12.045902],[-77.029698,-12.045849],[-77.029684,-12.045828],[-77.029763,-12.045777],[-77.030093,-12.045568],[-77.030351,-12.045405],[-77.030319,-12.045357],[-77.030299,-12.045326],[-77.030286,-12.045308],[-77.030299,-12.045326],[-77.030319,-12.045357],[-77.030351,-12.045405],[-77.030509,-12.045301],[-77.030639,-12.045213],[-77.030681,-12.045183],[-77.030698,-12.04517],[-77.030671,-12.045134],[-77.030285,-12.0446],[-77.030243,-12.044542],[-77.02997,-12.044163],[-77.029927,-12.044102],[-77.030068,-12.044033],[-77.030795,-12.043682],[-77.030886,-12.043638],[-77.031004,-12.043597],[-77.031026,-12.043638],[-77.0311,-12.043741],[-77.031278,-12.043986],[-77.03141,-12.044172],[-77.031278,-12.043986],[-77.0311,-12.043741],[-77.031026,-12.043638],[-77.031004,-12.043597],[-77.030886,-12.043638],[-77.030795,-12.043682],[-77.030068,-12.044033],[-77.030005,-12.043916],[-77.02995,-12.043794],[-77.029815,-12.043842],[-77.0298,-12.043773],[-77.02965,-12.04291],[-77.029624,-12.042764],[-77.029614,-12.042709],[-77.029554,-12.042264],[-77.029494,-12.041831],[-77.029487,-12.04178],[-77.029479,-12.041702],[-77.029459,-12.041499],[-77.029424,-12.041149],[-77.0294,-12.040908],[-77.029396,-12.040869],[-77.029392,-12.040826],[-77.029347,-12.040417],[-77.029302,-12.039998],[-77.029221,-12.040008],[-77.029151,-12.040015],[-77.029143,-12.03992],[-77.029087,-12.039237],[-77.029062,-12.038926],[-77.029058,-12.038878],[-77.029047,-12.038748],[-77.029045,-12.038727],[-77.029041,-12.038671],[-77.029036,-12.038617],[-77.029014,-12.038346],[-77.028974,-12.037857],[-77.028957,-12.03765],[-77.028945,-12.037502],[-77.028933,-12.037277],[-77.028764,-12.036882],[-77.028482,-12.037017],[-77.028304,-12.0371],[-77.028181,-12.037156],[-77.027923,-12.037285],[-77.027811,-12.037344],[-77.027279,-12.037626],[-77.027261,-12.037594],[-77.027232,-12.03761],[-77.027188,-12.037634],[-77.027045,-12.037387],[-77.026889,-12.03712],[-77.026713,-12.036815],[-77.026664,-12.036843],[-77.026629,-12.036861],[-77.026619,-12.036866],[-77.026523,-12.036927],[-77.026068,-12.036137],[-77.025813,-12.035695],[-77.026068,-12.036137],[-77.026523,-12.036927],[-77.026439,-12.03697],[-77.026423,-12.036979],[-77.02637,-12.03701],[-77.026398,-12.037059],[-77.026288,-12.037113],[-77.026527,-12.037535],[-77.026262,-12.037757],[-77.026241,-12.037783],[-77.026016,-12.037976],[-77.026265,-12.038311],[-77.026242,-12.038328],[-77.025918,-12.038558],[-77.025854,-12.038566],[-77.02581,-12.03856],[-77.025712,-12.038546],[-77.02563,-12.038549],[-77.025375,-12.038657],[-77.025064,-12.03879],[-77.02525,-12.039197],[-77.024563,-12.039488],[-77.02448,-12.039494],[-77.024408,-12.039474],[-77.024179,-12.040406],[-77.024146,-12.040585],[-77.024114,-12.040739],[-77.024079,-12.040902],[-77.024012,-12.041219],[-77.023976,-12.041435],[-77.023959,-12.04154],[-77.023923,-12.041758],[-77.023909,-12.041844],[-77.02386,-12.042199],[-77.023859,-12.042211],[-77.023856,-12.04223],[-77.023855,-12.042246],[-77.023839,-12.042483],[-77.023777,-12.04249],[-77.023786,-12.042533],[-77.023823,-12.042653],[-77.023843,-12.042704],[-77.02386,-12.042701],[-77.023878,-12.042731],[-77.023931,-12.042726],[-77.023972,-12.042716],[-77.02402,-12.042705],[-77.024044,-12.042699],[-77.024119,-12.042685],[-77.024157,-12.042678],[-77.024198,-12.042681],[-77.024252,-12.04268],[-77.024278,-12.042676],[-77.024252,-12.042715],[-77.024237,-12.042771],[-77.024229,-12.04282],[-77.02423,-12.042873],[-77.024246,-12.042942],[-77.024312,-12.043069],[-77.025018,-12.044438],[-77.02516,-12.044682],[-77.025224,-12.044769],[-77.025344,-12.044855],[-77.02545,-12.044916],[-77.025547,-12.044932],[-77.025601,-12.044931],[-77.025775,-12.044909],[-77.025819,-12.044857],[-77.025884,-12.044836],[-77.025883,-12.044777],[-77.02588,-12.044737],[-77.025844,-12.044738],[-77.025843,-12.044699],[-77.025841,-12.044668],[-77.025878,-12.044667],[-77.025879,-12.044619],[-77.02588,-12.044576],[-77.026071,-12.044576],[-77.026211,-12.044575],[-77.0263,-12.044575],[-77.026493,-12.044575],[-77.026521,-12.044575],[-77.026522,-12.044677],[-77.026728,-12.044674],[-77.026729,-12.04471],[-77.02684,-12.044704],[-77.026839,-12.044663],[-77.026933,-12.044658],[-77.027046,-12.044653],[-77.027042,-12.044635],[-77.027053,-12.0446],[-77.027083,-12.044578],[-77.027101,-12.044575],[-77.02712,-12.044578],[-77.02715,-12.0446],[-77.027198,-12.044614],[-77.02723,-12.04461],[-77.027261,-12.044598],[-77.027307,-12.044618],[-77.027359,-12.044641],[-77.027357,-12.044669],[-77.027348,-12.044686],[-77.027345,-12.044718],[-77.027363,-12.044752],[-77.027389,-12.044778],[-77.027506,-12.044771],[-77.027547,-12.044777],[-77.027587,-12.044803],[-77.027618,-12.044847],[-77.027838,-12.045174],[-77.027865,-12.045213],[-77.027829,-12.045238],[-77.027781,-12.045274],[-77.027596,-12.045403],[-77.027557,-12.045431],[-77.027471,-12.045491],[-77.027536,-12.045593],[-77.027401,-12.045676],[-77.02729,-12.045744],[-77.027401,-12.045676],[-77.027433,-12.045724],[-77.027348,-12.045776],[-77.027379,-12.045827],[-77.027413,-12.045879],[-77.027063,-12.046085],[-77.026202,-12.046568],[-77.026254,-12.046668],[-77.026718,-12.047535],[-77.026776,-12.047649],[-77.026823,-12.047744],[-77.027255,-12.048581],[-77.027211,-12.048606],[-77.02707,-12.04869],[-77.027014,-12.04872],[-77.027071,-12.048832],[-77.026345,-12.049294],[-77.026318,-12.049311],[-77.026243,-12.049357],[-77.026005,-12.049506],[-77.02576,-12.049665],[-77.025353,-12.049921],[-77.025322,-12.049945],[-77.025346,-12.050006],[-77.025537,-12.050497],[-77.025576,-12.050582],[-77.025684,-12.050812],[-77.025713,-12.05088],[-77.025751,-12.050962],[-77.025267,-12.051244],[-77.025751,-12.050962],[-77.025783,-12.050943],[-77.025806,-12.05093],[-77.025843,-12.050908],[-77.026409,-12.050578],[-77.02684,-12.050326],[-77.026892,-12.050295],[-77.026911,-12.050326],[-77.027172,-12.050775],[-77.027427,-12.051231],[-77.027469,-12.051292],[-77.027566,-12.051241],[-77.028085,-12.050957],[-77.028185,-12.050908],[-77.028269,-12.051064],[-77.0286,-12.051715],[-77.028662,-12.051825],[-77.028692,-12.051878],[-77.028717,-12.051921],[-77.028761,-12.051902],[-77.028915,-12.051834],[-77.028973,-12.051803],[-77.029429,-12.052696],[-77.02948,-12.05279],[-77.029536,-12.052899],[-77.029888,-12.053542],[-77.030469,-12.053359],[-77.0305,-12.053349],[-77.030747,-12.053271],[-77.03077,-12.053336],[-77.030775,-12.053352],[-77.030823,-12.053334],[-77.030879,-12.053318],[-77.031337,-12.053317],[-77.031347,-12.053287],[-77.031367,-12.05327],[-77.031394,-12.053264],[-77.031419,-12.053273],[-77.031442,-12.053304],[-77.032003,-12.053196],[-77.03205,-12.05327],[-77.032091,-12.053337],[-77.032121,-12.053385],[-77.03216,-12.053383],[-77.032191,-12.053361],[-77.032229,-12.053419],[-77.032445,-12.053747],[-77.032716,-12.054137],[-77.032782,-12.054232],[-77.033192,-12.054821],[-77.033259,-12.054911],[-77.034093,-12.0546],[-77.034224,-12.054552],[-77.034251,-12.054541],[-77.034303,-12.054523],[-77.034367,-12.054504],[-77.034436,-12.054489],[-77.034462,-12.054524],[-77.034737,-12.054949],[-77.035077,-12.055476],[-77.035045,-12.055496],[-77.035014,-12.055514],[-77.035037,-12.055553],[-77.034981,-12.055549],[-77.034956,-12.055547],[-77.03498,-12.05558],[-77.034949,-12.055578],[-77.034966,-12.055615],[-77.035009,-12.055696],[-77.035044,-12.055708],[-77.035072,-12.055744],[-77.035258,-12.056005],[-77.035585,-12.056465],[-77.035619,-12.056561],[-77.035646,-12.056566],[-77.035612,-12.057013],[-77.035558,-12.057035],[-77.03555,-12.057109],[-77.035545,-12.057154],[-77.035519,-12.057153],[-77.035504,-12.057344],[-77.035419,-12.057409],[-77.035405,-12.057608],[-77.03538,-12.057605],[-77.035405,-12.057608],[-77.035385,-12.057847],[-77.03546,-12.057908],[-77.035446,-12.058094],[-77.035477,-12.0581],[-77.035474,-12.058177],[-77.03555,-12.058181],[-77.035468,-12.059072],[-77.03555,-12.059084],[-77.035585,-12.059086],[-77.035788,-12.059102],[-77.035873,-12.05911],[-77.036085,-12.059137],[-77.036094,-12.059138],[-77.036125,-12.059141],[-77.036146,-12.059142],[-77.036178,-12.059146],[-77.036197,-12.059152],[-77.036246,-12.05917],[-77.036336,-12.059234],[-77.036351,-12.059242],[-77.036351,-12.059305],[-77.036357,-12.059343],[-77.03641,-12.059432],[-77.036346,-12.059556],[-77.036319,-12.059625],[-77.036257,-12.060026],[-77.03626,-12.060082],[-77.036289,-12.060247],[-77.036217,-12.060303],[-77.036123,-12.060416],[-77.03603,-12.060628],[-77.03594,-12.060788],[-77.035844,-12.060905],[-77.035723,-12.061037],[-77.035514,-12.061196],[-77.035517,-12.061246],[-77.035518,-12.061326],[-77.035516,-12.06155],[-77.035607,-12.061551],[-77.035664,-12.061564],[-77.035784,-12.061369],[-77.03598,-12.061059],[-77.036007,-12.061014],[-77.03615,-12.060783],[-77.036627,-12.060814],[-77.036628,-12.060831],[-77.036799,-12.060842],[-77.036628,-12.060831],[-77.036607,-12.061105],[-77.036582,-12.061432],[-77.036549,-12.061748],[-77.036542,-12.06182],[-77.036534,-12.061906],[-77.036581,-12.061915],[-77.03663,-12.061938],[-77.03667,-12.061972],[-77.0367,-12.062016],[-77.036716,-12.062066],[-77.036717,-12.062119],[-77.036707,-12.062162],[-77.036687,-12.062202],[-77.036657,-12.062237],[-77.036712,-12.062301],[-77.036843,-12.06244],[-77.036981,-12.062589],[-77.037115,-12.062696],[-77.03711,-12.06277],[-77.037083,-12.063104],[-77.037077,-12.063179],[-77.037476,-12.063208],[-77.037504,-12.06321],[-77.037419,-12.064086],[-77.037454,-12.064237],[-77.037483,-12.064304],[-77.037465,-12.064417],[-77.037461,-12.064448],[-77.037444,-12.064558],[-77.037442,-12.064617],[-77.03743,-12.064706],[-77.037397,-12.064705],[-77.037362,-12.064703],[-77.037314,-12.064699],[-77.037184,-12.065563],[-77.037171,-12.065641],[-77.037159,-12.065715],[-77.03698,-12.066907],[-77.036965,-12.066986],[-77.036956,-12.067049],[-77.036997,-12.067054],[-77.037041,-12.067063],[-77.037021,-12.067148],[-77.036898,-12.068136],[-77.036902,-12.068185],[-77.036893,-12.068245],[-77.036885,-12.068299],[-77.036868,-12.068391],[-77.036809,-12.068383],[-77.036787,-12.068383],[-77.036776,-12.068369],[-77.036718,-12.068411],[-77.03658,-12.06918],[-77.03619,-12.069141],[-77.036147,-12.069137],[-77.035599,-12.069615],[-77.035535,-12.069737],[-77.035425,-12.06973],[-77.035326,-12.069718],[-77.035314,-12.069717],[-77.035232,-12.069708],[-77.035182,-12.069703],[-77.035004,-12.069679],[-77.03488,-12.069744],[-77.034654,-12.069828],[-77.034436,-12.069909],[-77.034397,-12.069933],[-77.034374,-12.069969],[-77.034365,-12.069998],[-77.034339,-12.070167],[-77.03403,-12.070115],[-77.033878,-12.070272],[-77.033824,-12.070321],[-77.03382,-12.070323],[-77.033861,-12.070366],[-77.033888,-12.070408],[-77.033787,-12.070422],[-77.033684,-12.070447],[-77.033623,-12.070468],[-77.033697,-12.070508]]}}]}
