{"type":"FeatureCollection","features":[{"type":"Feature","properties":{"source":"BRouter, profile hiking-mountain; \u00a9 OpenStreetMap contributors, ODbL"},"geometry":{"type":"LineString","coordinates":[[-0.141961,51.500184],[-0.141784,51.500019],[-0.141747,51.499983],[-0.141518,51.500085],[-0.141275,51.500181],[-0.141071,51.500251],[-0.141068,51.50024],[-0.141044,51.500161],[-0.141026,51.500099],[-0.141022,51.500087],[-0.140977,51.500085],[-0.140924,51.500077],[-0.140896,51.500064],[-0.140863,51.500073],[-0.140803,51.50009],[-0.14061,51.500143],[-0.140546,51.500164],[-0.138903,51.500347],[-0.138613,51.500377],[-0.138617,51.500392],[-0.138628,51.500432],[-0.138641,51.500484],[-0.138646,51.500505],[-0.138658,51.500546],[-0.138775,51.500535],[-0.138591,51.500712],[-0.138565,51.500712],[-0.137771,51.501165],[-0.136522,51.501677],[-0.135823,51.501893],[-0.135106,51.502061],[-0.135085,51.502082],[-0.135103,51.50212],[-0.135313,51.502508],[-0.135285,51.502513],[-0.135308,51.502567],[-0.135302,51.502582],[-0.135283,51.502597],[-0.134842,51.502763],[-0.13469,51.502833],[-0.134445,51.503012],[-0.134371,51.503054],[-0.134254,51.503091],[-0.134117,51.503104],[-0.133286,51.503121],[-0.133207,51.503126],[-0.133042,51.503139],[-0.133006,51.503138],[-0.132971,51.503118],[-0.132573,51.503213],[-0.132415,51.503257],[-0.132449,51.503282],[-0.132314,51.50333],[-0.132237,51.503355],[-0.132065,51.50343],[-0.13194,51.503505],[-0.131864,51.50356],[-0.131806,51.503612],[-0.131629,51.503745],[-0.131362,51.504024],[-0.131279,51.504078],[-0.131172,51.504126],[-0.131026,51.504176],[-0.130967,51.504189],[-0.130862,51.504198],[-0.130762,51.504208],[-0.130326,51.504217],[-0.13005,51.504236],[-0.129932,51.50425],[-0.129632,51.504314],[-0.129377,51.504353],[-0.129311,51.504362],[-0.129269,51.50437],[-0.129186,51.504379],[-0.129111,51.504389],[-0.129095,51.504417],[-0.129135,51.504533],[-0.129077,51.50454],[-0.128282,51.504642],[-0.127443,51.50475],[-0.127392,51.504757],[-0.127059,51.504798],[-0.126701,51.504845],[-0.126631,51.504853],[-0.126641,51.504887],[-0.126666,51.50496],[-0.12677,51.505223],[-0.126773,51.505231],[-0.126788,51.505252],[-0.127061,51.50587],[-0.127066,51.505883],[-0.127072,51.505896],[-0.127059,51.505902],[-0.127058,51.505912],[-0.12712,51.506051],[-0.127289,51.506426],[-0.127569,51.506995],[-0.127603,51.507045],[-0.127646,51.507075],[-0.127675,51.507088],[-0.127734,51.507102],[-0.127817,51.507101],[-0.127848,51.507097],[-0.127908,51.507072],[-0.127934,51.507091],[-0.12796,51.50711],[-0.128016,51.507144],[-0.128058,51.507158],[-0.128105,51.507173],[-0.128143,51.507185],[-0.128127,51.507223],[-0.128149,51.507268],[-0.128262,51.507304],[-0.128285,51.507317],[-0.128292,51.507333],[-0.128279,51.507361],[-0.128255,51.507402],[-0.128239,51.507429],[-0.128226,51.507458],[-0.128226,51.507489],[-0.128227,51.507517],[-0.128229,51.507556],[-0.128229,51.507577],[-0.128232,51.507606],[-0.128253,51.507662],[-0.128308,51.507795],[-0.128321,51.507829],[-0.128049,51.508037],[-0.128126,51.508221],[-0.12815,51.508278],[-0.12819,51.508375],[-0.128234,51.508482],[-0.128384,51.508457],[-0.128234,51.508482],[-0.12819,51.508375],[-0.12815,51.508278],[-0.128126,51.508221],[-0.128049,51.508037],[-0.128321,51.507829],[-0.128308,51.507795],[-0.128253,51.507662],[-0.128232,51.507606],[-0.128229,51.507577],[-0.128229,51.507556],[-0.128227,51.507517],[-0.128226,51.507489],[-0.128226,51.507458],[-0.128239,51.507429],[-0.128255,51.507402],[-0.128279,51.507361],[-0.128292,51.507333],[-0.128285,51.507317],[-0.128262,51.507304],[-0.128149,51.507268],[-0.128127,51.507223],[-0.128143,51.507185],[-0.128105,51.507173],[-0.128058,51.507158],[-0.128016,51.507144],[-0.12796,51.50711],[-0.127934,51.507091],[-0.127908,51.507072],[-0.127848,51.507097],[-0.127817,51.507101],[-0.127734,51.507102],[-0.127675,51.507088],[-0.127646,51.507075],[-0.127603,51.507045],[-0.127569,51.506995],[-0.127289,51.506426],[-0.12712,51.506051],[-0.127058,51.505912],[-0.127059,51.505902],[-0.127072,51.505896],[-0.127066,51.505883],[-0.127061,51.50587],[-0.126788,51.505252],[-0.126773,51.505231],[-0.12677,51.505223],[-0.126666,51.50496],[-0.126641,51.504887],[-0.126631,51.504853],[-0.126625,51.504835],[-0.126621,51.504822],[-0.126569,51.504661],[-0.126427,51.504268],[-0.126391,51.504167],[-0.12636,51.504032],[-0.126315,51.503602],[-0.126305,51.503403],[-0.126302,51.503365],[-0.126295,51.503226],[-0.126291,51.503179],[-0.126288,51.503132],[-0.126283,51.502967],[-0.126277,51.502695],[-0.126265,51.502242],[-0.126273,51.502165],[-0.126294,51.502155],[-0.126339,51.502154],[-0.126342,51.502143],[-0.126347,51.502119],[-0.126356,51.502084],[-0.126361,51.502057],[-0.126435,51.501614],[-0.126489,51.501292],[-0.126508,51.50115],[-0.126553,51.501122],[-0.127444,51.501181],[-0.127446,51.50117],[-0.127449,51.501151],[-0.127455,51.501116],[-0.127457,51.5011],[-0.127465,51.501065],[-0.127507,51.501064],[-0.127554,51.501052],[-0.127599,51.501041],[-0.127632,51.501032],[-0.127615,51.50099],[-0.127681,51.500477],[-0.127674,51.500445],[-0.127678,51.500333],[-0.127637,51.500298],[-0.127606,51.500288],[-0.127567,51.500273],[-0.127459,51.500213],[-0.127428,51.500178],[-0.127418,51.500155],[-0.127411,51.500139],[-0.127589,51.500116],[-0.127723,51.500088],[-0.127896,51.500042],[-0.128475,51.499844],[-0.128591,51.499796],[-0.128733,51.499738],[-0.128737,51.499711],[-0.128774,51.49949],[-0.128803,51.499315],[-0.129055,51.499329],[-0.128803,51.499315],[-0.128774,51.49949],[-0.128737,51.499711],[-0.128733,51.499738],[-0.128591,51.499796],[-0.128475,51.499844],[-0.127896,51.500042],[-0.127723,51.500088],[-0.127589,51.500116],[-0.127411,51.500139],[-0.127418,51.500155],[-0.127428,51.500178],[-0.127459,51.500213],[-0.127425,51.500236],[-0.127366,51.500281],[-0.127314,51.500329],[-0.127303,51.500341],[-0.127296,51.500351],[-0.127202,51.500345],[-0.126423,51.5003],[-0.126391,51.500301],[-0.126362,51.50031],[-0.126336,51.500326],[-0.126325,51.500344],[-0.126266,51.50074],[-0.126243,51.500738],[-0.12615,51.500737],[-0.12605,51.500736],[-0.125977,51.500739],[-0.125984,51.500657],[-0.125986,51.500633],[-0.125986,51.500611],[-0.125989,51.500586],[-0.125992,51.500541],[-0.125994,51.50052],[-0.125936,51.50052],[-0.125994,51.50052],[-0.125992,51.500541],[-0.125989,51.500586],[-0.125986,51.500611],[-0.125986,51.500633],[-0.125984,51.500657],[-0.125977,51.500739],[-0.125974,51.500788],[-0.12585,51.500869],[-0.125268,51.500854],[-0.124187,51.500817],[-0.123712,51.500803],[-0.123711,51.50082],[-0.123708,51.500842],[-0.123701,51.50092],[-0.123613,51.500915],[-0.123599,51.500914],[-0.123577,51.500913],[-0.123042,51.50089],[-0.122621,51.50087],[-0.122075,51.500855],[-0.121981,51.500853],[-0.121781,51.500847],[-0.121981,51.500853],[-0.122075,51.500855],[-0.122621,51.50087],[-0.123042,51.50089],[-0.123577,51.500913],[-0.123599,51.500914],[-0.123613,51.500915],[-0.123701,51.50092],[-0.123696,51.500982],[-0.123681,51.501008],[-0.123571,51.500991],[-0.119981,51.50089],[-0.119932,51.500889],[-0.119931,51.500931],[-0.119927,51.500953],[-0.119921,51.500978],[-0.119917,51.500998],[-0.119911,51.501023],[-0.119907,51.501045],[-0.119898,51.501087],[-0.119833,51.501116],[-0.119751,51.50155],[-0.119762,51.50164],[-0.119739,51.501761],[-0.11973,51.501802],[-0.119641,51.502274],[-0.119614,51.502358],[-0.119564,51.502518],[-0.119457,51.503017],[-0.119422,51.503136],[-0.119382,51.503274],[-0.119368,51.503322],[-0.119291,51.503618],[-0.119188,51.503952],[-0.119143,51.504101],[-0.118985,51.504483],[-0.1189,51.504634],[-0.118688,51.505016],[-0.118625,51.505163],[-0.118567,51.505159],[-0.11851,51.505152],[-0.118393,51.505164],[-0.118321,51.505293],[-0.118285,51.505336],[-0.118099,51.505557],[-0.118045,51.50554],[-0.117825,51.505472],[-0.117737,51.505579],[-0.117788,51.505593],[-0.117745,51.505644],[-0.116587,51.505284],[-0.116566,51.50531],[-0.116551,51.505328],[-0.116623,51.505353],[-0.116598,51.505378],[-0.117044,51.50554],[-0.117134,51.505573],[-0.117163,51.505546],[-0.117456,51.505651],[-0.117429,51.505681],[-0.117541,51.505724],[-0.117249,51.506008],[-0.116925,51.506285],[-0.116819,51.506235],[-0.11677,51.506271],[-0.116956,51.506306],[-0.117102,51.506373],[-0.116951,51.506519],[-0.116962,51.506559],[-0.117005,51.506564],[-0.116979,51.506648],[-0.116951,51.506664],[-0.117015,51.506709],[-0.11651,51.507017],[-0.116057,51.507226],[-0.115495,51.507452],[-0.115326,51.507522],[-0.115171,51.507566],[-0.114257,51.507827],[-0.114142,51.507848],[-0.113692,51.507932],[-0.113166,51.508053],[-0.112697,51.508139],[-0.112509,51.508166],[-0.111095,51.508353],[-0.111003,51.508366],[-0.110914,51.508377],[-0.110825,51.50827],[-0.110803,51.508243],[-0.110698,51.508185],[-0.110375,51.508219],[-0.110243,51.508213],[-0.110076,51.508214],[-0.109995,51.50822],[-0.109969,51.508224],[-0.109736,51.508263],[-0.109559,51.508295],[-0.10935,51.50833],[-0.109119,51.508363],[-0.109056,51.50839],[-0.109037,51.508398],[-0.108899,51.508413],[-0.108885,51.508415],[-0.108887,51.50844],[-0.108747,51.50845],[-0.108658,51.508457],[-0.108326,51.508482],[-0.108291,51.508484],[-0.108255,51.508486],[-0.107825,51.508503],[-0.107665,51.508508],[-0.107658,51.508596],[-0.107623,51.508611],[-0.106936,51.508635],[-0.105887,51.508621],[-0.105013,51.508607],[-0.104958,51.508583],[-0.104817,51.508574],[-0.104762,51.508562],[-0.104705,51.50852],[-0.104674,51.508511],[-0.104204,51.508505],[-0.1041,51.508516],[-0.104042,51.508522],[-0.103714,51.508519],[-0.1036,51.5086],[-0.103552,51.508599],[-0.103479,51.508598],[-0.103034,51.508593],[-0.102849,51.508591],[-0.102851,51.508556],[-0.10277,51.50855],[-0.102704,51.508525],[-0.102682,51.508497],[-0.102692,51.508461],[-0.102678,51.508456],[-0.102687,51.508445],[-0.1027,51.508201],[-0.102574,51.508178],[-0.102508,51.50815],[-0.102464,51.508112],[-0.102442,51.508049],[-0.102447,51.507982],[-0.102403,51.507951],[-0.102289,51.507843],[-0.102225,51.507852],[-0.102124,51.507856],[-0.101999,51.507857],[-0.101877,51.507851],[-0.101824,51.507854],[-0.101786,51.507783],[-0.101735,51.507714],[-0.101536,51.507549],[-0.101398,51.507464],[-0.101335,51.507497],[-0.100936,51.507215],[-0.100647,51.507006],[-0.100616,51.507026],[-0.10058,51.507048],[-0.100572,51.50707],[-0.100091,51.506878],[-0.100084,51.506927],[-0.099883,51.507133],[-0.099742,51.507277],[-0.099563,51.507268],[-0.099438,51.507263],[-0.099348,51.507173],[-0.099359,51.507091],[-0.099452,51.507099],[-0.099425,51.507061],[-0.099215,51.506933],[-0.099071,51.506893],[-0.098802,51.506877],[-0.098411,51.506877],[-0.09828,51.506857],[-0.098195,51.506814],[-0.098164,51.506776],[-0.098094,51.506722],[-0.098019,51.50682],[-0.097929,51.506895],[-0.097845,51.506965],[-0.097634,51.507115],[-0.097581,51.507147],[-0.097853,51.50736],[-0.097861,51.507381],[-0.0978,51.507778],[-0.097862,51.507801],[-0.097914,51.507845],[-0.097921,51.507856],[-0.097919,51.507915],[-0.097918,51.507963],[-0.09796,51.508052],[-0.098001,51.508087],[-0.098097,51.508125],[-0.098178,51.508151],[-0.098223,51.508172],[-0.098246,51.508206],[-0.098261,51.508264],[-0.09825,51.508403],[-0.098213,51.508423],[-0.097723,51.508409],[-0.097282,51.508399],[-0.097049,51.508405],[-0.096987,51.508407],[-0.096984,51.508389],[-0.096982,51.508375],[-0.096978,51.508349],[-0.096934,51.50835],[-0.096931,51.508307],[-0.096928,51.508282],[-0.096927,51.508275],[-0.096934,51.508253],[-0.097031,51.508275],[-0.097095,51.508291],[-0.097199,51.508284],[-0.097308,51.508231],[-0.097272,51.50821],[-0.097308,51.508231],[-0.097199,51.508284],[-0.097095,51.508291],[-0.097031,51.508275],[-0.096934,51.508253],[-0.096927,51.508275],[-0.096928,51.508282],[-0.096931,51.508307],[-0.096934,51.50835],[-0.096978,51.508349],[-0.096982,51.508375],[-0.096984,51.508389],[-0.096987,51.508407],[-0.097049,51.508405],[-0.097282,51.508399],[-0.097723,51.508409],[-0.098213,51.508423],[-0.09825,51.508403],[-0.098515,51.508402],[-0.098604,51.5084],[-0.098605,51.508371],[-0.09862,51.50814],[-0.098686,51.508142],[-0.098613,51.508571],[-0.09859,51.508602],[-0.098506,51.509899],[-0.098431,51.511057],[-0.098428,51.51109],[-0.098413,51.511259],[-0.098388,51.511525],[-0.098351,51.511848],[-0.098349,51.511872],[-0.098346,51.511899],[-0.09834,51.511938],[-0.098333,51.511978],[-0.098333,51.511983],[-0.098331,51.512008],[-0.098329,51.512038],[-0.098327,51.512058],[-0.098323,51.5121],[-0.098318,51.512146],[-0.098316,51.512164],[-0.09831,51.512212],[-0.098304,51.51226],[-0.098306,51.51241],[-0.09831,51.512478],[-0.098313,51.512533],[-0.098317,51.512588],[-0.098324,51.512657],[-0.098331,51.512726],[-0.098339,51.512819],[-0.098335,51.512911],[-0.098241,51.512909],[-0.09824,51.512924],[-0.09827,51.512989],[-0.098273,51.513118],[-0.098187,51.513118],[-0.098146,51.513127],[-0.098116,51.513139],[-0.098077,51.513166],[-0.098069,51.513173],[-0.098055,51.513189],[-0.098039,51.513228],[-0.098021,51.513278],[-0.098016,51.513291],[-0.097969,51.513283],[-0.097985,51.513382],[-0.097888,51.513402],[-0.097882,51.513431],[-0.097872,51.513472],[-0.09785,51.513499],[-0.097827,51.513522],[-0.097767,51.513559],[-0.097694,51.513575],[-0.097504,51.513577],[-0.097366,51.513591],[-0.097336,51.513667],[-0.097321,51.513726],[-0.0973,51.513767],[-0.097272,51.513799],[-0.097264,51.51383],[-0.097268,51.513864],[-0.09728,51.513897],[-0.09735,51.513945],[-0.097391,51.51399],[-0.097433,51.514073],[-0.097517,51.514123],[-0.097614,51.514154],[-0.097651,51.514185],[-0.097668,51.514179],[-0.097718,51.514176],[-0.097763,51.514191],[-0.097786,51.51422],[-0.09778,51.514251],[-0.097856,51.514263],[-0.097922,51.514266],[-0.098084,51.514254],[-0.098193,51.514239],[-0.098254,51.514251],[-0.098329,51.514257],[-0.098397,51.514255],[-0.098391,51.51423],[-0.098383,51.514179],[-0.098391,51.51423],[-0.098397,51.514255],[-0.098409,51.514342],[-0.098412,51.51436],[-0.097604,51.514403],[-0.097209,51.514421],[-0.097021,51.51442],[-0.097021,51.514445],[-0.097019,51.514543],[-0.096993,51.514542],[-0.096876,51.514529],[-0.096736,51.514514],[-0.096707,51.514508],[-0.096675,51.514515],[-0.096629,51.514512],[-0.096332,51.514443],[-0.095326,51.514263],[-0.09454,51.514137],[-0.094521,51.514134],[-0.094484,51.514128],[-0.09444,51.514121],[-0.094411,51.514116],[-0.09417,51.514075],[-0.093712,51.514001],[-0.093389,51.513946],[-0.093222,51.513917],[-0.092773,51.513842],[-0.092537,51.513803],[-0.09253,51.513818],[-0.092516,51.513852],[-0.092499,51.51389],[-0.092466,51.51392],[-0.092404,51.51391],[-0.092333,51.513898],[-0.092293,51.513892],[-0.092271,51.513889],[-0.09227,51.513867],[-0.092134,51.513845],[-0.092102,51.51384],[-0.092095,51.513838],[-0.092071,51.513835],[-0.092027,51.513828],[-0.091298,51.51372],[-0.091184,51.513707],[-0.091176,51.513706],[-0.091133,51.513696],[-0.091098,51.513688],[-0.091064,51.513686],[-0.090773,51.513641],[-0.090682,51.513626],[-0.090674,51.513625],[-0.090648,51.513621],[-0.090614,51.513616],[-0.090595,51.513612],[-0.090537,51.513598],[-0.089899,51.513492],[-0.089904,51.513483],[-0.08993,51.513438],[-0.089953,51.513398],[-0.089961,51.513385],[-0.089962,51.513371],[-0.089952,51.513356],[-0.089929,51.513345],[-0.089828,51.513318],[-0.089686,51.513274],[-0.089649,51.513263],[-0.08956,51.5133],[-0.089517,51.513307],[-0.089432,51.513306],[-0.089315,51.513285],[-0.089078,51.513251],[-0.089059,51.513243],[-0.08901,51.513234],[-0.088938,51.51322],[-0.08889,51.513201],[-0.088728,51.513101],[-0.088623,51.513008],[-0.088526,51.512876],[-0.088499,51.51284],[-0.088429,51.512758],[-0.088423,51.512751],[-0.088393,51.512715],[-0.088375,51.512694],[-0.088193,51.512479],[-0.088182,51.512466],[-0.088158,51.512436],[-0.088143,51.512417],[-0.08814,51.512414],[-0.087822,51.512023],[-0.087815,51.512014],[-0.087802,51.511997],[-0.08779,51.511982],[-0.087442,51.511569],[-0.087425,51.51154],[-0.087414,51.511529],[-0.087401,51.511515],[-0.087106,51.511167],[-0.087105,51.511143],[-0.087067,51.511072],[-0.087076,51.511052],[-0.087087,51.511031],[-0.087098,51.511009],[-0.087105,51.510995],[-0.087113,51.510978],[-0.087121,51.510963],[-0.087125,51.510955],[-0.086993,51.510923],[-0.086967,51.510916],[-0.086916,51.510898],[-0.08689,51.510873],[-0.086855,51.510857],[-0.086663,51.510805],[-0.086504,51.510752],[-0.086492,51.510744],[-0.086487,51.510739],[-0.086435,51.510689],[-0.086392,51.510679],[-0.086284,51.510658],[-0.086202,51.510559],[-0.086153,51.510485],[-0.0861,51.510474],[-0.086072,51.510469],[-0.086046,51.510464],[-0.085988,51.510453],[-0.085901,51.510435],[-0.086005,51.510236],[-0.085757,51.51017],[-0.085803,51.510104],[-0.085886,51.510123],[-0.085803,51.510104],[-0.085852,51.510032],[-0.085469,51.509949],[-0.085391,51.509939],[-0.084819,51.509706],[-0.084599,51.509605],[-0.084578,51.509596],[-0.084503,51.509577],[-0.084329,51.509469],[-0.084328,51.509436],[-0.084334,51.509417],[-0.083811,51.50935],[-0.083233,51.509278],[-0.083236,51.509269],[-0.08324,51.509252],[-0.083244,51.509239],[-0.083247,51.50923],[-0.083251,51.509213],[-0.083256,51.509196],[-0.083259,51.509186],[-0.083269,51.509148],[-0.083278,51.509115],[-0.083282,51.5091],[-0.082272,51.508975],[-0.081413,51.508882],[-0.08121,51.508848],[-0.081148,51.508831],[-0.081137,51.508827],[-0.081076,51.508806],[-0.081062,51.508824],[-0.080608,51.508696],[-0.080536,51.508688],[-0.080311,51.508631],[-0.080057,51.508565],[-0.079144,51.508327],[-0.079084,51.508328],[-0.078992,51.508287],[-0.078881,51.508255],[-0.078812,51.508206],[-0.078672,51.508171],[-0.078683,51.508155],[-0.078702,51.508119],[-0.0787,51.50809],[-0.078667,51.508022],[-0.078498,51.507985],[-0.078405,51.50796],[-0.07834,51.507938],[-0.077962,51.507821],[-0.077856,51.507798],[-0.077764,51.507778],[-0.077576,51.50773],[-0.077172,51.507629],[-0.076899,51.507561],[-0.076871,51.507604],[-0.076802,51.507701],[-0.076753,51.507733],[-0.076714,51.507864],[-0.076659,51.508051],[-0.076632,51.508139],[-0.076618,51.508189],[-0.076583,51.508318],[-0.076187,51.508295],[-0.075604,51.508263],[-0.075599,51.508371],[-0.07552,51.50837],[-0.075522,51.508312],[-0.075537,51.507898],[-0.075546,51.507846],[-0.075598,51.507547],[-0.075472,51.50746],[-0.075476,51.507417],[-0.075468,51.507394],[-0.07542,51.507309],[-0.075372,51.50727],[-0.075372,51.507193],[-0.075388,51.507087],[-0.075413,51.507007],[-0.074824,51.506879],[-0.07474,51.506866],[-0.074647,51.506847],[-0.074609,51.50684],[-0.074371,51.506788],[-0.074361,51.506785],[-0.074348,51.506782],[-0.07432,51.506841],[-0.074221,51.506989],[-0.074257,51.506998],[-0.074204,51.507109],[-0.074239,51.507112],[-0.07427,51.507115],[-0.074304,51.507119],[-0.074331,51.507122],[-0.074358,51.507124],[-0.074389,51.507033],[-0.074388,51.506974],[-0.074444,51.506867],[-0.075001,51.506048],[-0.075105,51.505902],[-0.075162,51.505816],[-0.075364,51.505517],[-0.07538,51.505493]]}}]}
