{"type":"FeatureCollection","features":[{"type":"Feature","properties":{"source":"BRouter, profile hiking-mountain; \u00a9 OpenStreetMap contributors, ODbL"},"geometry":{"type":"LineString","coordinates":[[32.637819,25.698992],[32.637893,25.699178],[32.63799,25.699421],[32.638023,25.699522],[32.637991,25.699529],[32.63796,25.699535],[32.637928,25.699541],[32.638051,25.699874],[32.638194,25.700335],[32.638257,25.700542],[32.638285,25.700537],[32.638317,25.700531],[32.638346,25.700526],[32.638398,25.700619],[32.638644,25.700962],[32.63866,25.700953],[32.63867,25.700967],[32.638699,25.701009],[32.638705,25.701018],[32.638723,25.701044],[32.638749,25.701044],[32.638762,25.70099],[32.638794,25.700945],[32.638836,25.700908],[32.638919,25.701022],[32.639008,25.700977],[32.63903,25.700967],[32.639506,25.700706],[32.639409,25.700577],[32.63949,25.700508],[32.63952,25.700539],[32.639631,25.700458],[32.639658,25.700488],[32.639796,25.700383],[32.639807,25.700392],[32.639796,25.700383],[32.639658,25.700488],[32.639631,25.700458],[32.63952,25.700539],[32.63949,25.700508],[32.639409,25.700577],[32.639506,25.700706],[32.63903,25.700967],[32.639008,25.700977],[32.638919,25.701022],[32.639003,25.70115],[32.63895,25.701172],[32.639278,25.701641],[32.639361,25.701735],[32.639631,25.701969],[32.639699,25.702057],[32.639724,25.702089],[32.639705,25.7021],[32.639627,25.702147],[32.639643,25.702166],[32.63964,25.702213],[32.63965,25.702229],[32.639717,25.702238],[32.639858,25.702435],[32.639845,25.702489],[32.639858,25.702435],[32.639717,25.702238],[32.63965,25.702229],[32.63964,25.702213],[32.639643,25.702166],[32.63967,25.702172],[32.63973,25.702137],[32.639752,25.702125],[32.640013,25.702482],[32.64,25.702507],[32.640003,25.702511],[32.640085,25.702646],[32.640142,25.702659],[32.640492,25.703197],[32.642242,25.70527],[32.642514,25.705593],[32.642485,25.705643],[32.642594,25.70577],[32.642653,25.705781],[32.642719,25.705873],[32.642659,25.705916],[32.642968,25.706356],[32.642983,25.706306],[32.643011,25.706261],[32.64305,25.706223],[32.643088,25.706267],[32.643115,25.706282],[32.643157,25.706296],[32.643195,25.706376],[32.643798,25.707179],[32.64419,25.707719],[32.644261,25.707827],[32.64452,25.708221],[32.644758,25.708652],[32.645261,25.709437],[32.645387,25.709571],[32.645599,25.709839],[32.645925,25.710335],[32.646588,25.709964],[32.647141,25.709607],[32.647398,25.709881],[32.647609,25.710122],[32.647795,25.710485],[32.647841,25.710564],[32.647917,25.710671],[32.648152,25.710954],[32.648242,25.710854],[32.648346,25.710766],[32.648821,25.710416],[32.648908,25.710521],[32.649063,25.710418],[32.649174,25.71053],[32.649266,25.710457],[32.649355,25.710524],[32.649473,25.710584],[32.649671,25.710642],[32.650002,25.710726],[32.650237,25.710766],[32.650335,25.710762],[32.650384,25.710753],[32.650414,25.710745],[32.650404,25.710633],[32.65039,25.710615],[32.650369,25.710589],[32.650239,25.710467],[32.650309,25.710407],[32.650331,25.710388],[32.65035,25.710372],[32.650303,25.710328],[32.65022,25.710253],[32.650216,25.710257],[32.650144,25.710194],[32.649972,25.710045],[32.649998,25.710021],[32.650085,25.710096],[32.650114,25.710066],[32.6501,25.710055],[32.650162,25.709993],[32.650262,25.709891],[32.65013,25.709771],[32.650262,25.709891],[32.650412,25.710028],[32.650529,25.710134],[32.651606,25.711129],[32.651663,25.711181],[32.652322,25.711781],[32.652432,25.711882],[32.652488,25.711934],[32.653138,25.712535],[32.653194,25.712588],[32.65346,25.712833],[32.653772,25.713122],[32.653827,25.713173],[32.654223,25.713547],[32.653929,25.713686],[32.653975,25.713758],[32.654281,25.714233],[32.654484,25.714549],[32.655419,25.716046],[32.655443,25.716083],[32.655472,25.716128],[32.655493,25.71616],[32.655546,25.71625],[32.655643,25.716221],[32.655702,25.71622],[32.655732,25.716229],[32.655779,25.716264],[32.65585,25.716377],[32.65589,25.716441],[32.656163,25.716291],[32.656288,25.716224],[32.656337,25.716198],[32.656185,25.715955],[32.656337,25.716198],[32.656288,25.716224],[32.656163,25.716291],[32.656223,25.716389],[32.656223,25.7164],[32.656258,25.716404],[32.65677,25.717208],[32.656726,25.71729],[32.657079,25.717841],[32.657061,25.717847],[32.657221,25.718218],[32.657236,25.718279],[32.657237,25.718309],[32.657386,25.718574],[32.657304,25.718608]]}}]}
