{"type":"FeatureCollection","features":[{"type":"Feature","properties":{"source":"BRouter, profile hiking-mountain; \u00a9 OpenStreetMap contributors, ODbL"},"geometry":{"type":"LineString","coordinates":[[-3.717575,40.424004],[-3.717573,40.423999],[-3.717556,40.42394],[-3.717536,40.42387],[-3.716563,40.423964],[-3.716479,40.423695],[-3.716472,40.42356],[-3.716421,40.423556],[-3.716189,40.423471],[-3.716152,40.423463],[-3.716074,40.423448],[-3.716026,40.423434],[-3.715387,40.423132],[-3.715378,40.423068],[-3.71536,40.423025],[-3.715037,40.422853],[-3.714919,40.42279],[-3.714868,40.422858],[-3.714736,40.422908],[-3.714414,40.42284],[-3.714225,40.422844],[-3.71383,40.422846],[-3.713604,40.422851],[-3.713376,40.422869],[-3.713043,40.422905],[-3.712604,40.423018],[-3.712683,40.423107],[-3.712654,40.423124],[-3.712625,40.423093],[-3.71249,40.423167],[-3.712625,40.423093],[-3.712654,40.423124],[-3.712683,40.423107],[-3.712604,40.423018],[-3.713043,40.422905],[-3.713086,40.422711],[-3.713118,40.422424],[-3.713142,40.422202],[-3.713159,40.422054],[-3.713217,40.422019],[-3.713266,40.421989],[-3.713242,40.421962],[-3.713214,40.42193],[-3.71311,40.421798],[-3.712959,40.42159],[-3.71298,40.421441],[-3.713001,40.421296],[-3.713024,40.421075],[-3.713047,40.420861],[-3.71307,40.420642],[-3.713094,40.420423],[-3.713081,40.420376],[-3.713073,40.420341],[-3.713103,40.420094],[-3.713117,40.419919],[-3.713124,40.419665],[-3.713134,40.419545],[-3.71313,40.419477],[-3.713182,40.418943],[-3.71323,40.418394],[-3.713356,40.417149],[-3.713417,40.416522],[-3.7135,40.416526],[-3.713485,40.416545],[-3.71437,40.416589],[-3.71437,40.416584],[-3.714409,40.416585],[-3.714409,40.416586],[-3.71437,40.416584],[-3.71437,40.416589],[-3.713485,40.416545],[-3.7135,40.416526],[-3.713417,40.416522],[-3.713428,40.416421],[-3.713493,40.416381],[-3.713508,40.416313],[-3.713531,40.41604],[-3.713557,40.416012],[-3.713613,40.415461],[-3.713657,40.415464],[-3.714099,40.415507],[-3.713657,40.415464],[-3.713613,40.415461],[-3.713557,40.416012],[-3.713531,40.41604],[-3.713508,40.416313],[-3.713493,40.416381],[-3.713428,40.416421],[-3.713417,40.416522],[-3.713356,40.417149],[-3.713337,40.417224],[-3.713259,40.417159],[-3.713243,40.417178],[-3.713231,40.417182],[-3.713107,40.417177],[-3.712788,40.417157],[-3.712232,40.417119],[-3.711854,40.417093],[-3.711773,40.417086],[-3.711735,40.417089],[-3.711709,40.417073],[-3.711686,40.417057],[-3.711527,40.416951],[-3.711316,40.416824],[-3.711118,40.416684],[-3.711067,40.416657],[-3.710804,40.416636],[-3.710746,40.416624],[-3.710639,40.416587],[-3.7106,40.416558],[-3.709897,40.416254],[-3.709818,40.416235],[-3.709815,40.416191],[-3.709609,40.416109],[-3.709574,40.416162],[-3.709549,40.416178],[-3.709348,40.416219],[-3.709133,40.416251],[-3.708845,40.416314],[-3.708821,40.416318],[-3.708744,40.416317],[-3.708708,40.416342],[-3.708666,40.416361],[-3.708638,40.416375],[-3.708599,40.416416],[-3.708594,40.416458],[-3.708519,40.41648],[-3.70845,40.416508],[-3.708425,40.416486],[-3.708348,40.416449],[-3.708097,40.416265],[-3.708112,40.416223],[-3.708053,40.416177],[-3.70802,40.416125],[-3.707956,40.416137],[-3.707691,40.41616],[-3.707181,40.416237],[-3.707012,40.416261],[-3.706996,40.416263],[-3.706973,40.416235],[-3.706892,40.415932],[-3.706882,40.415867],[-3.706881,40.415658],[-3.70742,40.415632],[-3.706881,40.415658],[-3.706882,40.415867],[-3.706892,40.415932],[-3.706973,40.416235],[-3.706996,40.416263],[-3.706943,40.41627],[-3.706791,40.416289],[-3.705893,40.416402],[-3.705769,40.416418],[-3.705187,40.416491],[-3.705109,40.416496],[-3.705089,40.416506],[-3.705046,40.416527],[-3.704689,40.416562],[-3.70458,40.416601],[-3.704597,40.416706],[-3.704604,40.416758],[-3.704473,40.416775],[-3.704308,40.416796],[-3.704033,40.416831],[-3.703858,40.416841],[-3.703597,40.416856],[-3.703515,40.416861],[-3.703223,40.416875],[-3.702942,40.416893],[-3.702724,40.416919],[-3.702576,40.416936],[-3.702401,40.417058],[-3.702366,40.417067],[-3.702178,40.417107],[-3.70213,40.417118],[-3.702025,40.417142],[-3.701633,40.417236],[-3.701169,40.417368],[-3.699945,40.417723],[-3.699964,40.417759],[-3.69984,40.417798],[-3.69981,40.417842],[-3.699796,40.417863],[-3.699564,40.417934],[-3.699478,40.41796],[-3.699446,40.418003],[-3.699415,40.418029],[-3.699385,40.418047],[-3.699349,40.418056],[-3.699319,40.41806],[-3.699304,40.418076],[-3.699288,40.418094],[-3.699279,40.418091],[-3.698983,40.418188],[-3.697305,40.418745],[-3.697311,40.418759],[-3.69726,40.418764],[-3.697235,40.418779],[-3.697217,40.418803],[-3.697215,40.41882],[-3.697225,40.41885],[-3.697263,40.418876],[-3.697309,40.41888],[-3.697337,40.418871],[-3.697338,40.418881],[-3.697691,40.418899],[-3.697693,40.4189],[-3.697675,40.41892],[-3.697525,40.418954],[-3.697381,40.419002],[-3.697001,40.418894],[-3.696991,40.418917],[-3.696962,40.418972],[-3.696934,40.419021],[-3.696922,40.419045],[-3.696763,40.419009],[-3.696692,40.419],[-3.696599,40.419005],[-3.695842,40.419122],[-3.695639,40.419154],[-3.695599,40.419161],[-3.695573,40.419165],[-3.695554,40.419167],[-3.695547,40.419103],[-3.69553,40.419088],[-3.69551,40.41908],[-3.695483,40.419079],[-3.695414,40.419089],[-3.69541,40.419076],[-3.695363,40.419085],[-3.695348,40.419038],[-3.69532,40.41895],[-3.695304,40.418906],[-3.695295,40.41888],[-3.695291,40.418868],[-3.695284,40.418854],[-3.69421,40.419064],[-3.694107,40.419067],[-3.694022,40.419062],[-3.693954,40.419051],[-3.693961,40.419004],[-3.693931,40.418976],[-3.693906,40.418926],[-3.693907,40.418895],[-3.693891,40.418889],[-3.693807,40.41887],[-3.693705,40.418848],[-3.693557,40.418815],[-3.693371,40.418778],[-3.693353,40.418843],[-3.693347,40.418864],[-3.693245,40.418848],[-3.693141,40.418817],[-3.693058,40.418759],[-3.69302,40.418824],[-3.692965,40.41891],[-3.692937,40.418958],[-3.692826,40.419166],[-3.692804,40.41922],[-3.692792,40.419269],[-3.692804,40.41922],[-3.692826,40.419166],[-3.692937,40.418958],[-3.692965,40.41891],[-3.69302,40.418824],[-3.693058,40.418759],[-3.693141,40.418817],[-3.693245,40.418848],[-3.693347,40.418864],[-3.693353,40.418843],[-3.693371,40.418778],[-3.693239,40.418709],[-3.693082,40.418694],[-3.692924,40.418681],[-3.692957,40.418599],[-3.693299,40.416953],[-3.693335,40.416856],[-3.693379,40.416644],[-3.693444,40.41623],[-3.693483,40.416026],[-3.693438,40.415957],[-3.693419,40.415902],[-3.693393,40.415799],[-3.693252,40.415721],[-3.693221,40.415252],[-3.693175,40.41523],[-3.693173,40.415191],[-3.693174,40.415148],[-3.693297,40.415065],[-3.693283,40.415009],[-3.693268,40.414945],[-3.693245,40.414851],[-3.693029,40.414826],[-3.692814,40.414816],[-3.692799,40.414755],[-3.692773,40.414637],[-3.692768,40.414616],[-3.692764,40.414594],[-3.692729,40.414444],[-3.692695,40.414295],[-3.692681,40.41423],[-3.692633,40.414035],[-3.692587,40.413843],[-3.692514,40.413852],[-3.692587,40.413843],[-3.69258,40.413799],[-3.692556,40.413682],[-3.692547,40.413641],[-3.692507,40.413458],[-3.692463,40.413261],[-3.692449,40.413192],[-3.692607,40.41317],[-3.69276,40.413148],[-3.692728,40.413004],[-3.692684,40.412797],[-3.692664,40.412741],[-3.692587,40.412387],[-3.692614,40.412311],[-3.692607,40.412277],[-3.692682,40.412269],[-3.692386,40.410925],[-3.692187,40.410034],[-3.692124,40.409811],[-3.692228,40.409793],[-3.692459,40.40975],[-3.692592,40.409742],[-3.692562,40.409619],[-3.692577,40.409566],[-3.692636,40.409527],[-3.692712,40.409531],[-3.692802,40.409561],[-3.692864,40.40948],[-3.692902,40.409429],[-3.692963,40.409348],[-3.692834,40.409308],[-3.692796,40.409291],[-3.692733,40.409274],[-3.692696,40.409265],[-3.692412,40.409133],[-3.692505,40.409002],[-3.693037,40.40822],[-3.693154,40.408101],[-3.693407,40.407899],[-3.693603,40.407771],[-3.693979,40.40756],[-3.693603,40.407771],[-3.693407,40.407899],[-3.693154,40.408101],[-3.693037,40.40822],[-3.69298,40.408196],[-3.692889,40.408154],[-3.692794,40.408115],[-3.692668,40.408055],[-3.692565,40.408007],[-3.692482,40.407966],[-3.692393,40.407923],[-3.692069,40.408134],[-3.691876,40.408199],[-3.691657,40.408216],[-3.691558,40.408192],[-3.691541,40.408248],[-3.691512,40.408343],[-3.69149,40.408426],[-3.691453,40.408562],[-3.691386,40.4087],[-3.691367,40.408738],[-3.691284,40.40882],[-3.69123,40.408865],[-3.691426,40.409017],[-3.691132,40.409595],[-3.689327,40.409632],[-3.689084,40.409637],[-3.688956,40.409359],[-3.688931,40.409343],[-3.688917,40.409337],[-3.688831,40.409304],[-3.68879,40.409302],[-3.688606,40.409304],[-3.688546,40.409304],[-3.688554,40.409437],[-3.688552,40.409481],[-3.68844,40.40951],[-3.688352,40.409492],[-3.6883,40.409469],[-3.688168,40.409509],[-3.688069,40.409515],[-3.688,40.409401],[-3.687974,40.40937],[-3.687879,40.4093],[-3.687558,40.409188],[-3.687549,40.40918],[-3.687531,40.409164],[-3.687494,40.40913],[-3.68743,40.409109],[-3.687428,40.408881],[-3.687387,40.408856],[-3.68726,40.408854],[-3.686291,40.408862],[-3.686098,40.408836],[-3.686002,40.408781],[-3.685953,40.408726],[-3.685935,40.408678],[-3.685949,40.408616],[-3.686047,40.408378],[-3.686334,40.407748],[-3.686266,40.40768],[-3.685705,40.407507],[-3.685674,40.407443],[-3.685626,40.4074],[-3.685511,40.407359],[-3.685144,40.407402],[-3.684911,40.407436],[-3.68483,40.407446],[-3.684916,40.407773],[-3.684896,40.407825],[-3.684839,40.407847],[-3.683893,40.408008],[-3.683775,40.408028],[-3.683705,40.408042],[-3.682491,40.408247],[-3.682545,40.40841],[-3.682577,40.408509],[-3.682582,40.408598],[-3.681971,40.408737],[-3.681716,40.408718],[-3.679387,40.408344],[-3.678549,40.408225],[-3.678547,40.40827],[-3.67855,40.408341],[-3.678596,40.408348],[-3.678578,40.408411],[-3.678546,40.408423],[-3.678565,40.408471],[-3.67859,40.408547],[-3.678726,40.40858],[-3.678976,40.408717],[-3.679145,40.408793],[-3.679461,40.408962],[-3.679488,40.409033],[-3.679369,40.40926],[-3.679623,40.409408],[-3.679643,40.40963],[-3.679718,40.409782],[-3.67982,40.409862],[-3.679988,40.409973],[-3.680034,40.410061],[-3.680099,40.410223],[-3.680116,40.410263],[-3.680137,40.410311],[-3.680067,40.410347],[-3.680031,40.410375],[-3.679994,40.410434],[-3.679977,40.410489],[-3.679997,40.41056],[-3.680038,40.410663],[-3.680072,40.410749],[-3.680088,40.410788],[-3.68007,40.410814],[-3.680067,40.410858],[-3.680093,40.410889],[-3.680135,40.410907],[-3.68015,40.410944],[-3.680216,40.41111],[-3.680263,40.411099],[-3.680311,40.411088],[-3.680374,40.411073],[-3.680389,40.411091],[-3.680415,40.411101],[-3.680443,40.411099],[-3.680507,40.411269],[-3.680526,40.41132],[-3.680556,40.4114],[-3.68059,40.411491],[-3.680632,40.411586],[-3.680752,40.411848],[-3.680904,40.412342],[-3.681414,40.412518],[-3.681499,40.412762],[-3.681727,40.41299],[-3.681837,40.413293],[-3.682276,40.413402],[-3.682337,40.413571],[-3.682354,40.413621],[-3.682069,40.413991],[-3.682283,40.414562],[-3.682537,40.414493],[-3.683137,40.414849],[-3.683969,40.415372],[-3.684035,40.415383],[-3.684038,40.415448],[-3.684054,40.415479],[-3.684079,40.415507],[-3.684112,40.41553],[-3.684151,40.415547],[-3.684193,40.415557],[-3.684238,40.415559],[-3.684294,40.415705],[-3.684427,40.416051],[-3.684577,40.416444],[-3.684738,40.416866],[-3.684791,40.417002],[-3.684794,40.417012],[-3.685062,40.417711],[-3.685278,40.418277],[-3.685373,40.418523],[-3.68544,40.4185],[-3.685476,40.418497],[-3.685548,40.418508],[-3.685607,40.418541],[-3.685644,40.418589],[-3.68633,40.418875],[-3.686792,40.41907],[-3.68728,40.419276],[-3.687563,40.419395],[-3.687598,40.419342],[-3.687876,40.419458],[-3.687943,40.419485],[-3.687892,40.419533],[-3.687931,40.419659],[-3.688019,40.4197],[-3.687962,40.419831],[-3.687955,40.41996],[-3.687954,40.41998],[-3.687971,40.420034],[-3.687998,40.420114],[-3.688007,40.420143],[-3.688022,40.4202],[-3.688135,40.420199],[-3.688246,40.42021],[-3.688328,40.420234],[-3.688424,40.420293],[-3.68848,40.420315]]}}]}
