{"type":"FeatureCollection","features":[{"type":"Feature","properties":{"source":"BRouter, profile hiking-mountain; \u00a9 OpenStreetMap contributors, ODbL"},"geometry":{"type":"LineString","coordinates":[[-8.002894,31.641518],[-8.002885,31.641516],[-8.002861,31.641526],[-8.002747,31.641329],[-8.002766,31.641304],[-8.002778,31.641267],[-8.002759,31.641157],[-8.002725,31.641141],[-8.002653,31.641173],[-8.002573,31.641192],[-8.002527,31.641197],[-8.002475,31.641223],[-8.002439,31.641264],[-8.002416,31.641261],[-8.002287,31.641231],[-8.002238,31.64125],[-8.002221,31.641267],[-8.00214,31.641304],[-8.002097,31.641252],[-8.002031,31.641192],[-8.001916,31.641064],[-8.001837,31.640926],[-8.001783,31.640815],[-8.001536,31.64023],[-8.001522,31.64012],[-8.001057,31.640269],[-8.000451,31.640454],[-8.000289,31.640399],[-8.000179,31.640349],[-8.000118,31.640291],[-8.000093,31.640259],[-8.000032,31.640179],[-8.000019,31.640094],[-8.000085,31.640048],[-8.000103,31.640018],[-8.000101,31.639961],[-7.999981,31.63904],[-7.999902,31.638455],[-7.999835,31.637833],[-7.999826,31.637804],[-7.999801,31.637769],[-7.999716,31.637706],[-7.999693,31.637582],[-7.999671,31.637525],[-7.999672,31.637448],[-7.999684,31.637409],[-7.999723,31.637345],[-7.999762,31.637309],[-7.999802,31.637288],[-7.999847,31.637278],[-8.00004,31.637258],[-7.999962,31.637232],[-7.999857,31.637174],[-7.999786,31.637114],[-7.999755,31.637076],[-7.999738,31.637044],[-7.999651,31.637056],[-7.999613,31.63716],[-7.999441,31.637071],[-7.999354,31.637036],[-7.999244,31.636993],[-7.999238,31.637081],[-7.999226,31.637192],[-7.999214,31.637204],[-7.999175,31.6372],[-7.999128,31.637187],[-7.999067,31.637171],[-7.998908,31.637153],[-7.998688,31.63703],[-7.998513,31.636932],[-7.998411,31.636877],[-7.998127,31.636725],[-7.997973,31.636594],[-7.997858,31.636482],[-7.997836,31.636458],[-7.997806,31.636443],[-7.997771,31.63644],[-7.997737,31.636447],[-7.997709,31.636466],[-7.997665,31.636429],[-7.998087,31.635809],[-7.998188,31.635661],[-7.998343,31.635433],[-7.99817,31.635359],[-7.998936,31.63407],[-7.999049,31.634117],[-7.999077,31.634068],[-7.999038,31.634052],[-7.999055,31.634022],[-7.999083,31.633974],[-7.999135,31.633996],[-7.999164,31.633946],[-7.99904,31.633894],[-7.999075,31.633835],[-7.999053,31.633805],[-7.999023,31.63382],[-7.99899,31.633827],[-7.998934,31.633822],[-7.998959,31.633754],[-7.99896,31.633701],[-7.998866,31.633643],[-7.998474,31.633426],[-7.998108,31.633263],[-7.997967,31.633202],[-7.997728,31.633113],[-7.997422,31.632974],[-7.997189,31.632794],[-7.997051,31.632668],[-7.997009,31.632635],[-7.996869,31.632503],[-7.996714,31.632371],[-7.996505,31.632134],[-7.996384,31.632026],[-7.996196,31.631923],[-7.995966,31.631831],[-7.995918,31.63182],[-7.995836,31.631815],[-7.995737,31.631797],[-7.995599,31.631735],[-7.995395,31.631656],[-7.995023,31.631642],[-7.994851,31.631646],[-7.994654,31.631627],[-7.994604,31.631611],[-7.994509,31.631602],[-7.994402,31.631602],[-7.994117,31.631615],[-7.993991,31.631634],[-7.99366,31.631656],[-7.9934,31.631665],[-7.99323,31.631663],[-7.993072,31.631645],[-7.992982,31.631616],[-7.992917,31.631622],[-7.992823,31.631631],[-7.992748,31.631655],[-7.992692,31.631683],[-7.992571,31.631653],[-7.991483,31.631587],[-7.991301,31.631553],[-7.9912,31.631541],[-7.991123,31.631543],[-7.990668,31.631564],[-7.990468,31.631575],[-7.990169,31.63154],[-7.989987,31.631529],[-7.989773,31.631534],[-7.98951,31.631499],[-7.989227,31.631442],[-7.98934,31.631085],[-7.989382,31.630963],[-7.989419,31.630868],[-7.989451,31.63071],[-7.989466,31.630632],[-7.989478,31.630327],[-7.98949,31.629929],[-7.989492,31.629894],[-7.989441,31.629909],[-7.989359,31.629816],[-7.989303,31.629843],[-7.989319,31.629894],[-7.989302,31.6299],[-7.989112,31.629969],[-7.989127,31.630028],[-7.98899,31.629941],[-7.988907,31.629968],[-7.988338,31.63018],[-7.98815,31.630234],[-7.987937,31.63028],[-7.987956,31.630332],[-7.987714,31.630482],[-7.98755,31.630628],[-7.987463,31.630744],[-7.987339,31.63091],[-7.987485,31.631141],[-7.987431,31.631174],[-7.987523,31.63132],[-7.987612,31.631436],[-7.987659,31.631517],[-7.987467,31.631636],[-7.987396,31.631622],[-7.98735,31.63161],[-7.987349,31.631593],[-7.987239,31.631579],[-7.987253,31.631506],[-7.987239,31.631579],[-7.987225,31.631646],[-7.986867,31.631646],[-7.986767,31.631591],[-7.986534,31.631591],[-7.986494,31.631639],[-7.986433,31.631847],[-7.986438,31.631866],[-7.986527,31.63199],[-7.986561,31.632039],[-7.986578,31.632067],[-7.986571,31.632084],[-7.986215,31.632243],[-7.986135,31.632248],[-7.985996,31.632167],[-7.985911,31.632119],[-7.985996,31.632167],[-7.986135,31.632248],[-7.986215,31.632243],[-7.986571,31.632084],[-7.986578,31.632067],[-7.986561,31.632039],[-7.986527,31.63199],[-7.986438,31.631866],[-7.986433,31.631847],[-7.986494,31.631639],[-7.986534,31.631591],[-7.986547,31.631551],[-7.98661,31.631324],[-7.986662,31.631163],[-7.986697,31.63108],[-7.986721,31.630998],[-7.986713,31.630894],[-7.986695,31.630853],[-7.986643,31.63081],[-7.986717,31.630735],[-7.986905,31.63067],[-7.986891,31.630626],[-7.98703,31.630543],[-7.987096,31.630491],[-7.987125,31.630466],[-7.987189,31.630407],[-7.987215,31.63037],[-7.987267,31.630259],[-7.987331,31.630144],[-7.987369,31.630046],[-7.987395,31.629941],[-7.9874,31.629927],[-7.987422,31.629871],[-7.98745,31.629776],[-7.987476,31.629653],[-7.987499,31.629559],[-7.987532,31.629432],[-7.987613,31.629142],[-7.987628,31.629084],[-7.987771,31.628755],[-7.987951,31.628513],[-7.987991,31.628372],[-7.988133,31.627715],[-7.988192,31.627309],[-7.988145,31.627277],[-7.988135,31.62727],[-7.988117,31.626929],[-7.988093,31.626702],[-7.987887,31.626583],[-7.987752,31.626594],[-7.987703,31.626562],[-7.988205,31.625979],[-7.988294,31.626022],[-7.988564,31.625672],[-7.988906,31.625869],[-7.988939,31.625817],[-7.989167,31.625445],[-7.989544,31.625346],[-7.989792,31.625282],[-7.989828,31.625111],[-7.989952,31.625024],[-7.990108,31.624912],[-7.990686,31.624742],[-7.991076,31.624618],[-7.991475,31.6245],[-7.991546,31.624546],[-7.991575,31.624553],[-7.991737,31.624508],[-7.991874,31.624462],[-7.99196,31.624435],[-7.992079,31.624399],[-7.992157,31.62437],[-7.992688,31.624153],[-7.993124,31.623976],[-7.993091,31.623904],[-7.992997,31.6237],[-7.992991,31.623618],[-7.992981,31.623581],[-7.992953,31.623516],[-7.992876,31.62329],[-7.992789,31.623038],[-7.992752,31.622933],[-7.992739,31.622893],[-7.99228,31.623011],[-7.992229,31.62286],[-7.992175,31.622698],[-7.992118,31.622538],[-7.991828,31.622616],[-7.991766,31.622626],[-7.991752,31.622534],[-7.991658,31.622536],[-7.991591,31.622537],[-7.991563,31.622523],[-7.991237,31.622512],[-7.991204,31.622564],[-7.991164,31.622546],[-7.991107,31.62252],[-7.991066,31.622483],[-7.991005,31.62248],[-7.991005,31.62243],[-7.991003,31.622353],[-7.991003,31.6223],[-7.990649,31.622296],[-7.990605,31.622293],[-7.990548,31.622288],[-7.990295,31.622278],[-7.990296,31.622228],[-7.990273,31.622191],[-7.990037,31.622109],[-7.989992,31.622209],[-7.98989,31.622164],[-7.989483,31.622008],[-7.989462,31.621786],[-7.989463,31.621699],[-7.98946,31.621465],[-7.989481,31.620352],[-7.989461,31.61974],[-7.989456,31.618921],[-7.989365,31.6186],[-7.989282,31.618349],[-7.989267,31.618235],[-7.989272,31.618205],[-7.989526,31.618091],[-7.989727,31.618016],[-7.989829,31.617988],[-7.989876,31.61797],[-7.989967,31.617822],[-7.989997,31.617721],[-7.990054,31.617709],[-7.990148,31.617689],[-7.990118,31.617456],[-7.9906,31.617395],[-7.990118,31.617456],[-7.98972,31.617507],[-7.989703,31.617508],[-7.989637,31.617473],[-7.989613,31.617449],[-7.989555,31.617363],[-7.989351,31.617002],[-7.989339,31.617005],[-7.989198,31.617054],[-7.989146,31.617071],[-7.989028,31.617108],[-7.988997,31.61708],[-7.988964,31.617094],[-7.988937,31.617102],[-7.988919,31.617062],[-7.988902,31.617026],[-7.988794,31.617061],[-7.988733,31.617079],[-7.988748,31.617112],[-7.988764,31.617149],[-7.988673,31.617176],[-7.98871,31.617259],[-7.988647,31.617279],[-7.98871,31.617259],[-7.988673,31.617176],[-7.988399,31.617264],[-7.988294,31.617298],[-7.988304,31.617324],[-7.988281,31.61735],[-7.98815,31.617391],[-7.988177,31.617459],[-7.988256,31.617437],[-7.988262,31.617449],[-7.988271,31.617467],[-7.98835,31.617643],[-7.98853,31.618044],[-7.988527,31.618156],[-7.988467,31.618164],[-7.988047,31.618219],[-7.987576,31.618329],[-7.987693,31.618791],[-7.987328,31.618855],[-7.987175,31.618865],[-7.987036,31.618882],[-7.986894,31.618908],[-7.986882,31.618917],[-7.986877,31.618939],[-7.98696,31.619274],[-7.986991,31.619417],[-7.986378,31.619542],[-7.985424,31.619733],[-7.985192,31.619787],[-7.985137,31.619673],[-7.985031,31.619356],[-7.985001,31.619256],[-7.984959,31.619134],[-7.985704,31.618966],[-7.985685,31.618912],[-7.985769,31.618895],[-7.985876,31.618872],[-7.985834,31.61875],[-7.985978,31.618718],[-7.985882,31.618387],[-7.986432,31.61826],[-7.986514,31.61824],[-7.986432,31.61826],[-7.985882,31.618387],[-7.985978,31.618718],[-7.985834,31.61875],[-7.985876,31.618872],[-7.985769,31.618895],[-7.985685,31.618912],[-7.985704,31.618966],[-7.984959,31.619134],[-7.985001,31.619256],[-7.985031,31.619356],[-7.984893,31.619393],[-7.984838,31.619407],[-7.984973,31.619795],[-7.984908,31.619815],[-7.984727,31.619873],[-7.984797,31.620043],[-7.984891,31.620207],[-7.98491,31.62024],[-7.984704,31.620351],[-7.984655,31.620387],[-7.984625,31.620428],[-7.984604,31.620478],[-7.984577,31.620615],[-7.984547,31.62066],[-7.984477,31.620689],[-7.984113,31.620778],[-7.984147,31.620911],[-7.9842,31.621119],[-7.984309,31.621485],[-7.984416,31.621852],[-7.984508,31.622151],[-7.98454,31.622246],[-7.983743,31.622391],[-7.983537,31.622399],[-7.983449,31.622088],[-7.98344,31.622049],[-7.983406,31.621969],[-7.983323,31.621815],[-7.983262,31.621829],[-7.983183,31.621583],[-7.98295,31.621596],[-7.982619,31.621653],[-7.98295,31.621596],[-7.983183,31.621583],[-7.983262,31.621829],[-7.983323,31.621815],[-7.983406,31.621969],[-7.98344,31.622049],[-7.983449,31.622088],[-7.983537,31.622399],[-7.983743,31.622391],[-7.983784,31.622661],[-7.983805,31.622892],[-7.983847,31.623068],[-7.983875,31.623113],[-7.983827,31.623158],[-7.983846,31.623242]]}}]}
