{"type":"FeatureCollection","features":[{"type":"Feature","properties":{"source":"BRouter, profile hiking-mountain; \u00a9 OpenStreetMap contributors, ODbL"},"geometry":{"type":"LineString","coordinates":[[144.96689,-37.818003],[144.966899,-37.81802],[144.966916,-37.818057],[144.966933,-37.818094],[144.967109,-37.818046],[144.967122,-37.818076],[144.967324,-37.818021],[144.967383,-37.818005],[144.96743,-37.817992],[144.967493,-37.817976],[144.967503,-37.817973],[144.967554,-37.817959],[144.967609,-37.817944],[144.967643,-37.817935],[144.967678,-37.817926],[144.967705,-37.817918],[144.967756,-37.817904],[144.967797,-37.817893],[144.967831,-37.817884],[144.967954,-37.817824],[144.967915,-37.817782],[144.967834,-37.817669],[144.967766,-37.817571],[144.967735,-37.817523],[144.967955,-37.817459],[144.967941,-37.81743],[144.967918,-37.817448],[144.967812,-37.817478],[144.967782,-37.817477],[144.967771,-37.817455],[144.96774,-37.817533],[144.967752,-37.817559],[144.967598,-37.81722],[144.967607,-37.817156],[144.967598,-37.81722],[144.967752,-37.817559],[144.96774,-37.817533],[144.967771,-37.817455],[144.967782,-37.817477],[144.967812,-37.817478],[144.967918,-37.817448],[144.967941,-37.81743],[144.967955,-37.817459],[144.967735,-37.817523],[144.967766,-37.817571],[144.967834,-37.817669],[144.967915,-37.817782],[144.967954,-37.817824],[144.968034,-37.817785],[144.968063,-37.817777],[144.968072,-37.817799],[144.968102,-37.81779],[144.968381,-37.817932],[144.968386,-37.817978],[144.968381,-37.818061],[144.96854,-37.818068],[144.968603,-37.818043],[144.96901,-37.817924],[144.968603,-37.818043],[144.96854,-37.818068],[144.968286,-37.818196],[144.968035,-37.818005],[144.968041,-37.817962],[144.96805,-37.817966],[144.968055,-37.81793],[144.967831,-37.817884],[144.967798,-37.81783],[144.967696,-37.817677],[144.96763,-37.817544],[144.967608,-37.817484],[144.967593,-37.817447],[144.967575,-37.8174],[144.967555,-37.817356],[144.967537,-37.817317],[144.96752,-37.817279],[144.967472,-37.817226],[144.967249,-37.816748],[144.967129,-37.816489],[144.967135,-37.81646],[144.96713,-37.816447],[144.967122,-37.81643],[144.967116,-37.816413],[144.967109,-37.816396],[144.967074,-37.816382],[144.967026,-37.816275],[144.966769,-37.815721],[144.966705,-37.81558],[144.966715,-37.81556],[144.966722,-37.815545],[144.966714,-37.815527],[144.966706,-37.815508],[144.966679,-37.815449],[144.966666,-37.81542],[144.966652,-37.81539],[144.966641,-37.815367],[144.966623,-37.815344],[144.966584,-37.815281],[144.966373,-37.814848],[144.966227,-37.814523],[144.966238,-37.814497],[144.966233,-37.814486],[144.966225,-37.81447],[144.966219,-37.814457],[144.966211,-37.81444],[144.966177,-37.814421],[144.965794,-37.813587],[144.965761,-37.813517],[144.965754,-37.813503],[144.965747,-37.813488],[144.965742,-37.813476],[144.965735,-37.813461],[144.965702,-37.813389],[144.965657,-37.813289],[144.965611,-37.81319],[144.965371,-37.812674],[144.965316,-37.812557],[144.965347,-37.812532],[144.965338,-37.812512],[144.965331,-37.812497],[144.965324,-37.812481],[144.965314,-37.81246],[144.96527,-37.812456],[144.964903,-37.811642],[144.964914,-37.811629],[144.964904,-37.811607],[144.964885,-37.811566],[144.964869,-37.81153],[144.964856,-37.811504],[144.964839,-37.811466],[144.964814,-37.811412],[144.964674,-37.811115],[144.964543,-37.810842],[144.964424,-37.810588],[144.964431,-37.810556],[144.964425,-37.810548],[144.964418,-37.810532],[144.964411,-37.810518],[144.964391,-37.810488],[144.964494,-37.810287],[144.964564,-37.810151],[144.964607,-37.810069],[144.964565,-37.809975],[144.964597,-37.809967],[144.964728,-37.809928],[144.96502,-37.809848],[144.966382,-37.80947],[144.966405,-37.809464],[144.966213,-37.809032],[144.966182,-37.808967],[144.966157,-37.808916],[144.966146,-37.80889],[144.966122,-37.808842],[144.9661,-37.8088],[144.965724,-37.807987],[144.965635,-37.807795],[144.965581,-37.807677],[144.965586,-37.80764],[144.965688,-37.80708],[144.965754,-37.807087],[144.965911,-37.807101],[144.965993,-37.80711],[144.967098,-37.807233],[144.967193,-37.807244],[144.967258,-37.807252],[144.967304,-37.807256],[144.967351,-37.807262],[144.967398,-37.807267],[144.967449,-37.807273],[144.967553,-37.807285],[144.967621,-37.807293],[144.967725,-37.807303],[144.967768,-37.807307],[144.968244,-37.80735],[144.96838,-37.807365],[144.968472,-37.807378],[144.968658,-37.807391],[144.968684,-37.807394],[144.968752,-37.807401],[144.96887,-37.807414],[144.968957,-37.807424],[144.969312,-37.807468],[144.970245,-37.807568],[144.970256,-37.807585],[144.970339,-37.807611],[144.970441,-37.807644],[144.970494,-37.807661],[144.970501,-37.807663],[144.970536,-37.807673],[144.970573,-37.807663],[144.970575,-37.807668],[144.970588,-37.807693],[144.970599,-37.807715],[144.97061,-37.807737],[144.970732,-37.807721],[144.970845,-37.807732],[144.970897,-37.807737],[144.971099,-37.807784],[144.971215,-37.807845],[144.9713,-37.807927],[144.97134,-37.807909],[144.971375,-37.807899],[144.971393,-37.807894],[144.97141,-37.80789],[144.971433,-37.807894],[144.971458,-37.807903],[144.971483,-37.807912],[144.971591,-37.807981],[144.97163,-37.808003],[144.971689,-37.808039],[144.971804,-37.808287],[144.971831,-37.808357],[144.971941,-37.808623],[144.971948,-37.808638],[144.97212,-37.808996],[144.972235,-37.809235],[144.972258,-37.809285],[144.972309,-37.809393],[144.972342,-37.809464],[144.972386,-37.809453],[144.972465,-37.809633],[144.972533,-37.809612],[144.972402,-37.809717],[144.972414,-37.809745],[144.972441,-37.8098],[144.972491,-37.809909],[144.97263,-37.810211],[144.972683,-37.81033],[144.972705,-37.810379],[144.972778,-37.810549],[144.972856,-37.810717],[144.972718,-37.810758],[144.972856,-37.810717],[144.972778,-37.810549],[144.972705,-37.810379],[144.972683,-37.81033],[144.97263,-37.810211],[144.972491,-37.809909],[144.972441,-37.8098],[144.972414,-37.809745],[144.972402,-37.809717],[144.972533,-37.809612],[144.972465,-37.809633],[144.97248,-37.809669],[144.972646,-37.810031],[144.972674,-37.810151],[144.972666,-37.810295],[144.972672,-37.810341],[144.972677,-37.810383],[144.972462,-37.810441],[144.972743,-37.81106],[144.972838,-37.811271],[144.972948,-37.811242],[144.972959,-37.81124],[144.972988,-37.811232],[144.973009,-37.811225],[144.973026,-37.811223],[144.973082,-37.811209],[144.973129,-37.811198],[144.973123,-37.811185],[144.973109,-37.811148],[144.973185,-37.811125],[144.973335,-37.811083],[144.973185,-37.811125],[144.973166,-37.811081],[144.973158,-37.81106],[144.973093,-37.810918],[144.973034,-37.810866],[144.973004,-37.810853],[144.97298,-37.810674],[144.972982,-37.81044],[144.972997,-37.810437],[144.973042,-37.810416],[144.973104,-37.810345],[144.973235,-37.810242],[144.973337,-37.810172],[144.973536,-37.81005],[144.973673,-37.809935],[144.973743,-37.809888],[144.97393,-37.80978],[144.97414,-37.809635],[144.974216,-37.809597],[144.974365,-37.809539],[144.97437,-37.80953],[144.974374,-37.809516],[144.975004,-37.809594],[144.975426,-37.809643],[144.975548,-37.809657],[144.975616,-37.809664],[144.975653,-37.809668],[144.975702,-37.809674],[144.975835,-37.809688],[144.976523,-37.809761],[144.975835,-37.809688],[144.975849,-37.809667],[144.975859,-37.80961],[144.975873,-37.809499],[144.975883,-37.809438],[144.975873,-37.809335],[144.975967,-37.808728],[144.975986,-37.808658],[144.976041,-37.808581],[144.976,-37.808534],[144.975983,-37.808516],[144.97592,-37.808494],[144.975885,-37.808489],[144.975854,-37.808487],[144.975816,-37.808484],[144.975808,-37.808483],[144.975744,-37.808478],[144.975628,-37.808467],[144.975621,-37.808456],[144.975184,-37.808409],[144.974685,-37.808353],[144.973304,-37.808206],[144.973279,-37.808203],[144.973226,-37.808198],[144.97317,-37.808193],[144.973169,-37.808193],[144.973131,-37.80819],[144.973129,-37.80819],[144.973054,-37.808183],[144.973016,-37.808179],[144.972972,-37.808173],[144.972968,-37.808148],[144.972978,-37.808084],[144.972985,-37.808035],[144.97299,-37.808005],[144.973,-37.807941],[144.973005,-37.807905],[144.973008,-37.807888],[144.973011,-37.807869],[144.973017,-37.807831],[144.97302,-37.807795],[144.973043,-37.807709],[144.973062,-37.807611],[144.973055,-37.807556],[144.972956,-37.807436],[144.972891,-37.807372],[144.97281,-37.807287],[144.972734,-37.807182],[144.972148,-37.80644],[144.971528,-37.805639],[144.97159,-37.805598],[144.971619,-37.805563]]}}]}
