{"type":"FeatureCollection","features":[{"type":"Feature","properties":{"source":"BRouter, profile hiking-mountain; \u00a9 OpenStreetMap contributors, ODbL"},"geometry":{"type":"LineString","coordinates":[[-99.132063,19.432687],[-99.131997,19.433198],[-99.131946,19.433554],[-99.131939,19.433605],[-99.131933,19.433648],[-99.131931,19.433665],[-99.131907,19.433848],[-99.132107,19.433874],[-99.132081,19.434081],[-99.132263,19.434103],[-99.132236,19.434292],[-99.132215,19.434439],[-99.1322,19.434554],[-99.132161,19.434831],[-99.132147,19.434917],[-99.132087,19.434909],[-99.132092,19.434874],[-99.131828,19.434843],[-99.131824,19.434893],[-99.131808,19.434891],[-99.131794,19.434998],[-99.131808,19.434891],[-99.131824,19.434893],[-99.131828,19.434843],[-99.132092,19.434874],[-99.132087,19.434909],[-99.132147,19.434917],[-99.132161,19.434831],[-99.132206,19.434837],[-99.132391,19.433495],[-99.132399,19.433487],[-99.133244,19.433595],[-99.133412,19.433617],[-99.133682,19.433655],[-99.133675,19.433783],[-99.133818,19.433681],[-99.133882,19.433636],[-99.133939,19.433594],[-99.133964,19.433578],[-99.134009,19.433584],[-99.134047,19.433588],[-99.134148,19.433601],[-99.13422,19.433166],[-99.135164,19.433303],[-99.135221,19.433312],[-99.13619,19.433453],[-99.136252,19.433461],[-99.136302,19.433469],[-99.137277,19.43361],[-99.138323,19.433762],[-99.139408,19.433919],[-99.140045,19.434012],[-99.140036,19.434069],[-99.140011,19.434229],[-99.139951,19.434599],[-99.139933,19.434706],[-99.140166,19.434736],[-99.140226,19.434743],[-99.140604,19.43479],[-99.140595,19.434849],[-99.140758,19.434872],[-99.140702,19.43526],[-99.140695,19.435306],[-99.140645,19.435645],[-99.140603,19.435936],[-99.1406,19.435958],[-99.140592,19.436012],[-99.140724,19.436033],[-99.141533,19.436173],[-99.141742,19.436204],[-99.14185,19.43622],[-99.141871,19.436088],[-99.14201,19.436064],[-99.14203,19.436095],[-99.142065,19.436109],[-99.142084,19.436108],[-99.142118,19.436092],[-99.14213,19.436077],[-99.142136,19.436042],[-99.142847,19.435916],[-99.142849,19.435871],[-99.14286,19.435847],[-99.142904,19.435812],[-99.142933,19.435805],[-99.142959,19.435806],[-99.142983,19.435813],[-99.143016,19.435837],[-99.143037,19.435882],[-99.143807,19.435746],[-99.143806,19.435726],[-99.143808,19.435703],[-99.143826,19.435657],[-99.143851,19.435625],[-99.143891,19.435597],[-99.143938,19.435583],[-99.143987,19.435584],[-99.144053,19.435612],[-99.144079,19.435636],[-99.14409,19.435655],[-99.14411,19.435692],[-99.14411,19.435755],[-99.144099,19.435788],[-99.144083,19.435812],[-99.144769,19.436225],[-99.144757,19.436249],[-99.144753,19.436282],[-99.144769,19.436327],[-99.144809,19.436358],[-99.144834,19.436365],[-99.144874,19.436364],[-99.144894,19.436357],[-99.144932,19.436323],[-99.145668,19.436766],[-99.145658,19.436787],[-99.14566,19.436821],[-99.145669,19.436836],[-99.145697,19.436856],[-99.145733,19.43686],[-99.145765,19.436845],[-99.145777,19.436831],[-99.145824,19.43686],[-99.145804,19.436974],[-99.145892,19.43699],[-99.145967,19.437003],[-99.145963,19.43703],[-99.146004,19.437061],[-99.146404,19.437142],[-99.146491,19.437159],[-99.146554,19.437156],[-99.146646,19.43717],[-99.146845,19.437194],[-99.147006,19.437215],[-99.147061,19.437218],[-99.147133,19.437231],[-99.147166,19.437272],[-99.147467,19.437066],[-99.147537,19.437019],[-99.147661,19.436935],[-99.147802,19.436952],[-99.148345,19.437041],[-99.149043,19.437129],[-99.14912,19.437139],[-99.149274,19.437159],[-99.150582,19.437218],[-99.150661,19.437221],[-99.151233,19.437248],[-99.15132,19.437252],[-99.1521,19.43745],[-99.152179,19.43747],[-99.152503,19.437565],[-99.152575,19.437586],[-99.15261,19.437596],[-99.152645,19.437518],[-99.152837,19.437093],[-99.152863,19.43704],[-99.152933,19.437064],[-99.153021,19.436871],[-99.153035,19.436877],[-99.153124,19.436685],[-99.153287,19.436709],[-99.153952,19.436807],[-99.153976,19.436745],[-99.153989,19.436676],[-99.15401,19.436574],[-99.154193,19.436602],[-99.154239,19.436318],[-99.154246,19.436279],[-99.154296,19.43597],[-99.154302,19.435932],[-99.154621,19.435982],[-99.154302,19.435932],[-99.154347,19.435655],[-99.154486,19.435676],[-99.154506,19.435555],[-99.154527,19.43543],[-99.154638,19.434754],[-99.154646,19.434712],[-99.154655,19.434666],[-99.154689,19.434454],[-99.154761,19.434009],[-99.154668,19.433994],[-99.154673,19.433965],[-99.154682,19.433914],[-99.154696,19.433833],[-99.154769,19.433844],[-99.154804,19.433639],[-99.154841,19.433613],[-99.154944,19.433584],[-99.155022,19.433548],[-99.155102,19.433501],[-99.15516,19.433443],[-99.155222,19.433366],[-99.155275,19.433257],[-99.155311,19.433157],[-99.155358,19.433077],[-99.15541,19.433027],[-99.156825,19.432371],[-99.156922,19.432328],[-99.157003,19.432291],[-99.157826,19.431882],[-99.158258,19.431672],[-99.15835,19.431643],[-99.158385,19.431642],[-99.158448,19.431608],[-99.158501,19.431587],[-99.158605,19.431554],[-99.158732,19.431513],[-99.15883,19.431512],[-99.158902,19.431516],[-99.158915,19.431499],[-99.158946,19.431482],[-99.159212,19.431408],[-99.159209,19.431419],[-99.159312,19.431395],[-99.159437,19.431362],[-99.159539,19.431328],[-99.159695,19.431279],[-99.159748,19.43123],[-99.159763,19.43116],[-99.159771,19.431119],[-99.159807,19.431016],[-99.159886,19.430898],[-99.159943,19.430845],[-99.160116,19.430726],[-99.16091,19.430352],[-99.161052,19.430285],[-99.161668,19.429994],[-99.162141,19.429772],[-99.162261,19.429715],[-99.162755,19.429483],[-99.163183,19.429281],[-99.163221,19.429267],[-99.163277,19.429258],[-99.163352,19.429262],[-99.163396,19.429269],[-99.163606,19.429333],[-99.163749,19.429352],[-99.163871,19.429348],[-99.16395,19.42931],[-99.164023,19.429274],[-99.164092,19.429216],[-99.164142,19.429161],[-99.164185,19.429091],[-99.164223,19.429011],[-99.164257,19.428915],[-99.164277,19.428834],[-99.164293,19.428794],[-99.16431,19.428773],[-99.164326,19.428755],[-99.164373,19.428725],[-99.165047,19.428407],[-99.165094,19.428385],[-99.16517,19.428349],[-99.166422,19.427759],[-99.167104,19.427437],[-99.167155,19.427432],[-99.167188,19.427437],[-99.167157,19.42738],[-99.167126,19.427323],[-99.167102,19.427279],[-99.167097,19.427269],[-99.167121,19.427258],[-99.167166,19.427237],[-99.167248,19.4272],[-99.167376,19.427141],[-99.167446,19.427108],[-99.167477,19.427094],[-99.167509,19.427079],[-99.167536,19.427067],[-99.167559,19.427056],[-99.167583,19.427088],[-99.167618,19.42711],[-99.167659,19.427119],[-99.167701,19.427115],[-99.167738,19.427098],[-99.167767,19.427069],[-99.167784,19.427033],[-99.167787,19.426994],[-99.167782,19.426976],[-99.167775,19.426956],[-99.167803,19.426943],[-99.167833,19.426929],[-99.167857,19.426918],[-99.1679,19.426898],[-99.16797,19.426865],[-99.168091,19.426808],[-99.168177,19.426767],[-99.168216,19.426749],[-99.168236,19.42674],[-99.168231,19.426731],[-99.168209,19.426687],[-99.168175,19.426619],[-99.168151,19.426572],[-99.168193,19.426573],[-99.168235,19.426564],[-99.168829,19.426281],[-99.168916,19.426239],[-99.168976,19.42621],[-99.170184,19.425633],[-99.170244,19.425605],[-99.170311,19.425573],[-99.171094,19.425199],[-99.171169,19.425162],[-99.171195,19.425127],[-99.171213,19.425064],[-99.171223,19.42497],[-99.17124,19.424903],[-99.171271,19.424852],[-99.171311,19.424813],[-99.171337,19.424801],[-99.171429,19.424756],[-99.171424,19.424827],[-99.17141,19.424933],[-99.171447,19.424907],[-99.17141,19.424933],[-99.171424,19.424827],[-99.171429,19.424756],[-99.171549,19.424698],[-99.171564,19.424691],[-99.171667,19.424692],[-99.171911,19.424762],[-99.171989,19.424773],[-99.172038,19.424769],[-99.172804,19.424409],[-99.172894,19.424367],[-99.172955,19.424338],[-99.174173,19.423766],[-99.174206,19.42375],[-99.174318,19.423698],[-99.175139,19.423312],[-99.175148,19.423242],[-99.175152,19.423212],[-99.175157,19.423174],[-99.175159,19.423159],[-99.175335,19.42318],[-99.175382,19.423179],[-99.175484,19.423177],[-99.17581,19.42317],[-99.175805,19.423161],[-99.176097,19.423031],[-99.176162,19.423002],[-99.177293,19.42246],[-99.177426,19.422398],[-99.178311,19.421984],[-99.178367,19.421959],[-99.178408,19.42194],[-99.178544,19.421877],[-99.178698,19.421806],[-99.178729,19.421791],[-99.178751,19.421781],[-99.178907,19.421709],[-99.178939,19.421694],[-99.179011,19.421662],[-99.17898,19.421592],[-99.178965,19.421513],[-99.178974,19.421426],[-99.179008,19.421345],[-99.17905,19.421289],[-99.179113,19.421231],[-99.179169,19.42119],[-99.179196,19.421172],[-99.17928,19.421115],[-99.179315,19.421151],[-99.179492,19.421326],[-99.179548,19.421383],[-99.179756,19.421246],[-99.179867,19.421195],[-99.180235,19.421164],[-99.180744,19.421267],[-99.180834,19.421296],[-99.181203,19.421288],[-99.18147,19.421225],[-99.182401,19.420921],[-99.182808,19.420717],[-99.183331,19.420304],[-99.183738,19.419911],[-99.183856,19.419804],[-99.183958,19.419643],[-99.184063,19.419389],[-99.184109,19.41924],[-99.184098,19.419166],[-99.184059,19.4191],[-99.183979,19.419023],[-99.183883,19.418982],[-99.183743,19.418995],[-99.18348,19.419191],[-99.182442,19.419917],[-99.182143,19.420085],[-99.181856,19.42018],[-99.181886,19.420248],[-99.18194,19.420229],[-99.18196,19.420279],[-99.18194,19.420229],[-99.181886,19.420248],[-99.181856,19.42018],[-99.182143,19.420085],[-99.182442,19.419917],[-99.18348,19.419191],[-99.183743,19.418995],[-99.183883,19.418982],[-99.183979,19.419023],[-99.184059,19.4191],[-99.184098,19.419166],[-99.184109,19.41924],[-99.184063,19.419389],[-99.183958,19.419643],[-99.183856,19.419804],[-99.183738,19.419911],[-99.183331,19.420304],[-99.182808,19.420717],[-99.182401,19.420921],[-99.18147,19.421225],[-99.181203,19.421288],[-99.180834,19.421296],[-99.18088,19.421405],[-99.181041,19.421564],[-99.181239,19.421693],[-99.181424,19.421739],[-99.181547,19.421755],[-99.181709,19.421806],[-99.182284,19.421965],[-99.182734,19.421851],[-99.18289,19.421885],[-99.183004,19.421937],[-99.18323,19.422025],[-99.183583,19.422359],[-99.183788,19.422554],[-99.183973,19.422706],[-99.18423,19.422847],[-99.184348,19.423212],[-99.184387,19.423351],[-99.184466,19.423627],[-99.184559,19.423839],[-99.184613,19.423961],[-99.184653,19.424054],[-99.184859,19.424504],[-99.184912,19.424597],[-99.184634,19.424552],[-99.184626,19.424594],[-99.184618,19.42464],[-99.184611,19.424681],[-99.184604,19.424724],[-99.184592,19.424795],[-99.184513,19.425285],[-99.184463,19.425589],[-99.184555,19.425604],[-99.184575,19.425607],[-99.184843,19.425646],[-99.185127,19.425689],[-99.185102,19.425835],[-99.185334,19.425875],[-99.185509,19.42604],[-99.185642,19.426059],[-99.185783,19.42602],[-99.18588,19.426035],[-99.185868,19.42611],[-99.18615,19.426152],[-99.186289,19.426172]]}}]}
