{"type":"FeatureCollection","features":[{"type":"Feature","properties":{"source":"BRouter, profile hiking-mountain; \u00a9 OpenStreetMap contributors, ODbL"},"geometry":{"type":"LineString","coordinates":[[9.190263,45.464],[9.19027,45.464459],[9.190271,45.464551],[9.190049,45.464549],[9.189991,45.464548],[9.189993,45.46464],[9.19,45.464684],[9.190029,45.464684],[9.190026,45.464753],[9.190026,45.464821],[9.190027,45.465495],[9.190027,45.465611],[9.19,45.465611],[9.190027,45.465611],[9.190027,45.465721],[9.190027,45.466463],[9.190018,45.466539],[9.190045,45.466561],[9.190062,45.466575],[9.19009,45.466559],[9.190109,45.466575],[9.190048,45.466823],[9.19003,45.466904],[9.189973,45.466907],[9.189948,45.466917],[9.189914,45.466949],[9.189908,45.466969],[9.18991,45.466991],[9.189923,45.467012],[9.189971,45.467041],[9.190002,45.467046],[9.189984,45.467138],[9.189956,45.467274],[9.189932,45.467274],[9.189912,45.467259],[9.189901,45.467275],[9.189891,45.467289],[9.189882,45.467302],[9.189873,45.467315],[9.189834,45.467372],[9.189809,45.467409],[9.189869,45.467466],[9.18986,45.467485],[9.189843,45.467498],[9.189384,45.467808],[9.189843,45.467498],[9.189858,45.467507],[9.189892,45.467529],[9.189993,45.467455],[9.190008,45.467447],[9.189961,45.467392],[9.189974,45.467384],[9.190077,45.467326],[9.190146,45.467286],[9.190332,45.467166],[9.190662,45.467012],[9.190794,45.46695],[9.190893,45.466914],[9.190989,45.466894],[9.191047,45.466886],[9.191126,45.466885],[9.191262,45.466903],[9.191336,45.466928],[9.191588,45.467037],[9.19165,45.467056],[9.191792,45.467071],[9.191903,45.467067],[9.192252,45.467025],[9.192519,45.467003],[9.192587,45.466992],[9.192645,45.46698],[9.192687,45.466956],[9.192761,45.466871],[9.192845,45.466857],[9.192917,45.466844],[9.192929,45.466864],[9.192926,45.466865],[9.193005,45.46707],[9.193522,45.467201],[9.193555,45.467209],[9.193699,45.467254],[9.194466,45.467703],[9.194475,45.467694],[9.194493,45.467674],[9.194532,45.467698],[9.19476,45.467833],[9.194836,45.467878],[9.194864,45.467854],[9.194867,45.467852],[9.195283,45.46811],[9.195296,45.468118],[9.195308,45.468117],[9.195314,45.468121],[9.195343,45.468137],[9.19538,45.468158],[9.19539,45.468164],[9.195805,45.467803],[9.19539,45.468164],[9.19538,45.468158],[9.195343,45.468137],[9.195314,45.468165],[9.195268,45.468207],[9.195237,45.468189],[9.195226,45.468182],[9.194731,45.468616],[9.194341,45.468927],[9.193966,45.469221],[9.19385,45.469335],[9.193804,45.469385],[9.193419,45.469622],[9.193328,45.469691],[9.192849,45.46996],[9.192781,45.469951],[9.192771,45.469957],[9.192733,45.469979],[9.192712,45.469984],[9.192653,45.470005],[9.192635,45.470012],[9.192637,45.470054],[9.192124,45.470308],[9.191976,45.470226],[9.191971,45.47023],[9.191945,45.47025],[9.191917,45.470272],[9.191884,45.470298],[9.191877,45.470334],[9.191777,45.47043],[9.191336,45.470785],[9.190536,45.471502],[9.189506,45.472603],[9.189497,45.472611],[9.189141,45.472545],[9.189144,45.472539],[9.189168,45.472463],[9.18919,45.472424],[9.189155,45.472319],[9.18916,45.472289],[9.189198,45.472159],[9.189095,45.472144],[9.1887,45.472092],[9.188532,45.47207],[9.18852,45.472064],[9.18849,45.472174],[9.18852,45.472064],[9.188443,45.472024],[9.188302,45.472012],[9.188182,45.472],[9.188155,45.471973],[9.188103,45.471966],[9.188064,45.471986],[9.187943,45.471972],[9.187732,45.471948],[9.187687,45.471942],[9.187759,45.471594],[9.187762,45.471579],[9.187761,45.471561],[9.187751,45.471457],[9.187708,45.471457],[9.187616,45.471252],[9.187608,45.470988],[9.18768,45.470599],[9.187153,45.47051],[9.186483,45.470366],[9.186467,45.470363],[9.185628,45.470147],[9.185605,45.470188],[9.185297,45.47011],[9.185045,45.470047],[9.184979,45.470036],[9.184978,45.470038],[9.184897,45.470162],[9.184871,45.470155],[9.184855,45.470151],[9.184834,45.470182],[9.184818,45.470177],[9.18476,45.470163],[9.184212,45.470044],[9.18406,45.470029],[9.18387,45.47001],[9.183616,45.470018],[9.183556,45.47002],[9.183532,45.470021],[9.183391,45.470029],[9.183378,45.47003],[9.183363,45.470031],[9.18335,45.470032],[9.183333,45.470033],[9.183282,45.470036],[9.183196,45.470038],[9.183177,45.470043],[9.182227,45.470017],[9.182214,45.469999],[9.182196,45.469999],[9.182126,45.469998],[9.182087,45.469997],[9.181891,45.470026],[9.181897,45.470079],[9.181594,45.47009],[9.181535,45.470096],[9.181479,45.47011],[9.181345,45.469998],[9.181065,45.469819],[9.180593,45.469502],[9.180119,45.469205],[9.179755,45.468977],[9.179685,45.468933],[9.179594,45.468896],[9.179486,45.468875],[9.179398,45.46887],[9.17931,45.468882],[9.179204,45.468917],[9.179139,45.46896],[9.178896,45.469178],[9.178785,45.469262],[9.178587,45.469234],[9.178423,45.469359],[9.178285,45.469453],[9.178239,45.469461],[9.178264,45.469497],[9.178305,45.469573],[9.178322,45.46961],[9.178305,45.469663],[9.177908,45.469965],[9.177761,45.470073],[9.177486,45.470277],[9.177409,45.47037],[9.177469,45.470427],[9.178497,45.471085],[9.178143,45.471349],[9.177949,45.471507],[9.178174,45.471651],[9.178022,45.471779],[9.178038,45.471839],[9.178024,45.472138],[9.177855,45.472393],[9.177667,45.472553],[9.177355,45.472706],[9.176956,45.472966],[9.176913,45.472995],[9.176948,45.473097],[9.176971,45.47323],[9.176996,45.473316],[9.17703,45.473382],[9.17708,45.473445],[9.177125,45.473488],[9.177267,45.473621],[9.177332,45.473737],[9.177348,45.473812],[9.177351,45.473883],[9.177324,45.473935],[9.177273,45.473961],[9.177206,45.473972],[9.17726,45.474085],[9.177395,45.474271],[9.177462,45.474356],[9.177205,45.474544],[9.176901,45.474684],[9.176416,45.474892],[9.176007,45.475041],[9.175401,45.475216],[9.174814,45.475337],[9.174244,45.475423],[9.17401,45.475427],[9.173746,45.475432],[9.173602,45.475435],[9.173648,45.475577],[9.173432,45.475582],[9.173406,45.475494],[9.173365,45.475411],[9.172756,45.475675],[9.172765,45.475698],[9.172761,45.475726],[9.172737,45.475754],[9.172542,45.4759],[9.172496,45.475913],[9.172462,45.475911],[9.17242,45.475898],[9.172268,45.475797],[9.172138,45.475711],[9.172105,45.475676],[9.172098,45.475642],[9.172103,45.475627],[9.172299,45.475466],[9.172325,45.475454],[9.172007,45.475342],[9.171861,45.475255],[9.171793,45.47521],[9.17183,45.475164],[9.171766,45.475109],[9.171757,45.475095],[9.171782,45.475061],[9.171817,45.475027],[9.17188,45.474991],[9.171936,45.474969],[9.171981,45.474952],[9.172146,45.474921],[9.172248,45.474909],[9.172174,45.474741],[9.171899,45.474246],[9.171855,45.474062],[9.171835,45.473952],[9.171826,45.473687],[9.171871,45.473404],[9.17196,45.47323],[9.172043,45.473053],[9.1721,45.472966],[9.172126,45.472927],[9.172179,45.47288],[9.172203,45.47282],[9.1722,45.472769],[9.172199,45.472743],[9.172178,45.472657],[9.172208,45.472646],[9.172291,45.472616],[9.172284,45.472595],[9.172283,45.472578],[9.172295,45.472514],[9.172427,45.472224],[9.172653,45.47196],[9.172644,45.471936],[9.172609,45.471883],[9.172571,45.471823],[9.17252,45.47178],[9.172513,45.471705],[9.172544,45.471704],[9.172567,45.471703],[9.172589,45.471702],[9.172654,45.471667],[9.172697,45.471644],[9.172771,45.471601],[9.172802,45.471585],[9.172666,45.471531],[9.172454,45.47139],[9.172413,45.47136],[9.172287,45.47127],[9.171678,45.470873],[9.171562,45.470806],[9.171529,45.470776],[9.171511,45.470733],[9.171515,45.470695],[9.171519,45.470663],[9.171555,45.470612],[9.171654,45.470565],[9.171923,45.470475],[9.171962,45.470454],[9.172028,45.470394],[9.172059,45.470336],[9.172067,45.470284],[9.172057,45.470229],[9.172037,45.47018],[9.172013,45.470146],[9.172067,45.470099],[9.172057,45.470092],[9.17202,45.470069],[9.172433,45.469725],[9.17251,45.469669],[9.172583,45.469608],[9.172564,45.469595],[9.172546,45.469581],[9.172524,45.469579],[9.171862,45.469148],[9.171846,45.469043],[9.17253,45.468511],[9.173106,45.468072],[9.173092,45.468063],[9.173056,45.468039],[9.173028,45.468021],[9.173001,45.468004],[9.172984,45.467993],[9.172944,45.467967],[9.172922,45.467946],[9.172945,45.467921],[9.172881,45.467846],[9.172892,45.467832],[9.172921,45.467791],[9.172949,45.467749],[9.172946,45.467714],[9.172926,45.467674],[9.172903,45.467627],[9.172881,45.467584],[9.172974,45.46753],[9.172188,45.466443],[9.172156,45.466425],[9.172151,45.466415],[9.172144,45.466402],[9.17213,45.466372],[9.172144,45.466368],[9.172157,45.466348],[9.17174,45.465794],[9.171708,45.465768],[9.171577,45.465764],[9.171473,45.465754],[9.171316,45.465754],[9.170886,45.465777],[9.170667,45.465789],[9.170667,45.465776],[9.170666,45.465748],[9.170665,45.465705],[9.170665,45.465697],[9.170459,45.46569],[9.170421,45.465681],[9.170256,45.465262],[9.170349,45.46523],[9.170203,45.464859],[9.170185,45.464813],[9.169787,45.463803],[9.169721,45.463625],[9.169745,45.4636],[9.170283,45.463436],[9.17089,45.463251],[9.170995,45.463222],[9.171145,45.463177],[9.172293,45.462837],[9.172316,45.46283],[9.172351,45.462819],[9.172387,45.462805],[9.172398,45.462801],[9.173571,45.462446],[9.173554,45.462414],[9.173598,45.462401],[9.17368,45.462378],[9.174131,45.462248],[9.174175,45.462235],[9.174395,45.46216],[9.174478,45.462115],[9.174507,45.461989],[9.174534,45.461997],[9.174542,45.461999],[9.174559,45.461853],[9.174572,45.461748],[9.174593,45.461721],[9.1746,45.461712],[9.174854,45.461422],[9.17552,45.461071],[9.175535,45.461091],[9.17561,45.4612],[9.175876,45.461637],[9.175795,45.462105],[9.175876,45.461637],[9.17561,45.4612],[9.175535,45.461091],[9.17552,45.461071],[9.175511,45.461056],[9.175675,45.460996],[9.175922,45.460946],[9.176266,45.46085],[9.176333,45.460831],[9.176342,45.46081],[9.176369,45.460716],[9.176473,45.460528],[9.176702,45.46022],[9.176754,45.460137],[9.176815,45.460049],[9.176861,45.460011],[9.177396,45.459719],[9.177467,45.459681],[9.17767,45.45961],[9.177832,45.45944],[9.178074,45.459198],[9.178091,45.459182],[9.178179,45.459125],[9.178208,45.459106],[9.178234,45.459089],[9.178245,45.45908],[9.178259,45.459068],[9.17828,45.459052],[9.178324,45.459018],[9.178297,45.459005],[9.178277,45.458996],[9.178699,45.458921],[9.179209,45.458851],[9.17921,45.458821],[9.179453,45.458822],[9.179452,45.458851],[9.179914,45.458854],[9.180145,45.458867],[9.180273,45.458882],[9.180618,45.458962],[9.180855,45.458994],[9.181062,45.459011],[9.181073,45.459004],[9.181082,45.459004],[9.181106,45.459004],[9.181107,45.459004],[9.181127,45.459004],[9.181139,45.459004],[9.181152,45.459004],[9.181214,45.459005],[9.181241,45.459005],[9.181206,45.458676],[9.181204,45.458652],[9.181072,45.458657],[9.181046,45.458574],[9.181,45.458198],[9.180964,45.457897],[9.180965,45.457763],[9.180993,45.457762],[9.181039,45.457762],[9.181043,45.457727],[9.181045,45.457708],[9.181062,45.457681],[9.181047,45.457545],[9.181035,45.45744],[9.181034,45.45743],[9.181031,45.457417],[9.181021,45.457377],[9.181004,45.457307],[9.181003,45.457301],[9.180985,45.457294],[9.180976,45.457256],[9.180969,45.457172],[9.180966,45.45715],[9.180939,45.456991],[9.180788,45.456326],[9.180792,45.456248],[9.180811,45.456216],[9.180831,45.456201],[9.180831,45.456199],[9.180827,45.456155],[9.180827,45.456144],[9.180826,45.456134],[9.1808,45.456124],[9.180797,45.456111],[9.180686,45.455255],[9.180678,45.455199],[9.180674,45.45517],[9.180637,45.454942],[9.18053,45.454263],[9.180477,45.453917],[9.18077,45.453945],[9.180477,45.453917],[9.180434,45.453625],[9.180423,45.453545],[9.180413,45.45348],[9.180386,45.453298],[9.180376,45.453144],[9.180361,45.453145],[9.180333,45.453148],[9.180311,45.45315],[9.180295,45.453151],[9.180258,45.453154],[9.180222,45.453157],[9.180204,45.453126],[9.180203,45.453116],[9.180198,45.453078],[9.180193,45.453038],[9.18019,45.453012],[9.180186,45.452985],[9.180182,45.452951],[9.180181,45.452946],[9.180099,45.452953],[9.17988,45.45297],[9.1798,45.452976],[9.179787,45.452926],[9.179109,45.452859],[9.17909,45.452858],[9.178122,45.452795],[9.177829,45.452771],[9.177817,45.452826],[9.17781,45.452857],[9.177672,45.452843],[9.177594,45.452836],[9.177597,45.452825],[9.17732,45.452798],[9.177251,45.452801],[9.177187,45.452817],[9.177131,45.452848],[9.177052,45.452916],[9.177062,45.452923],[9.177071,45.45293],[9.176992,45.452995],[9.177071,45.45293],[9.177062,45.452923],[9.177052,45.452916],[9.177131,45.452848],[9.177187,45.452817],[9.177251,45.452801],[9.17732,45.452798],[9.177597,45.452825],[9.177594,45.452836],[9.177672,45.452843],[9.17781,45.452857],[9.177817,45.452826],[9.177829,45.452771],[9.178122,45.452795],[9.17909,45.452858],[9.179109,45.452859],[9.179076,45.452686],[9.179705,45.452638],[9.179696,45.452613],[9.17966,45.452503],[9.179641,45.452444],[9.179441,45.452454],[9.179339,45.452458],[9.179041,45.452446],[9.178395,45.452384],[9.178193,45.452361],[9.178073,45.452349],[9.177734,45.45232],[9.177736,45.452309],[9.177738,45.452295],[9.177742,45.452275],[9.177744,45.452258],[9.177574,45.452254],[9.177489,45.452258],[9.177345,45.45228],[9.177336,45.452269],[9.177311,45.452243],[9.177238,45.452177],[9.176916,45.452108],[9.174788,45.451662],[9.174179,45.451546],[9.173791,45.451466],[9.173001,45.451294]]}}]}
