{"type":"FeatureCollection","features":[{"type":"Feature","properties":{"source":"BRouter, profile hiking-mountain; \u00a9 OpenStreetMap contributors, ODbL"},"geometry":{"type":"LineString","coordinates":[[-73.974027,40.766864],[-73.973949,40.766882],[-73.973712,40.766974],[-73.97352,40.767044],[-73.97342,40.767092],[-73.973379,40.767018],[-73.973364,40.766962],[-73.973356,40.766765],[-73.973307,40.766683],[-73.973349,40.766635],[-73.973399,40.76656],[-73.973405,40.766501],[-73.9734,40.766432],[-73.973416,40.766371],[-73.97344,40.766318],[-73.973546,40.76616],[-73.973555,40.766108],[-73.973544,40.766063],[-73.973546,40.76601],[-73.973464,40.76596],[-73.973323,40.765886],[-73.97325,40.765838],[-73.973191,40.765778],[-73.973149,40.765709],[-73.973075,40.76561],[-73.973368,40.765197],[-73.973446,40.765088],[-73.973633,40.764811],[-73.973696,40.764753],[-73.973645,40.764731],[-73.973563,40.764681],[-73.973492,40.764643],[-73.973541,40.764571],[-73.973536,40.764551],[-73.973515,40.76454],[-73.97355,40.764502],[-73.973596,40.76445],[-73.973609,40.764431],[-73.97344,40.764359],[-73.973363,40.764326],[-73.973463,40.764188],[-73.973383,40.764138],[-73.973489,40.763991],[-73.973536,40.763957],[-73.973512,40.7639],[-73.973497,40.763865],[-73.973539,40.763807],[-73.973558,40.763781],[-73.973584,40.763744],[-73.973613,40.763704],[-73.973641,40.763664],[-73.973658,40.763641],[-73.974027,40.763129],[-73.974048,40.7631],[-73.974101,40.763026],[-73.974169,40.76293],[-73.974552,40.762419],[-73.974603,40.762346],[-73.97464,40.762297],[-73.975006,40.761781],[-73.975045,40.761724],[-73.975085,40.761664],[-73.975469,40.761149],[-73.975477,40.761136],[-73.975502,40.761101],[-73.975543,40.761041],[-73.975896,40.760523],[-73.975948,40.760449],[-73.975969,40.76042],[-73.976364,40.759901],[-73.9764,40.759849],[-73.976446,40.759783],[-73.976822,40.759279],[-73.97686,40.75923],[-73.976914,40.759155],[-73.977289,40.758658],[-73.977299,40.758643],[-73.97733,40.7586],[-73.977362,40.758556],[-73.977374,40.758542],[-73.977737,40.758694],[-73.978054,40.758836],[-73.978434,40.758982],[-73.97849,40.758906],[-73.978656,40.75868],[-73.978746,40.758558],[-73.9788,40.758474],[-73.978898,40.758514],[-73.978954,40.758538],[-73.98071,40.759274],[-73.980719,40.759261],[-73.98075,40.759218],[-73.980779,40.759178],[-73.980791,40.759163],[-73.980827,40.759178],[-73.980924,40.759218],[-73.981296,40.758707],[-73.981341,40.758645],[-73.981383,40.758586],[-73.981651,40.758218],[-73.981794,40.758274],[-73.981891,40.758139],[-73.981936,40.758075],[-73.981972,40.758022],[-73.982345,40.757512],[-73.982391,40.757448],[-73.982425,40.7574],[-73.982738,40.757531],[-73.984321,40.758196],[-73.984573,40.758302],[-73.984975,40.758471],[-73.98502,40.758476],[-73.985378,40.757989],[-73.985408,40.758002],[-73.985482,40.758036],[-73.985506,40.758001],[-73.985482,40.758036],[-73.985408,40.758002],[-73.985378,40.757989],[-73.985391,40.757971],[-73.985399,40.75796],[-73.985417,40.757914],[-73.985435,40.757867],[-73.985451,40.757847],[-73.985792,40.757327],[-73.985829,40.757266],[-73.985869,40.757201],[-73.986136,40.756667],[-73.986159,40.756585],[-73.986176,40.756524],[-73.986379,40.755918],[-73.98625,40.755863],[-73.986259,40.755837],[-73.986289,40.755762],[-73.986319,40.755691],[-73.986305,40.755665],[-73.986283,40.755654],[-73.985068,40.755139],[-73.985011,40.755115],[-73.984951,40.755089],[-73.98488,40.755058],[-73.98484,40.755041],[-73.984328,40.754817],[-73.984283,40.754797],[-73.984179,40.754757],[-73.984081,40.75472],[-73.984055,40.754711],[-73.984044,40.754706],[-73.984028,40.754646],[-73.984014,40.754618],[-73.984009,40.754606],[-73.983959,40.754504],[-73.983954,40.754492],[-73.983949,40.754481],[-73.983943,40.754464],[-73.983938,40.754451],[-73.983807,40.754396],[-73.982744,40.753949],[-73.982726,40.753941],[-73.982654,40.753911],[-73.982635,40.753903],[-73.982589,40.753883],[-73.982765,40.753649],[-73.982712,40.753627],[-73.9827,40.753643],[-73.982618,40.753755],[-73.982539,40.753863],[-73.982499,40.753918],[-73.982093,40.753748],[-73.981947,40.753688],[-73.981926,40.753717],[-73.981915,40.753712],[-73.981905,40.75372],[-73.981851,40.753697],[-73.981857,40.753689],[-73.981745,40.753641],[-73.981766,40.753612],[-73.981502,40.753503],[-73.981458,40.753563],[-73.981451,40.75356],[-73.981442,40.753572],[-73.981462,40.75358],[-73.981495,40.753534],[-73.981545,40.753554],[-73.981554,40.75355],[-73.981681,40.753604],[-73.981685,40.753616],[-73.981673,40.753632],[-73.981537,40.753575],[-73.981514,40.753613],[-73.981475,40.753597],[-73.981132,40.753454],[-73.981125,40.753463],[-73.981089,40.753448],[-73.981045,40.75343],[-73.980945,40.753394],[-73.980866,40.753367],[-73.980823,40.753348],[-73.980807,40.753369],[-73.980759,40.753435],[-73.980711,40.753501],[-73.980691,40.753529],[-73.979315,40.752962],[-73.979292,40.752953],[-73.979213,40.752909],[-73.979129,40.752863],[-73.979133,40.752842],[-73.979125,40.752836],[-73.978318,40.752491],[-73.978296,40.752519],[-73.978258,40.752503],[-73.97822,40.752511],[-73.978203,40.752514],[-73.978165,40.752522],[-73.977967,40.752797],[-73.977896,40.752846],[-73.977824,40.752943],[-73.977257,40.752703],[-73.977212,40.752683],[-73.977257,40.752703],[-73.97733,40.752604],[-73.977492,40.752386],[-73.977581,40.752248],[-73.977598,40.752223],[-73.977618,40.752194],[-73.977634,40.752171],[-73.977673,40.752115],[-73.977713,40.752058],[-73.977733,40.752031],[-73.97788,40.752094],[-73.977975,40.751946],[-73.978083,40.751839],[-73.978149,40.751761],[-73.978249,40.751575],[-73.978295,40.751594],[-73.978316,40.751571],[-73.978341,40.751544],[-73.978382,40.751496],[-73.978393,40.751482],[-73.978757,40.750984],[-73.978762,40.750976],[-73.97879,40.750939],[-73.978831,40.750884],[-73.978844,40.750864],[-73.979199,40.750364],[-73.979212,40.750344],[-73.979236,40.750309],[-73.979263,40.750268],[-73.979277,40.750249],[-73.980335,40.750686],[-73.980621,40.750807],[-73.980978,40.75031],[-73.980995,40.750287],[-73.981028,40.750241],[-73.981047,40.750215],[-73.981066,40.750189],[-73.981101,40.750204],[-73.981162,40.75023],[-73.981248,40.750266],[-73.981263,40.750273],[-73.981626,40.749775],[-73.981637,40.74976],[-73.981675,40.749709],[-73.981703,40.74967],[-73.981718,40.749651],[-73.98208,40.749153],[-73.983462,40.749738],[-73.983473,40.749722],[-73.983503,40.749679],[-73.983533,40.749635],[-73.98355,40.749612],[-73.983922,40.749117],[-73.98394,40.749093],[-73.983963,40.749059],[-73.983993,40.749016],[-73.984004,40.749002],[-73.984026,40.749013],[-73.984108,40.749053],[-73.984213,40.749103],[-73.984236,40.749101],[-73.98462,40.748586],[-73.984633,40.74857],[-73.984679,40.748508],[-73.984737,40.748437],[-73.984755,40.748411],[-73.985129,40.74789],[-73.985851,40.748192],[-73.985129,40.74789],[-73.985172,40.747831],[-73.985218,40.747768],[-73.98559,40.747269],[-73.985627,40.747209],[-73.985663,40.747152],[-73.986024,40.746643],[-73.986068,40.746584],[-73.986108,40.746531],[-73.986476,40.746025],[-73.986482,40.746017],[-73.986514,40.745973],[-73.986542,40.745935],[-73.986558,40.745913],[-73.986924,40.745409],[-73.986966,40.745352],[-73.986981,40.74533],[-73.986956,40.745272],[-73.987061,40.745127],[-73.987113,40.745149],[-73.987372,40.744792],[-73.987419,40.744729],[-73.987454,40.74468],[-73.987826,40.744169],[-73.987863,40.744116],[-73.987907,40.744052],[-73.988279,40.743564],[-73.988289,40.743551],[-73.988318,40.743511],[-73.988355,40.743461],[-73.988364,40.743449],[-73.988724,40.742936],[-73.988746,40.742906],[-73.988767,40.742876],[-73.988797,40.742835],[-73.988811,40.742813],[-73.98901,40.742499],[-73.989017,40.742488],[-73.989023,40.742478],[-73.989052,40.742439],[-73.989075,40.742406],[-73.989142,40.742316],[-73.989159,40.742292],[-73.989189,40.742254],[-73.989219,40.742214],[-73.989231,40.742199],[-73.9892,40.742187],[-73.989146,40.742163],[-73.989078,40.742133],[-73.989261,40.741883],[-73.989451,40.741627],[-73.989469,40.741598],[-73.989445,40.741587],[-73.98948,40.741503],[-73.989507,40.74144],[-73.989535,40.741402],[-73.989702,40.741177],[-73.989746,40.741119],[-73.989921,40.740883],[-73.989646,40.740765],[-73.989555,40.740729],[-73.989557,40.740718],[-73.989563,40.74067],[-73.989566,40.740649],[-73.98957,40.740623],[-73.989573,40.740604],[-73.989663,40.739968],[-73.989674,40.73994],[-73.989679,40.739922],[-73.989699,40.739866],[-73.989705,40.739846],[-73.989846,40.739286],[-73.989864,40.739216],[-73.98988,40.739158],[-73.990034,40.7386],[-73.990053,40.738531],[-73.990069,40.738473],[-73.990208,40.737909],[-73.990112,40.737868],[-73.990139,40.737805],[-73.990165,40.737746],[-73.990307,40.737185],[-73.990337,40.737127],[-73.990386,40.737054],[-73.990718,40.736597],[-73.990775,40.736512],[-73.990801,40.736475],[-73.990761,40.736454],[-73.990721,40.736433],[-73.990804,40.736324],[-73.990968,40.736106],[-73.991117,40.735909],[-73.991119,40.735907],[-73.99115,40.735865],[-73.99118,40.735825],[-73.991223,40.73584],[-73.991261,40.735852],[-73.991653,40.735312],[-73.991699,40.735242],[-73.991724,40.735204],[-73.991755,40.735171],[-73.991805,40.735117],[-73.991841,40.735132],[-73.992049,40.73489],[-73.992275,40.734628],[-73.992291,40.734616],[-73.992305,40.734611],[-73.992324,40.734611],[-73.992358,40.734572],[-73.992395,40.734538],[-73.99242,40.734533],[-73.992833,40.734018],[-73.992878,40.733958],[-73.992922,40.7339],[-73.993373,40.733402],[-73.993418,40.733345],[-73.993452,40.733301],[-73.993852,40.732822],[-73.9939,40.732767],[-73.993942,40.73272],[-73.994352,40.732266],[-73.99439,40.732218],[-73.994441,40.732154],[-73.994831,40.731684],[-73.994875,40.731633],[-73.994913,40.731588],[-73.995172,40.731285],[-73.995178,40.731278],[-73.995205,40.731246],[-73.995225,40.731223],[-73.995233,40.731214],[-73.995589,40.73081],[-73.995603,40.730795],[-73.99564,40.730756],[-73.995673,40.730722],[-73.995691,40.730703],[-73.995772,40.730685],[-73.99599,40.730658],[-73.995994,40.730669],[-73.996025,40.730692],[-73.996053,40.730696],[-73.996082,40.730691],[-73.996105,40.730675],[-73.996115,40.73064],[-73.996885,40.730543],[-73.996938,40.730547],[-73.997038,40.730569],[-73.997168,40.730633],[-73.997137,40.730665],[-73.997273,40.730732],[-73.997247,40.730782],[-73.997273,40.730732],[-73.997137,40.730665],[-73.997168,40.730633],[-73.997038,40.730569],[-73.996938,40.730547],[-73.996885,40.730543],[-73.996813,40.730432],[-73.996683,40.72999],[-73.99666,40.729986],[-73.996641,40.72997],[-73.996617,40.729915],[-73.996623,40.729877],[-73.996645,40.72986],[-73.996587,40.729651],[-73.996603,40.729632],[-73.996634,40.729594],[-73.996667,40.729555],[-73.99668,40.72954],[-73.996615,40.729509],[-73.997056,40.72899],[-73.997094,40.728945],[-73.997137,40.728895],[-73.997156,40.728873],[-73.996394,40.728492],[-73.995732,40.728168],[-73.995722,40.72816],[-73.995732,40.728147],[-73.996686,40.727029],[-73.996694,40.727019],[-73.996737,40.726968],[-73.996663,40.726932],[-73.996707,40.72688],[-73.996657,40.726854],[-73.996644,40.726848],[-73.997424,40.725905],[-73.997437,40.72589],[-73.99749,40.72583],[-73.997547,40.725762],[-73.997558,40.72575],[-73.997589,40.725714],[-73.99764,40.725656],[-73.997649,40.725645],[-73.998503,40.724653],[-73.998509,40.724646],[-73.998537,40.724608],[-73.998561,40.724576],[-73.998571,40.724563],[-73.999517,40.723446],[-73.998873,40.72312],[-73.998772,40.723068],[-73.998685,40.723023],[-73.998722,40.722982],[-73.998759,40.72294],[-73.999327,40.72226],[-73.999711,40.721801],[-73.999761,40.721741],[-73.999818,40.721672],[-74.000526,40.720837],[-74.000574,40.720777],[-74.000625,40.720716],[-74.000653,40.720706],[-74.001309,40.719926],[-74.001317,40.719924],[-74.001319,40.719924],[-74.00135,40.719888],[-74.001376,40.719857],[-74.001383,40.719848],[-74.001732,40.719438],[-74.001747,40.71942],[-74.001806,40.719345],[-74.001864,40.719271],[-74.001884,40.719249],[-74.002414,40.718633],[-74.002445,40.7186],[-74.002491,40.718551],[-74.002575,40.718585],[-74.002676,40.718626],[-74.003099,40.718114],[-74.003133,40.718075],[-74.003174,40.718028],[-74.003592,40.717543],[-74.003631,40.717495],[-74.003661,40.717457],[-74.004092,40.716967],[-74.004134,40.716921],[-74.004172,40.716879],[-74.004584,40.716393],[-74.004631,40.716334],[-74.004672,40.716283],[-74.005047,40.715843],[-74.005054,40.715836],[-74.005077,40.715806],[-74.005096,40.715783],[-74.005106,40.715771],[-74.005468,40.715347],[-74.005484,40.715327],[-74.005522,40.715284],[-74.005554,40.715246],[-74.005567,40.71523],[-74.005938,40.714785],[-74.005985,40.714726],[-74.006024,40.714678],[-74.006357,40.714293],[-74.006415,40.714225],[-74.006446,40.714188],[-74.006464,40.714168],[-74.006814,40.713737],[-74.00683,40.713718],[-74.006872,40.713671],[-74.006904,40.713636],[-74.00692,40.713618],[-74.00729,40.713173],[-74.00735,40.713103],[-74.007371,40.713079],[-74.007387,40.713058],[-74.007703,40.712688],[-74.007713,40.712674],[-74.007732,40.712652],[-74.007782,40.712595],[-74.007834,40.712535],[-74.00785,40.712515],[-74.008633,40.712858],[-74.008649,40.712836],[-74.008694,40.712778],[-74.008739,40.712798],[-74.008832,40.71268],[-74.008925,40.712561],[-74.00896,40.712576],[-74.008972,40.712568],[-74.008996,40.712569],[-74.009022,40.712535],[-74.009033,40.712522],[-74.009095,40.712551],[-74.009299,40.712644],[-74.009507,40.712739],[-74.009522,40.712721],[-74.009557,40.712677],[-74.009588,40.712634],[-74.009586,40.71261],[-74.009992,40.712104],[-74.010004,40.712089],[-74.01004,40.712046],[-74.010078,40.712],[-74.010139,40.712032],[-74.010224,40.712076],[-74.010254,40.712094],[-74.010287,40.712089],[-74.010521,40.711633],[-74.010533,40.711608],[-74.010553,40.711591],[-74.010606,40.71153],[-74.010629,40.711545],[-74.011906,40.711964],[-74.011938,40.711959],[-74.011949,40.711966],[-74.012012,40.712004],[-74.012074,40.712041],[-74.012099,40.712052],[-74.012106,40.712036],[-74.012114,40.712015],[-74.012125,40.711986],[-74.012133,40.711962],[-74.012144,40.711933],[-74.012152,40.711911],[-74.012168,40.711869],[-74.012176,40.711848],[-74.012185,40.711823],[-74.012186,40.71182],[-74.012196,40.711795],[-74.012203,40.711774],[-74.012213,40.711749],[-74.012214,40.711746],[-74.012226,40.711713],[-74.012234,40.711692],[-74.012236,40.711687],[-74.012376,40.711684],[-74.012422,40.711683],[-74.012432,40.711683],[-74.012554,40.71168],[-74.012608,40.711679],[-74.012703,40.711677],[-74.012756,40.711676],[-74.0128,40.711675],[-74.012846,40.711676],[-74.012928,40.711685],[-74.013028,40.711717],[-74.013035,40.711709],[-74.013046,40.711693],[-74.01306,40.711675],[-74.013072,40.711659],[-74.013084,40.711643],[-74.013098,40.711624],[-74.013112,40.711606],[-74.013124,40.71159],[-74.013138,40.711571],[-74.013153,40.711551],[-74.013166,40.711533],[-74.013172,40.711524],[-74.01318,40.711515],[-74.013189,40.711502],[-74.013191,40.711499],[-74.0132,40.711488],[-74.013214,40.711469],[-74.013223,40.711457],[-74.013224,40.711455],[-74.013227,40.711451],[-74.013234,40.711442],[-74.013248,40.711423],[-74.013328,40.711458],[-74.013407,40.71149],[-74.013328,40.711458],[-74.013315,40.711476],[-74.013234,40.711442],[-74.013227,40.711451],[-74.013224,40.711455],[-74.013223,40.711457],[-74.013214,40.711469],[-74.0132,40.711488],[-74.013191,40.711499],[-74.013189,40.711502],[-74.01318,40.711515],[-74.013172,40.711524],[-74.013166,40.711533],[-74.013153,40.711551],[-74.01314,40.711546],[-74.013135,40.711543],[-74.013117,40.711562],[-74.013098,40.711579],[-74.013082,40.711594],[-74.013065,40.71161],[-74.013047,40.711627],[-74.013031,40.711642],[-74.012953,40.711629],[-74.012853,40.711612],[-74.012771,40.711598],[-74.012721,40.711598],[-74.012657,40.711598],[-74.012614,40.711598],[-74.012574,40.711598],[-74.012505,40.711594],[-74.012457,40.711591],[-74.012454,40.711645],[-74.012424,40.711644],[-74.012422,40.711679],[-74.012422,40.711683],[-74.012376,40.711684],[-74.012236,40.711687],[-74.012234,40.711692],[-74.012217,40.711685],[-74.012208,40.711681],[-74.012201,40.711702],[-74.012188,40.711735],[-74.012187,40.711738],[-74.012178,40.711763],[-74.01217,40.711784],[-74.012161,40.711809],[-74.01216,40.711812],[-74.01215,40.711837],[-74.012143,40.711859],[-74.012127,40.711901],[-74.012119,40.711922],[-74.012108,40.711951],[-74.012099,40.711975],[-74.012089,40.712004],[-74.012081,40.712025],[-74.012074,40.712041],[-74.012012,40.712004],[-74.011949,40.711966],[-74.011938,40.711959],[-74.011906,40.711964],[-74.010629,40.711545],[-74.010606,40.71153],[-74.010553,40.711591],[-74.010533,40.711608],[-74.010521,40.711633],[-74.010493,40.711624],[-74.010477,40.711616],[-74.010403,40.711582],[-74.010346,40.711555],[-74.010325,40.711545],[-74.009621,40.711214],[-74.00945,40.711137],[-74.009179,40.711012],[-74.009134,40.710997],[-74.009007,40.711146],[-74.008914,40.711255],[-74.008881,40.711295],[-74.008792,40.7114],[-74.008777,40.711418],[-74.008743,40.711457],[-74.008712,40.711493],[-74.008702,40.711505],[-74.008675,40.711535],[-74.008271,40.712006],[-74.008259,40.712021],[-74.00823,40.712057],[-74.008191,40.712104],[-74.008171,40.712128],[-74.007962,40.712381],[-74.00785,40.712515],[-74.007821,40.712502],[-74.007738,40.712465],[-74.007652,40.712425],[-74.007602,40.712399],[-74.007533,40.712476],[-74.007447,40.712429],[-74.007345,40.712363],[-74.007288,40.71232],[-74.007211,40.712247],[-74.007154,40.712259],[-74.007096,40.712249],[-74.007051,40.712219],[-74.007035,40.712193],[-74.007031,40.712165],[-74.007038,40.712138],[-74.007055,40.712113],[-74.007082,40.712093],[-74.00703,40.711998],[-74.006997,40.711897],[-74.00686,40.711932],[-74.006226,40.712092],[-74.006076,40.71213],[-74.005785,40.712202],[-74.005731,40.712215],[-74.005676,40.712227],[-74.005536,40.712263],[-74.005331,40.712317],[-74.005239,40.71235],[-74.005094,40.712417],[-74.00498,40.712478],[-74.004908,40.712524],[-74.004882,40.712504],[-74.004847,40.712476],[-74.004805,40.712442],[-74.004786,40.712427],[-74.004785,40.712404],[-74.004757,40.712371],[-74.004431,40.712114],[-74.004168,40.711905],[-74.003891,40.711684],[-74.003802,40.711597],[-74.003695,40.71153],[-74.002565,40.710625]]}}]}
