{"type":"FeatureCollection","features":[{"type":"Feature","properties":{"source":"BRouter, profile hiking-mountain; \u00a9 OpenStreetMap contributors, ODbL"},"geometry":{"type":"LineString","coordinates":[[2.365368,48.855535],[2.365389,48.855517],[2.365436,48.855494],[2.365491,48.855479],[2.365412,48.855276],[2.365359,48.855142],[2.36535,48.855119],[2.365284,48.85513],[2.36528,48.85512],[2.365261,48.855078],[2.36524,48.855029],[2.364409,48.85517],[2.3644,48.855176],[2.36439,48.855176],[2.364348,48.855177],[2.364339,48.855151],[2.36433,48.855129],[2.364325,48.855113],[2.36432,48.855099],[2.364312,48.855087],[2.364112,48.855127],[2.364045,48.854997],[2.363989,48.854868],[2.363991,48.854855],[2.363985,48.854846],[2.363943,48.854769],[2.363931,48.854751],[2.363887,48.854673],[2.363872,48.854659],[2.363868,48.854652],[2.363864,48.854648],[2.363741,48.854469],[2.363695,48.854403],[2.363685,48.854383],[2.363636,48.854398],[2.363142,48.854584],[2.36308,48.854617],[2.363061,48.854647],[2.363044,48.854645],[2.363002,48.854658],[2.362969,48.854677],[2.362956,48.854685],[2.362893,48.854673],[2.362718,48.85474],[2.362513,48.854838],[2.362504,48.854841],[2.362473,48.854855],[2.362441,48.85487],[2.362397,48.854863],[2.362326,48.854889],[2.361934,48.855039],[2.361914,48.855012],[2.361893,48.854984],[2.36188,48.854965],[2.361524,48.855069],[2.360998,48.855197],[2.360236,48.85538],[2.360245,48.855391],[2.360169,48.855409],[2.360069,48.855432],[2.359711,48.855509],[2.35967,48.855518],[2.359623,48.855529],[2.359097,48.855652],[2.359088,48.855636],[2.358811,48.855702],[2.358057,48.855883],[2.358003,48.855892],[2.357971,48.855878],[2.357933,48.855889],[2.357896,48.855898],[2.357859,48.855906],[2.357779,48.855925],[2.357163,48.856065],[2.357141,48.856071],[2.357084,48.856087],[2.357038,48.8561],[2.357006,48.856109],[2.356716,48.856175],[2.35666,48.856188],[2.356637,48.856186],[2.356617,48.85619],[2.356558,48.856206],[2.356503,48.85622],[2.356502,48.856232],[2.356481,48.856257],[2.356424,48.856271],[2.355843,48.856407],[2.355778,48.856424],[2.355415,48.856513],[2.355386,48.85652],[2.355337,48.856531],[2.353953,48.856859],[2.353964,48.856874],[2.353983,48.8569],[2.354005,48.856931],[2.353872,48.856957],[2.353541,48.857005],[2.352451,48.857261],[2.352354,48.857283],[2.351679,48.857434],[2.351578,48.857457],[2.351554,48.857413],[2.351544,48.857397],[2.351533,48.857378],[2.351401,48.85741],[2.351128,48.856931],[2.351203,48.856898],[2.351223,48.856857],[2.351212,48.856805],[2.351147,48.856672],[2.351141,48.856661],[2.350874,48.856178],[2.35087,48.856134],[2.350899,48.856102],[2.351009,48.856054],[2.350999,48.856041],[2.350952,48.855987],[2.350889,48.855916],[2.350863,48.855886],[2.350901,48.855866],[2.350929,48.855852],[2.350962,48.855835],[2.350995,48.855818],[2.350892,48.855779],[2.350409,48.855113],[2.350396,48.855097],[2.350408,48.855069],[2.350399,48.855059],[2.350364,48.855018],[2.350334,48.854984],[2.350325,48.854973],[2.350283,48.854966],[2.349874,48.854399],[2.349873,48.854378],[2.349863,48.854365],[2.349852,48.854352],[2.34984,48.854337],[2.349799,48.854343],[2.349763,48.854326],[2.349266,48.853649],[2.349255,48.853623],[2.349207,48.853633],[2.349194,48.853612],[2.349148,48.853554],[2.349069,48.853457],[2.348926,48.853259],[2.349069,48.853457],[2.34898,48.853485],[2.349048,48.853574],[2.349076,48.85361],[2.348293,48.853855],[2.347919,48.85398],[2.347789,48.854024],[2.347516,48.854109],[2.347548,48.854174],[2.347527,48.854179],[2.347545,48.85421],[2.347479,48.854227],[2.347413,48.854244],[2.347648,48.85465],[2.34762,48.854657],[2.347643,48.854734],[2.346926,48.854979],[2.346036,48.855284],[2.345983,48.855302],[2.345905,48.85533],[2.345826,48.855353],[2.345774,48.855292],[2.345745,48.855302],[2.345703,48.855317],[2.345724,48.855344],[2.345853,48.855515],[2.345724,48.855344],[2.345703,48.855317],[2.345631,48.855222],[2.345412,48.855011],[2.344861,48.854478],[2.344799,48.854456],[2.34478,48.854436],[2.344749,48.854404],[2.344713,48.854366],[2.344689,48.85434],[2.344657,48.854354],[2.344598,48.854381],[2.344455,48.854441],[2.344301,48.854493],[2.343329,48.854931],[2.343122,48.855038],[2.342985,48.855134],[2.342252,48.855775],[2.342236,48.855816],[2.341698,48.856289],[2.341206,48.85672],[2.341251,48.856722],[2.341312,48.856714],[2.341332,48.856758],[2.341309,48.856766],[2.341258,48.856775],[2.341205,48.856774],[2.341122,48.856748],[2.341074,48.856713],[2.340985,48.856604],[2.340683,48.856238],[2.340627,48.85616],[2.340545,48.856207],[2.340534,48.856214],[2.340528,48.856217],[2.340396,48.856293],[2.34037,48.856323],[2.340301,48.856341],[2.340233,48.856374],[2.339815,48.856615],[2.339368,48.856873],[2.338306,48.857493],[2.338224,48.857531],[2.338069,48.857583],[2.337344,48.857743],[2.337289,48.857746],[2.337222,48.857761],[2.337243,48.857805],[2.337246,48.857811],[2.337494,48.858301],[2.337903,48.859104],[2.337854,48.859115],[2.337786,48.859128],[2.337791,48.859137],[2.337203,48.859186],[2.33673,48.859217],[2.3366,48.859232],[2.335851,48.859384],[2.335403,48.859488],[2.335377,48.859483],[2.335345,48.859491],[2.335324,48.859513],[2.335295,48.859593],[2.333736,48.859961],[2.333661,48.859972],[2.333695,48.860033],[2.33373,48.860097],[2.333715,48.860134],[2.333706,48.860155],[2.33379,48.86032],[2.333796,48.860332],[2.333675,48.860361],[2.33404,48.860973],[2.334094,48.861058],[2.334135,48.861081],[2.334337,48.861113],[2.334494,48.861183],[2.334603,48.861277],[2.334613,48.861296],[2.334603,48.861277],[2.334494,48.861183],[2.334337,48.861113],[2.334135,48.861081],[2.334094,48.861058],[2.33404,48.860973],[2.334024,48.860977],[2.333987,48.860986],[2.333954,48.860993],[2.333848,48.861018],[2.333779,48.861033],[2.333713,48.861049],[2.333694,48.861056],[2.333573,48.86111],[2.333462,48.861188],[2.333384,48.861278],[2.333341,48.861371],[2.333328,48.861457],[2.333341,48.861541],[2.332919,48.86167],[2.332877,48.861684],[2.332834,48.861697],[2.332463,48.861872],[2.331849,48.862064],[2.331191,48.862271],[2.330953,48.862349],[2.330859,48.86238],[2.330797,48.862399],[2.330759,48.862413],[2.33073,48.862422],[2.330676,48.862439],[2.33018,48.862588],[2.329686,48.862746],[2.329604,48.862671],[2.329491,48.862617],[2.329358,48.862588],[2.329219,48.862588],[2.329085,48.862616],[2.328974,48.862668],[2.328892,48.86274],[2.328847,48.862825],[2.328843,48.862915],[2.328881,48.863002],[2.328209,48.863216],[2.327216,48.863533],[2.327095,48.863369],[2.327216,48.863533],[2.326181,48.863862],[2.325561,48.86406],[2.324649,48.864351],[2.324555,48.864223],[2.324098,48.864118],[2.323694,48.864243],[2.323598,48.864419],[2.323525,48.864553],[2.32362,48.86468],[2.322458,48.865052],[2.322419,48.865066],[2.322327,48.8651],[2.321551,48.865352],[2.321692,48.86555],[2.321468,48.865624],[2.321265,48.865689],[2.321098,48.865743],[2.321062,48.865754],[2.321109,48.86582],[2.32094,48.865868],[2.320885,48.865891],[2.320849,48.865902],[2.320769,48.865928],[2.320647,48.865967],[2.320542,48.865985],[2.320395,48.866014],[2.320211,48.866041],[2.320174,48.866047],[2.320068,48.866078],[2.319972,48.866105],[2.319838,48.866145],[2.31977,48.866048],[2.31976,48.866033],[2.319691,48.865936],[2.319612,48.865824],[2.319576,48.865773],[2.31954,48.865746],[2.31919,48.865249],[2.319127,48.86516],[2.318999,48.86508],[2.318874,48.865011],[2.318777,48.86499],[2.318748,48.86499],[2.318702,48.864991],[2.318603,48.864999],[2.318351,48.865059],[2.317986,48.865158],[2.3179,48.865161],[2.317885,48.86513],[2.31786,48.86508],[2.317825,48.865017],[2.317759,48.86503],[2.317687,48.865036],[2.316332,48.865007],[2.316331,48.864997],[2.316243,48.864982],[2.316171,48.86498],[2.316087,48.864978],[2.316023,48.864999],[2.315788,48.864995],[2.313995,48.864956],[2.313998,48.864922],[2.314012,48.864727],[2.314015,48.864684],[2.314017,48.864649],[2.314012,48.864608],[2.31401,48.864595],[2.314009,48.864584],[2.314008,48.864574],[2.313927,48.864544],[2.313866,48.86454],[2.313782,48.864537],[2.313651,48.864541],[2.313502,48.864544],[2.313498,48.864545],[2.313334,48.864549],[2.313328,48.864563],[2.313322,48.864579],[2.313318,48.864591],[2.313302,48.864633],[2.313299,48.864667],[2.313297,48.864711],[2.313299,48.864939],[2.313298,48.864976],[2.313298,48.865028],[2.313298,48.865052],[2.313256,48.865051],[2.313135,48.865049],[2.311869,48.865025],[2.311397,48.865326],[2.311225,48.865433],[2.311163,48.865469],[2.311062,48.865494],[2.310815,48.86549],[2.310458,48.865481],[2.31042,48.866202],[2.310385,48.866776],[2.310387,48.86681],[2.310387,48.866828],[2.310382,48.866871],[2.310377,48.866911],[2.310377,48.866933],[2.310356,48.867378],[2.310344,48.867631],[2.310325,48.868028],[2.310316,48.868223],[2.310307,48.868415],[2.310247,48.868411],[2.310149,48.868409],[2.31014,48.868409],[2.31012,48.868408],[2.310064,48.868407],[2.310024,48.86841],[2.309935,48.868416],[2.309805,48.868443],[2.309641,48.86849],[2.309537,48.868538],[2.309499,48.868571],[2.309488,48.86858],[2.309433,48.868626],[2.309378,48.868672],[2.309366,48.868682],[2.309331,48.868711],[2.309276,48.868787],[2.309234,48.868902],[2.309222,48.868979],[2.309234,48.869065],[2.309132,48.869096],[2.309092,48.869108],[2.309057,48.869119],[2.308993,48.869138],[2.307336,48.869668],[2.307313,48.869637],[2.307124,48.869697],[2.306741,48.86982],[2.306771,48.86985],[2.306811,48.869901],[2.306819,48.869912],[2.306892,48.870012],[2.30693,48.87],[2.307001,48.869977],[2.307673,48.869763],[2.307001,48.869977],[2.30693,48.87],[2.306892,48.870012],[2.306819,48.869912],[2.306811,48.869901],[2.306771,48.86985],[2.306657,48.869886],[2.30662,48.869898],[2.306584,48.869909],[2.306564,48.869916],[2.306319,48.869994],[2.306286,48.870004],[2.306245,48.870017],[2.306206,48.87003],[2.306142,48.87005],[2.306154,48.870066],[2.305832,48.870168],[2.305797,48.870159],[2.305475,48.870262],[2.305146,48.870366],[2.30511,48.870378],[2.305053,48.870396],[2.304998,48.870413],[2.304879,48.870451],[2.303582,48.870862],[2.303455,48.870903],[2.303411,48.870917],[2.303384,48.870925],[2.30336,48.870933],[2.303346,48.870937],[2.302625,48.871166],[2.302508,48.871203],[2.302522,48.871218],[2.302504,48.871224],[2.302458,48.871237],[2.302426,48.871246],[2.30243,48.871282],[2.302404,48.871302],[2.302047,48.871415],[2.301803,48.871493],[2.301219,48.871678],[2.301035,48.871738],[2.301002,48.87174],[2.300965,48.871729],[2.300948,48.871698],[2.30086,48.871726],[2.300742,48.871764],[2.30074,48.871804],[2.300736,48.871824],[2.300713,48.871841],[2.300377,48.871947],[2.300251,48.871986],[2.299465,48.872236],[2.299439,48.872237],[2.299351,48.872205],[2.299315,48.872217],[2.299277,48.872229],[2.299255,48.872236],[2.299126,48.872277],[2.29859,48.872447],[2.297309,48.872853],[2.297019,48.872946],[2.296993,48.872954],[2.29695,48.872967],[2.296917,48.872978],[2.296897,48.872984],[2.296886,48.872988],[2.296757,48.873029],[2.296372,48.87315],[2.296283,48.873178],[2.296372,48.87315],[2.296267,48.873081],[2.296219,48.873049],[2.296093,48.872968],[2.29608,48.872959],[2.296037,48.872932],[2.29598,48.872899],[2.295935,48.872882],[2.295919,48.872876],[2.295901,48.872869],[2.295813,48.872835],[2.295785,48.872828],[2.29576,48.872822],[2.295674,48.8728],[2.295431,48.872748],[2.295453,48.872625],[2.2955,48.872355],[2.295502,48.872345],[2.295504,48.872335],[2.295512,48.872302],[2.295517,48.872282],[2.295519,48.872271],[2.295521,48.872262],[2.295508,48.872259],[2.295458,48.872248],[2.295418,48.87224],[2.295363,48.872211],[2.295287,48.872199],[2.295209,48.872187],[2.295132,48.872159],[2.295108,48.872036],[2.295107,48.872019],[2.295107,48.872],[2.29511,48.871983],[2.295154,48.871755],[2.294525,48.870888],[2.294508,48.870879],[2.294475,48.870873],[2.294481,48.870858],[2.294455,48.870819],[2.294435,48.870788],[2.294424,48.870778],[2.294429,48.870753],[2.293678,48.869717],[2.292913,48.868667],[2.292873,48.868651],[2.292872,48.868642],[2.292849,48.868614],[2.292821,48.86858],[2.292811,48.868573],[2.292829,48.868541],[2.29258,48.868206],[2.291997,48.867956],[2.291964,48.867936],[2.291969,48.867917],[2.291982,48.867893],[2.291891,48.867854],[2.291919,48.867775],[2.291893,48.867764],[2.291881,48.867753],[2.292016,48.867374],[2.292107,48.867117],[2.292558,48.865854],[2.292524,48.865812],[2.292517,48.865794],[2.292493,48.86575],[2.292472,48.865709],[2.29247,48.865698],[2.29251,48.865667],[2.292527,48.865636],[2.29161,48.864998],[2.291542,48.864973],[2.29154,48.864963],[2.291464,48.864926],[2.291373,48.864886],[2.291364,48.864876],[2.291381,48.864857],[2.291372,48.864828],[2.290358,48.864129],[2.290286,48.864094],[2.290279,48.86409],[2.290234,48.864056],[2.290202,48.864032],[2.290194,48.864027],[2.29027,48.863939],[2.290288,48.863916],[2.290291,48.863914],[2.290339,48.863882],[2.290386,48.863851],[2.290403,48.863836],[2.290431,48.863815],[2.290461,48.863793],[2.29048,48.863779],[2.290516,48.863744],[2.290551,48.863709],[2.290581,48.863679],[2.290895,48.863473],[2.291166,48.863298],[2.291157,48.863293],[2.291189,48.86311],[2.291221,48.863039],[2.291133,48.862982],[2.291093,48.862956],[2.291037,48.86292],[2.290904,48.862831],[2.290654,48.86267],[2.29049,48.862576],[2.29026,48.86249],[2.290016,48.862421],[2.289899,48.862405],[2.289817,48.862402],[2.2896,48.862406],[2.289529,48.862358],[2.289439,48.862296],[2.289421,48.862285],[2.289368,48.862248],[2.289306,48.862205],[2.289244,48.862163],[2.28915,48.862099],[2.289047,48.862029],[2.288854,48.861897],[2.288921,48.861855],[2.288948,48.861837],[2.289098,48.861741],[2.288775,48.861527],[2.288612,48.861561],[2.288775,48.861527],[2.288774,48.861445],[2.289021,48.861288],[2.288966,48.861251],[2.288938,48.861233],[2.28892,48.86122],[2.289268,48.860997],[2.289349,48.860945],[2.289443,48.860885],[2.289789,48.860664],[2.290055,48.860496],[2.289826,48.860337],[2.289866,48.860311],[2.289892,48.860295],[2.290006,48.86022],[2.29004,48.860199],[2.290078,48.860203],[2.290086,48.860199],[2.290124,48.860147],[2.290161,48.860096],[2.290175,48.860082],[2.290273,48.860083],[2.290335,48.860051],[2.290378,48.860032],[2.290442,48.860019],[2.290474,48.860001],[2.290625,48.859916],[2.290656,48.859899],[2.290694,48.859879],[2.290707,48.859872],[2.290748,48.859903],[2.290835,48.859971],[2.291166,48.860227],[2.291186,48.860213],[2.292486,48.859367],[2.292694,48.859225],[2.29276,48.859179],[2.292787,48.859116],[2.292765,48.85906],[2.292904,48.858973],[2.292922,48.858901],[2.292948,48.858895],[2.293022,48.858886],[2.293072,48.858879],[2.293121,48.85886],[2.293173,48.858827],[2.293262,48.858771],[2.293307,48.858742],[2.292372,48.858109],[2.29241,48.858081],[2.292654,48.857924],[2.29269,48.857942],[2.292744,48.857969],[2.292781,48.857987],[2.292931,48.85803],[2.293115,48.858052],[2.293238,48.858054],[2.293598,48.858042],[2.293775,48.858148],[2.294022,48.858124],[2.294233,48.85813],[2.294415,48.858253]]}}]}
