{"type":"FeatureCollection","features":[{"type":"Feature","properties":{"source":"BRouter, profile hiking-mountain; \u00a9 OpenStreetMap contributors, ODbL"},"geometry":{"type":"LineString","coordinates":[[-8.611211,41.142944],[-8.611245,41.142943],[-8.611246,41.142963],[-8.611316,41.142962],[-8.611317,41.142974],[-8.61135,41.142973],[-8.611352,41.143037],[-8.611237,41.143052],[-8.611109,41.143076],[-8.611049,41.143086],[-8.611057,41.14338],[-8.611025,41.143474],[-8.610987,41.143529],[-8.610908,41.143594],[-8.610861,41.143644],[-8.610847,41.143689],[-8.610867,41.14385],[-8.61089,41.143937],[-8.610865,41.143941],[-8.610729,41.143962],[-8.610693,41.143968],[-8.610735,41.1441],[-8.610726,41.144139],[-8.610751,41.144222],[-8.610939,41.144816],[-8.610945,41.144911],[-8.610906,41.144916],[-8.610851,41.144925],[-8.610796,41.144935],[-8.610741,41.144945],[-8.610729,41.145104],[-8.6107,41.145122],[-8.61068,41.145166],[-8.61067,41.14519],[-8.610661,41.145211],[-8.610662,41.145229],[-8.610631,41.145234],[-8.610518,41.145226],[-8.610488,41.145224],[-8.61048,41.145224],[-8.610479,41.14523],[-8.610512,41.145273],[-8.610501,41.145354],[-8.610498,41.145373],[-8.610492,41.145423],[-8.610485,41.145471],[-8.610482,41.145497],[-8.610473,41.145558],[-8.610462,41.145644],[-8.610453,41.145707],[-8.610532,41.145752],[-8.610525,41.145828],[-8.610554,41.145831],[-8.610622,41.145835],[-8.610611,41.145941],[-8.610608,41.145968],[-8.610704,41.146012],[-8.610717,41.146019],[-8.610732,41.146027],[-8.610781,41.146023],[-8.610782,41.146043],[-8.610782,41.146049],[-8.610782,41.146057],[-8.610782,41.146076],[-8.610782,41.146095],[-8.610782,41.146107],[-8.61065,41.146108],[-8.610599,41.146121],[-8.610529,41.146155],[-8.610318,41.146289],[-8.609831,41.146602],[-8.609796,41.146624],[-8.609688,41.146694],[-8.609595,41.146754],[-8.609495,41.146786],[-8.609081,41.14684],[-8.609037,41.146861],[-8.608992,41.146921],[-8.608944,41.146904],[-8.6089,41.146886],[-8.608674,41.147276],[-8.608656,41.14731],[-8.608632,41.147334],[-8.608579,41.147334],[-8.608559,41.147373],[-8.608545,41.147401],[-8.608537,41.147418],[-8.608551,41.147443],[-8.608553,41.147475],[-8.608607,41.147492],[-8.608685,41.147517],[-8.608731,41.147551],[-8.608736,41.147556],[-8.608733,41.147602],[-8.608709,41.147608],[-8.60867,41.147675],[-8.608656,41.1477],[-8.608614,41.147768],[-8.608561,41.147817],[-8.608533,41.147855],[-8.608494,41.147853],[-8.608486,41.14786],[-8.608276,41.148217],[-8.607973,41.148731],[-8.607892,41.148705],[-8.607862,41.148761],[-8.607717,41.148718],[-8.607707,41.148739],[-8.60768,41.148794],[-8.607447,41.14873],[-8.607435,41.148753],[-8.607415,41.148791],[-8.607378,41.148864],[-8.607367,41.148885],[-8.607347,41.148922],[-8.607276,41.1489],[-8.607226,41.148996],[-8.607171,41.149104],[-8.607115,41.149213],[-8.607051,41.149195],[-8.606999,41.149299],[-8.607051,41.149195],[-8.607107,41.149085],[-8.607162,41.148977],[-8.607211,41.148881],[-8.607276,41.1489],[-8.607347,41.148922],[-8.607367,41.148885],[-8.607378,41.148864],[-8.607415,41.148791],[-8.607435,41.148753],[-8.607447,41.14873],[-8.60768,41.148794],[-8.607707,41.148739],[-8.607717,41.148718],[-8.607862,41.148761],[-8.607892,41.148705],[-8.607973,41.148731],[-8.608276,41.148217],[-8.608486,41.14786],[-8.608494,41.147853],[-8.608533,41.147855],[-8.608561,41.147817],[-8.608614,41.147768],[-8.608655,41.147801],[-8.609084,41.147951],[-8.609197,41.147976],[-8.609378,41.14799],[-8.609388,41.147789],[-8.6094,41.147588],[-8.609425,41.147593],[-8.609454,41.147598],[-8.609599,41.147624],[-8.610692,41.147827],[-8.610781,41.147843],[-8.610783,41.147833],[-8.610786,41.147815],[-8.61079,41.147788],[-8.610852,41.147785],[-8.610878,41.147767],[-8.610953,41.147775],[-8.610965,41.147712],[-8.610983,41.147626],[-8.61105,41.147293],[-8.611109,41.146997],[-8.611141,41.146843],[-8.611193,41.146851],[-8.611314,41.146864],[-8.611322,41.146819],[-8.611326,41.1468],[-8.611331,41.146774],[-8.611375,41.146529],[-8.611469,41.146504],[-8.611523,41.146252],[-8.611547,41.146255],[-8.611603,41.146263],[-8.611654,41.146271],[-8.611684,41.146116],[-8.611719,41.146079],[-8.611795,41.146067],[-8.611956,41.146053],[-8.612222,41.146029],[-8.612243,41.146027],[-8.612444,41.146008],[-8.612522,41.146],[-8.612538,41.146023],[-8.613291,41.145948],[-8.613299,41.145927],[-8.61339,41.145917],[-8.61338,41.14588],[-8.613373,41.145853],[-8.61337,41.145841],[-8.613506,41.145831],[-8.613534,41.145831],[-8.613562,41.145841],[-8.613596,41.145854],[-8.613785,41.145973],[-8.61385,41.145992],[-8.613853,41.145981],[-8.613857,41.145965],[-8.613847,41.145946],[-8.613842,41.145934],[-8.613857,41.14593],[-8.613881,41.145929],[-8.61392,41.145917],[-8.613963,41.145908],[-8.613985,41.145914],[-8.614034,41.145912],[-8.61411,41.145892],[-8.614148,41.14587],[-8.61418,41.145847],[-8.614446,41.145778],[-8.6145,41.145763],[-8.614607,41.145711],[-8.614709,41.145672],[-8.614706,41.145666],[-8.614728,41.145652],[-8.614729,41.14563],[-8.61471,41.145613],[-8.614679,41.14561],[-8.614677,41.145604],[-8.614696,41.14558],[-8.614698,41.145572],[-8.614689,41.145541],[-8.614828,41.145539],[-8.615113,41.145431],[-8.615137,41.14542],[-8.615162,41.145409],[-8.615236,41.145378],[-8.615315,41.145344],[-8.615342,41.145332],[-8.615332,41.145319],[-8.61545,41.145261],[-8.615564,41.145231],[-8.615501,41.145088],[-8.615477,41.145024],[-8.615474,41.144941],[-8.615481,41.144909],[-8.615408,41.144896],[-8.61499,41.14488],[-8.614903,41.144727],[-8.614888,41.144679],[-8.614881,41.144603],[-8.614849,41.144509],[-8.614497,41.144311],[-8.614265,41.144473],[-8.614255,41.144467],[-8.614243,41.144461],[-8.614223,41.14445],[-8.61375,41.144194],[-8.613561,41.144028],[-8.613542,41.144003],[-8.613519,41.143975],[-8.613233,41.143553],[-8.614193,41.142844],[-8.614214,41.142837],[-8.614231,41.142838],[-8.614252,41.142775],[-8.614271,41.142712],[-8.614258,41.14268],[-8.614326,41.142486],[-8.61444,41.142157],[-8.614597,41.141743],[-8.614607,41.141692],[-8.614623,41.141683],[-8.614663,41.141677],[-8.614663,41.141644],[-8.614664,41.141614],[-8.614665,41.141579],[-8.614665,41.141554],[-8.614665,41.141542],[-8.614862,41.141424],[-8.614973,41.141375],[-8.615091,41.14128],[-8.615188,41.141226],[-8.615206,41.141216],[-8.615206,41.140951],[-8.615206,41.140923],[-8.615262,41.140922],[-8.615308,41.140909],[-8.615356,41.140893],[-8.615369,41.140891],[-8.61537,41.140853],[-8.615434,41.140829],[-8.615673,41.140743],[-8.615788,41.140747],[-8.615965,41.140752],[-8.615995,41.140753],[-8.615992,41.1408],[-8.615991,41.14082],[-8.615989,41.140862],[-8.615989,41.140885],[-8.61607,41.140888],[-8.616067,41.140962],[-8.616063,41.141032],[-8.616067,41.140962],[-8.61607,41.140888],[-8.615989,41.140885],[-8.615989,41.140862],[-8.615991,41.14082],[-8.615992,41.1408],[-8.615995,41.140753],[-8.615965,41.140752],[-8.615788,41.140747],[-8.615673,41.140743],[-8.615434,41.140829],[-8.615423,41.140808],[-8.615388,41.140754],[-8.615354,41.1407],[-8.6152,41.14075],[-8.615195,41.14074],[-8.615128,41.140592],[-8.614907,41.140637],[-8.614884,41.140528],[-8.614807,41.140396],[-8.614703,41.140355],[-8.614602,41.140402],[-8.614518,41.140435],[-8.614412,41.140465],[-8.614085,41.140517],[-8.613535,41.140631],[-8.613407,41.14062],[-8.613254,41.140607],[-8.613095,41.140608],[-8.612867,41.140578],[-8.612899,41.140713],[-8.612867,41.140578],[-8.61284,41.140449],[-8.612834,41.140425],[-8.612831,41.140411],[-8.612751,41.140422],[-8.612639,41.140436],[-8.612568,41.140446],[-8.61247,41.14046],[-8.612169,41.140504],[-8.611838,41.140548],[-8.611729,41.140562],[-8.611598,41.140578],[-8.611407,41.140607],[-8.611374,41.140612],[-8.611321,41.14062],[-8.611194,41.140637],[-8.611041,41.140662],[-8.610303,41.140779],[-8.610288,41.140781],[-8.610183,41.140798],[-8.610112,41.14081],[-8.61011,41.14081],[-8.610076,41.140821],[-8.610069,41.140829],[-8.609852,41.140742],[-8.609747,41.140719],[-8.609725,41.140723],[-8.60972,41.140724],[-8.609686,41.14073],[-8.609659,41.140736],[-8.609656,41.140737],[-8.609636,41.140663],[-8.609395,41.139901],[-8.609183,41.139234],[-8.609138,41.139098],[-8.609171,41.139091],[-8.609202,41.139086],[-8.609284,41.139067],[-8.609296,41.139064],[-8.60943,41.13906],[-8.609549,41.139057],[-8.609589,41.139029],[-8.609641,41.138993],[-8.609747,41.138916],[-8.610604,41.138473],[-8.610683,41.138434],[-8.610729,41.13841],[-8.611,41.138329],[-8.611716,41.138159],[-8.61238,41.138007],[-8.612342,41.137915],[-8.612402,41.137902],[-8.612351,41.137783],[-8.612306,41.137677],[-8.612366,41.137661],[-8.612511,41.137619],[-8.612366,41.137661],[-8.612306,41.137677],[-8.612351,41.137783],[-8.612402,41.137902],[-8.612342,41.137915],[-8.61238,41.138007],[-8.611716,41.138159],[-8.611,41.138329],[-8.610729,41.13841],[-8.610683,41.138434],[-8.610604,41.138473],[-8.609747,41.138916],[-8.609641,41.138993],[-8.609605,41.138962],[-8.609515,41.139001],[-8.609423,41.138998],[-8.609335,41.138961],[-8.609479,41.138881],[-8.609581,41.138823],[-8.609543,41.138774],[-8.609494,41.138615],[-8.609298,41.13858],[-8.609206,41.138567],[-8.60966,41.138082],[-8.610102,41.137394],[-8.610054,41.137349],[-8.610088,41.137207],[-8.610093,41.137145],[-8.610078,41.137073],[-8.610034,41.137049],[-8.609974,41.137032],[-8.609928,41.136914],[-8.609846,41.136801],[-8.609721,41.13671],[-8.609551,41.136619],[-8.608762,41.136309],[-8.608735,41.136277],[-8.608598,41.136244],[-8.608583,41.136293],[-8.60854,41.136335],[-8.608495,41.136321],[-8.608395,41.136343],[-8.608321,41.136358],[-8.608289,41.136365],[-8.608196,41.136385],[-8.608058,41.136416],[-8.608073,41.136454],[-8.608141,41.136673],[-8.608208,41.137181],[-8.608275,41.13745],[-8.608411,41.137807],[-8.608436,41.137879],[-8.608509,41.138089],[-8.608292,41.138139],[-8.608303,41.138194],[-8.608285,41.138248],[-8.608241,41.138293],[-8.608177,41.138322],[-8.608114,41.138329],[-8.60813,41.138366],[-8.608148,41.138406]]}}]}
