{"type":"FeatureCollection","features":[{"type":"Feature","properties":{"source":"BRouter, profile hiking-mountain; \u00a9 OpenStreetMap contributors, ODbL"},"geometry":{"type":"LineString","coordinates":[[14.397698,50.089606],[14.398093,50.089615],[14.398304,50.089705],[14.398751,50.089892],[14.398904,50.089947],[14.398983,50.089991],[14.398671,50.090419],[14.398762,50.090443],[14.39896,50.090489],[14.399096,50.090522],[14.399135,50.090476],[14.399243,50.090503],[14.39953,50.090569],[14.399674,50.090588],[14.399804,50.090621],[14.399842,50.090643],[14.400081,50.090729],[14.400306,50.09078],[14.40054,50.090833],[14.40054,50.090833],[14.400306,50.09078],[14.400081,50.090729],[14.399842,50.090643],[14.399804,50.090621],[14.399674,50.090588],[14.39953,50.090569],[14.399243,50.090503],[14.399135,50.090476],[14.399096,50.090522],[14.39896,50.090489],[14.398762,50.090443],[14.398671,50.090419],[14.398983,50.089991],[14.398904,50.089947],[14.398751,50.089892],[14.398304,50.089705],[14.398093,50.089615],[14.398327,50.08933],[14.398181,50.089076],[14.398166,50.089067],[14.398023,50.088982],[14.397868,50.088923],[14.396761,50.088706],[14.396726,50.08866],[14.396744,50.0886],[14.396755,50.088562],[14.396818,50.088501],[14.397335,50.08856],[14.397467,50.08856],[14.398196,50.088474],[14.39829,50.088469],[14.39843,50.088471],[14.398933,50.088502],[14.399619,50.088512],[14.399994,50.088514],[14.400122,50.088515],[14.400877,50.088542],[14.402023,50.088603],[14.402029,50.088561],[14.40203,50.088554],[14.402082,50.088551],[14.402117,50.088534],[14.40215,50.088535],[14.402265,50.088537],[14.40234,50.088537],[14.40251,50.088538],[14.402536,50.088538],[14.40258,50.088538],[14.402695,50.088539],[14.402683,50.08784],[14.402737,50.087815],[14.402913,50.087811],[14.403194,50.087807],[14.40346,50.087804],[14.403583,50.087769],[14.403671,50.087764],[14.40367,50.087756],[14.403666,50.087714],[14.403913,50.087698],[14.403946,50.087696],[14.403992,50.087693],[14.40425,50.087676],[14.404324,50.087677],[14.404403,50.087693],[14.404456,50.087654],[14.404607,50.087618],[14.404645,50.08761],[14.40488,50.087564],[14.405453,50.087449],[14.40615,50.087321],[14.406669,50.087246],[14.40676,50.087233],[14.406781,50.08723],[14.406918,50.087226],[14.407,50.087207],[14.40704,50.087198],[14.407068,50.087191],[14.407092,50.087186],[14.407145,50.087174],[14.407163,50.087169],[14.407431,50.087103],[14.407738,50.087036],[14.408756,50.08684],[14.409204,50.086758],[14.409804,50.086667],[14.411395,50.086482],[14.412367,50.08637],[14.413519,50.086189],[14.413535,50.086187],[14.413683,50.086164],[14.413831,50.086141],[14.413977,50.086122],[14.414232,50.086083],[14.414306,50.086072],[14.41432,50.08607],[14.414339,50.086067],[14.414387,50.08606],[14.414418,50.086054],[14.414482,50.086043],[14.414558,50.086028],[14.414798,50.086004],[14.415297,50.085995],[14.415384,50.086],[14.41568,50.086041],[14.415835,50.086087],[14.41593,50.086106],[14.416173,50.086127],[14.416265,50.086124],[14.416589,50.086111],[14.416591,50.08614],[14.416605,50.086261],[14.416542,50.086374],[14.416623,50.086403],[14.416659,50.086441],[14.416674,50.086577],[14.416612,50.086607],[14.416611,50.086666],[14.416612,50.086607],[14.416674,50.086577],[14.416659,50.086441],[14.416623,50.086403],[14.416542,50.086374],[14.416605,50.086261],[14.416591,50.08614],[14.416589,50.086111],[14.416743,50.086103],[14.416761,50.086056],[14.416839,50.086037],[14.416952,50.086015],[14.417183,50.086004],[14.417374,50.086013],[14.417598,50.086051],[14.417891,50.08613],[14.417952,50.086146],[14.418057,50.086019],[14.418103,50.086028],[14.418311,50.086074],[14.418485,50.086101],[14.418603,50.086108],[14.418958,50.08611],[14.419021,50.086354],[14.419031,50.086369],[14.419052,50.086379],[14.419078,50.086381],[14.419227,50.086377],[14.419268,50.08638],[14.419383,50.086427],[14.41974,50.08651],[14.419821,50.08653],[14.419906,50.086558],[14.419911,50.086561],[14.420126,50.086662],[14.42056,50.08684],[14.420518,50.086883],[14.420733,50.086962],[14.420854,50.087008],[14.4209,50.087035],[14.420915,50.087056],[14.420916,50.087103],[14.420778,50.08729],[14.420819,50.087301],[14.42086,50.087314],[14.420776,50.087424],[14.420528,50.087739],[14.420458,50.087819],[14.420419,50.087837],[14.420389,50.087868],[14.420311,50.087847],[14.420267,50.087837],[14.420235,50.087831],[14.420252,50.087845],[14.420251,50.087876],[14.420229,50.08795],[14.419737,50.088654],[14.419729,50.088666],[14.41971,50.088692],[14.419691,50.088721],[14.419681,50.088736],[14.419315,50.089304],[14.41928,50.089356],[14.419273,50.089366],[14.419238,50.089421],[14.419211,50.089466],[14.419201,50.089482],[14.41919,50.089497],[14.418883,50.089979],[14.418812,50.089969],[14.418748,50.089964],[14.418604,50.089957],[14.418748,50.089964],[14.418812,50.089969],[14.418883,50.089979],[14.41919,50.089497],[14.419201,50.089482],[14.419211,50.089466],[14.419238,50.089421],[14.419273,50.089366],[14.41928,50.089356],[14.419315,50.089304],[14.419681,50.088736],[14.419691,50.088721],[14.41971,50.088692],[14.419729,50.088666],[14.419737,50.088654],[14.420229,50.08795],[14.420251,50.087876],[14.420252,50.087845],[14.420235,50.087831],[14.420267,50.087837],[14.420311,50.087847],[14.420389,50.087868],[14.420419,50.087837],[14.420458,50.087819],[14.420528,50.087739],[14.420776,50.087424],[14.42086,50.087314],[14.421072,50.087037],[14.421217,50.087085],[14.421761,50.087252],[14.422133,50.087275],[14.422169,50.087277],[14.422564,50.087297],[14.422856,50.087261],[14.423063,50.087231],[14.423353,50.08719],[14.423557,50.087168],[14.423923,50.087146],[14.424362,50.087158],[14.424561,50.087157],[14.425259,50.087156],[14.425528,50.087172],[14.425553,50.087175],[14.425745,50.087192],[14.425884,50.087205],[14.425947,50.087212],[14.42625,50.087221],[14.426639,50.08724],[14.42724,50.087281],[14.427448,50.087289],[14.427555,50.087276],[14.427661,50.087261],[14.427814,50.08723],[14.427849,50.087224],[14.428028,50.087187],[14.428017,50.087167],[14.427988,50.087138],[14.427884,50.087032],[14.427922,50.086988],[14.427969,50.086954],[14.428005,50.086928],[14.428027,50.086911],[14.427801,50.086772],[14.427848,50.086743],[14.428019,50.086616],[14.428548,50.08622],[14.428642,50.086152],[14.42877,50.086107],[14.428919,50.08585],[14.428946,50.085804],[14.428909,50.085782],[14.428989,50.085725],[14.429045,50.085684],[14.429601,50.085288],[14.429767,50.08517],[14.429779,50.085147],[14.429369,50.084747],[14.429252,50.084667],[14.428936,50.084452],[14.428909,50.084434],[14.428899,50.084428],[14.428871,50.084409],[14.42884,50.084385],[14.428832,50.08438],[14.428545,50.084169],[14.42814,50.083887],[14.428104,50.083867],[14.428084,50.083855],[14.428036,50.083823],[14.428091,50.083769],[14.428103,50.083758],[14.428111,50.083746],[14.428157,50.083667],[14.428105,50.083638],[14.428088,50.083629],[14.42802,50.083607],[14.426937,50.082925],[14.426599,50.082708],[14.426372,50.082539],[14.426421,50.082501],[14.426624,50.082353],[14.426681,50.082298],[14.426773,50.082226],[14.427269,50.081874],[14.427342,50.08182],[14.427658,50.081598],[14.4282,50.081192],[14.428531,50.080955],[14.428762,50.080806],[14.428783,50.080792],[14.42884,50.080754],[14.428891,50.080717],[14.42922,50.080484],[14.429509,50.08028],[14.430014,50.079912],[14.429978,50.079881],[14.42996,50.079867],[14.429897,50.079831],[14.429884,50.079824],[14.429821,50.079794],[14.429757,50.079836]]}}]}
