{"type":"FeatureCollection","features":[{"type":"Feature","properties":{"source":"BRouter, profile hiking-mountain; \u00a9 OpenStreetMap contributors, ODbL"},"geometry":{"type":"LineString","coordinates":[[-71.213693,46.808994],[-71.21363,46.808943],[-71.21336,46.808723],[-71.213242,46.808627],[-71.214255,46.808021],[-71.214048,46.807853],[-71.214362,46.80767],[-71.214436,46.807625],[-71.214485,46.807597],[-71.215396,46.807072],[-71.215345,46.807029],[-71.215268,46.806965],[-71.21533,46.806929],[-71.214951,46.80661],[-71.214597,46.806295],[-71.215336,46.805877],[-71.216028,46.805467],[-71.216558,46.805161],[-71.217034,46.804885],[-71.21692,46.804794],[-71.217155,46.804665],[-71.217026,46.804558],[-71.216979,46.804519],[-71.216929,46.804478],[-71.216937,46.804267],[-71.217571,46.803923],[-71.217471,46.803841],[-71.217545,46.803797],[-71.218291,46.803335],[-71.218396,46.803275],[-71.218236,46.803105],[-71.218197,46.803038],[-71.218157,46.802933],[-71.21815,46.802853],[-71.218164,46.802655],[-71.218155,46.802565],[-71.218116,46.802482],[-71.218064,46.8024],[-71.217881,46.802242],[-71.217765,46.802163],[-71.217881,46.802242],[-71.218064,46.8024],[-71.218116,46.802482],[-71.218155,46.802565],[-71.218164,46.802655],[-71.21815,46.802853],[-71.218157,46.802933],[-71.218197,46.803038],[-71.218236,46.803105],[-71.218396,46.803275],[-71.218291,46.803335],[-71.217545,46.803797],[-71.217471,46.803841],[-71.216689,46.804277],[-71.216444,46.804405],[-71.216192,46.804531],[-71.215986,46.804625],[-71.214988,46.805],[-71.214524,46.805155],[-71.213944,46.805306],[-71.213836,46.805335],[-71.213439,46.805458],[-71.212816,46.805762],[-71.212588,46.805914],[-71.212688,46.805992],[-71.212358,46.806273],[-71.21216,46.806462],[-71.211862,46.806765],[-71.21176,46.806858],[-71.211706,46.806921],[-71.211568,46.807115],[-71.211466,46.807268],[-71.211448,46.807306],[-71.211424,46.807364],[-71.211415,46.807458],[-71.211432,46.807558],[-71.211477,46.807679],[-71.211378,46.807693],[-71.211275,46.807715],[-71.211249,46.807744],[-71.211204,46.807849],[-71.211185,46.807864],[-71.211063,46.807924],[-71.210809,46.808047],[-71.210578,46.808161],[-71.210405,46.808247],[-71.210277,46.808056],[-71.21021,46.808081],[-71.210151,46.808004],[-71.210087,46.807957],[-71.210023,46.807915],[-71.209963,46.80786],[-71.209891,46.807746],[-71.209874,46.807737],[-71.209751,46.807731],[-71.20969,46.807721],[-71.209518,46.80763],[-71.209272,46.80782],[-71.209209,46.807593],[-71.209156,46.80754],[-71.209072,46.807593],[-71.209035,46.807562],[-71.208647,46.807741],[-71.208619,46.807753],[-71.208584,46.807751],[-71.208553,46.807792],[-71.208535,46.80778],[-71.208497,46.807759],[-71.208289,46.807674],[-71.208125,46.807602],[-71.208033,46.807728],[-71.207951,46.807694],[-71.207836,46.807709],[-71.207809,46.807715],[-71.207836,46.807709],[-71.207951,46.807694],[-71.208033,46.807728],[-71.208125,46.807602],[-71.208289,46.807674],[-71.208497,46.807759],[-71.208535,46.80778],[-71.208553,46.807792],[-71.208584,46.807751],[-71.208619,46.807753],[-71.208647,46.807741],[-71.209035,46.807562],[-71.209072,46.807593],[-71.209156,46.80754],[-71.209209,46.807593],[-71.209272,46.80782],[-71.209518,46.80763],[-71.20969,46.807721],[-71.209751,46.807731],[-71.209874,46.807737],[-71.209891,46.807746],[-71.209963,46.80786],[-71.210023,46.807915],[-71.210087,46.807957],[-71.210151,46.808004],[-71.21021,46.808081],[-71.210424,46.808369],[-71.209529,46.808869],[-71.209514,46.808931],[-71.20959,46.808982],[-71.209175,46.809179],[-71.209058,46.809338],[-71.209014,46.809396],[-71.208967,46.809459],[-71.208894,46.809449],[-71.208819,46.809512],[-71.208812,46.809527],[-71.208789,46.809539],[-71.208574,46.809577],[-71.208381,46.809623],[-71.208277,46.809655],[-71.208123,46.809702],[-71.207157,46.809988],[-71.207115,46.810002],[-71.207074,46.810018],[-71.206897,46.810091],[-71.206424,46.810231],[-71.206385,46.810229],[-71.206332,46.810247],[-71.206316,46.810257],[-71.205951,46.810364],[-71.20589,46.810385],[-71.205843,46.810399],[-71.205824,46.810412],[-71.205054,46.810623],[-71.205015,46.810645],[-71.204819,46.810704],[-71.204784,46.810711],[-71.204774,46.810708],[-71.204718,46.810728],[-71.204677,46.810743],[-71.204691,46.810768],[-71.204668,46.810771],[-71.204573,46.810794],[-71.204438,46.810826],[-71.204291,46.810837],[-71.204308,46.811001],[-71.204328,46.811246],[-71.204338,46.811391],[-71.204347,46.811519],[-71.204404,46.811514],[-71.204347,46.811519],[-71.204364,46.81176],[-71.204377,46.811948],[-71.204396,46.812237],[-71.204906,46.812477],[-71.204969,46.812574],[-71.205026,46.812555],[-71.205016,46.812607],[-71.205076,46.812618],[-71.205145,46.812647],[-71.205173,46.812671],[-71.205202,46.812722],[-71.205256,46.812714],[-71.20525,46.812923],[-71.205272,46.812981],[-71.20529,46.813014],[-71.205228,46.813474],[-71.205313,46.81346],[-71.205385,46.813448],[-71.205396,46.813504],[-71.205407,46.813566],[-71.205485,46.813557],[-71.205954,46.81359],[-71.20612,46.813606],[-71.205954,46.81359],[-71.205485,46.813557],[-71.205407,46.813566],[-71.205391,46.81357],[-71.205299,46.813675],[-71.205228,46.813634],[-71.205116,46.813708],[-71.205073,46.813728],[-71.205014,46.813736],[-71.204935,46.813733],[-71.204943,46.813662],[-71.204859,46.813642],[-71.204774,46.813591],[-71.204598,46.81342],[-71.204454,46.813253],[-71.204329,46.813141],[-71.204189,46.813035],[-71.204086,46.812969],[-71.204004,46.812943],[-71.20393,46.812934],[-71.203668,46.81292],[-71.203622,46.812934],[-71.203577,46.812935],[-71.203568,46.812801],[-71.203554,46.8126],[-71.202907,46.812659],[-71.202868,46.812977],[-71.202867,46.812991],[-71.202765,46.81307],[-71.202745,46.81311],[-71.202673,46.813247],[-71.202611,46.813265],[-71.202505,46.813277],[-71.202462,46.813283],[-71.202595,46.813677],[-71.202682,46.813945],[-71.202692,46.813973],[-71.202701,46.814003],[-71.202881,46.814479],[-71.203041,46.81498],[-71.2028,46.815015],[-71.202788,46.814975],[-71.202442,46.815033],[-71.202471,46.815126],[-71.202445,46.81513],[-71.202286,46.815151]]}}]}
