{"type":"FeatureCollection","features":[{"type":"Feature","properties":{"source":"BRouter, profile hiking-mountain; \u00a9 OpenStreetMap contributors, ODbL"},"geometry":{"type":"LineString","coordinates":[[-43.179722,-22.893991],[-43.179932,-22.894515],[-43.18021,-22.895188],[-43.180255,-22.895319],[-43.18028,-22.89544],[-43.180293,-22.895626],[-43.180317,-22.895975],[-43.180239,-22.895959],[-43.18022,-22.896039],[-43.180212,-22.896103],[-43.180219,-22.896234],[-43.180516,-22.896979],[-43.180509,-22.897024],[-43.180506,-22.897072],[-43.180252,-22.897758],[-43.180211,-22.897865],[-43.180188,-22.897893],[-43.180172,-22.897947],[-43.180099,-22.898196],[-43.180046,-22.89824],[-43.179084,-22.898647],[-43.179047,-22.898651],[-43.179004,-22.898646],[-43.178874,-22.898613],[-43.178428,-22.898477],[-43.178116,-22.898406],[-43.177973,-22.898812],[-43.177784,-22.899339],[-43.177615,-22.899903],[-43.177515,-22.900224],[-43.177503,-22.900262],[-43.177441,-22.900248],[-43.177406,-22.900251],[-43.177383,-22.900272],[-43.177366,-22.900302],[-43.177322,-22.900443],[-43.177456,-22.900462],[-43.177427,-22.900502],[-43.177401,-22.900549],[-43.177321,-22.900777],[-43.177293,-22.900856],[-43.177297,-22.900982],[-43.177124,-22.900903],[-43.177091,-22.901012],[-43.177081,-22.901071],[-43.17709,-22.901108],[-43.177114,-22.901129],[-43.177196,-22.901159],[-43.177036,-22.901518],[-43.177033,-22.901559],[-43.176837,-22.901956],[-43.176988,-22.90202],[-43.176836,-22.902313],[-43.176804,-22.902303],[-43.176773,-22.902352],[-43.176528,-22.90276],[-43.176492,-22.902808],[-43.176216,-22.903237],[-43.176207,-22.903315],[-43.1759,-22.903813],[-43.175889,-22.903828],[-43.17587,-22.903851],[-43.175832,-22.903899],[-43.175801,-22.903859],[-43.17512,-22.903477],[-43.175079,-22.903532],[-43.175013,-22.903491],[-43.174964,-22.90346],[-43.174942,-22.903446],[-43.174736,-22.903706],[-43.174659,-22.903652],[-43.174736,-22.903706],[-43.174942,-22.903446],[-43.174964,-22.90346],[-43.175013,-22.903491],[-43.175079,-22.903532],[-43.17512,-22.903477],[-43.175801,-22.903859],[-43.175832,-22.903899],[-43.17587,-22.903851],[-43.175889,-22.903828],[-43.1759,-22.903813],[-43.176543,-22.904185],[-43.177033,-22.904486],[-43.17745,-22.904744],[-43.177629,-22.904852],[-43.177647,-22.904808],[-43.177677,-22.904821],[-43.177714,-22.904842],[-43.177785,-22.904883],[-43.177825,-22.9049],[-43.177809,-22.904951],[-43.177843,-22.904978],[-43.177942,-22.905048],[-43.178109,-22.905158],[-43.178331,-22.905292],[-43.178405,-22.905337],[-43.178331,-22.905292],[-43.178109,-22.905158],[-43.177942,-22.905048],[-43.177843,-22.904978],[-43.177835,-22.904996],[-43.177818,-22.905032],[-43.177808,-22.905056],[-43.177794,-22.905086],[-43.17772,-22.905043],[-43.177649,-22.904999],[-43.177634,-22.904991],[-43.177622,-22.904982],[-43.17759,-22.90496],[-43.177332,-22.905578],[-43.177266,-22.905672],[-43.177275,-22.905735],[-43.177085,-22.906268],[-43.177022,-22.906303],[-43.177015,-22.906321],[-43.177008,-22.906338],[-43.176982,-22.906407],[-43.176957,-22.90647],[-43.176954,-22.906507],[-43.176947,-22.906581],[-43.176766,-22.90708],[-43.176817,-22.907096],[-43.176845,-22.907106],[-43.176897,-22.907123],[-43.17685,-22.90725],[-43.176729,-22.907576],[-43.176683,-22.907794],[-43.176672,-22.907822],[-43.176661,-22.90785],[-43.176642,-22.907902],[-43.176628,-22.907945],[-43.176588,-22.90806],[-43.17656,-22.90813],[-43.176537,-22.908183],[-43.176433,-22.908371],[-43.176378,-22.90851],[-43.176264,-22.908821],[-43.176238,-22.90889],[-43.176222,-22.909008],[-43.176194,-22.909115],[-43.176142,-22.909246],[-43.176134,-22.90927],[-43.176162,-22.909287],[-43.176131,-22.909365],[-43.176195,-22.909404],[-43.176573,-22.909629],[-43.176691,-22.909695],[-43.176756,-22.909737],[-43.176863,-22.909817],[-43.17727,-22.910226],[-43.177331,-22.910284],[-43.177404,-22.910351],[-43.177649,-22.910653],[-43.178086,-22.911194],[-43.178552,-22.911771],[-43.178875,-22.912177],[-43.178914,-22.912238],[-43.178957,-22.912294],[-43.17899,-22.912263],[-43.179024,-22.912272],[-43.17913,-22.912301],[-43.179112,-22.912333],[-43.1799,-22.912123],[-43.179891,-22.912166],[-43.179896,-22.91227],[-43.179995,-22.912647],[-43.179975,-22.912798],[-43.179995,-22.912647],[-43.179896,-22.91227],[-43.179891,-22.912166],[-43.1799,-22.912123],[-43.179112,-22.912333],[-43.179068,-22.912417],[-43.179064,-22.912426],[-43.178803,-22.913336],[-43.17879,-22.913382],[-43.178756,-22.913374],[-43.178737,-22.913369],[-43.178662,-22.913491],[-43.178646,-22.913544],[-43.178632,-22.913598],[-43.178658,-22.913602],[-43.178678,-22.913624],[-43.178665,-22.91372],[-43.17812,-22.914271],[-43.178166,-22.91431],[-43.178125,-22.914351],[-43.178111,-22.914437],[-43.178216,-22.914512],[-43.17895,-22.915116],[-43.179065,-22.915211],[-43.179043,-22.91525],[-43.179347,-22.915397],[-43.179043,-22.91525],[-43.178844,-22.915588],[-43.178622,-22.915984],[-43.178586,-22.916015],[-43.178511,-22.91604],[-43.178129,-22.91606],[-43.177926,-22.916727],[-43.177855,-22.916959],[-43.177738,-22.917473],[-43.177718,-22.917594],[-43.177682,-22.917722],[-43.17764,-22.917819],[-43.177608,-22.91785],[-43.177572,-22.91787],[-43.177517,-22.917887],[-43.177399,-22.917869],[-43.177222,-22.917852],[-43.177112,-22.917844],[-43.17711,-22.918264],[-43.177105,-22.919115],[-43.177098,-22.919229],[-43.176974,-22.919668],[-43.176796,-22.920327],[-43.176783,-22.920375],[-43.176675,-22.920378],[-43.176625,-22.92044],[-43.176591,-22.920488],[-43.176522,-22.920491],[-43.176475,-22.920458],[-43.176409,-22.920464],[-43.17639,-22.920477],[-43.176418,-22.920511],[-43.176418,-22.920538],[-43.176227,-22.92068],[-43.176181,-22.920718],[-43.176213,-22.920752],[-43.176413,-22.920968],[-43.176643,-22.921272],[-43.176583,-22.921336],[-43.176449,-22.921509],[-43.176288,-22.921681],[-43.176264,-22.921698],[-43.176212,-22.921701],[-43.17617,-22.921685],[-43.176036,-22.921615],[-43.175859,-22.921488],[-43.175748,-22.921388],[-43.175631,-22.921244],[-43.175577,-22.921204],[-43.175527,-22.921181],[-43.175472,-22.921173],[-43.175294,-22.921204],[-43.175178,-22.921251],[-43.175139,-22.921266],[-43.1751,-22.921292],[-43.175085,-22.921333],[-43.175094,-22.921415],[-43.175246,-22.921815],[-43.175267,-22.921875],[-43.175283,-22.92195],[-43.175272,-22.922035],[-43.175249,-22.92212],[-43.175215,-22.92217],[-43.175176,-22.922209],[-43.174899,-22.922352],[-43.174669,-22.922506],[-43.174527,-22.922644],[-43.174369,-22.922856],[-43.174328,-22.922901],[-43.174289,-22.922924],[-43.17424,-22.922929],[-43.173953,-22.922926],[-43.173804,-22.923052],[-43.173652,-22.923165],[-43.173607,-22.923225],[-43.173542,-22.923385],[-43.173518,-22.923481],[-43.173521,-22.923589],[-43.173552,-22.923922],[-43.173574,-22.924001],[-43.173667,-22.924142],[-43.173805,-22.924315],[-43.173817,-22.924366],[-43.173819,-22.924516],[-43.173795,-22.924545],[-43.173743,-22.92457],[-43.173437,-22.924586],[-43.173036,-22.924615],[-43.172883,-22.924653],[-43.172889,-22.924746],[-43.173011,-22.925139],[-43.173071,-22.925317],[-43.173103,-22.925427],[-43.173141,-22.925557],[-43.17345,-22.926628],[-43.173741,-22.927636],[-43.173608,-22.927672],[-43.173466,-22.927707],[-43.173389,-22.927734],[-43.17351,-22.928136],[-43.173664,-22.928652],[-43.173848,-22.929206],[-43.173965,-22.92963],[-43.174021,-22.930077],[-43.174127,-22.931056],[-43.17414,-22.931242],[-43.17419,-22.931702],[-43.174217,-22.932085],[-43.174248,-22.932335],[-43.174296,-22.932846],[-43.174319,-22.933025],[-43.174304,-22.933266],[-43.17425,-22.933718],[-43.174208,-22.934001],[-43.17425,-22.933718],[-43.174304,-22.933266],[-43.174319,-22.933025],[-43.174398,-22.933025],[-43.174521,-22.933021],[-43.17465,-22.933014],[-43.17466,-22.933193],[-43.174662,-22.933274],[-43.176061,-22.933948],[-43.176175,-22.933992],[-43.176253,-22.934031],[-43.176285,-22.93405],[-43.177166,-22.934472],[-43.177235,-22.934503],[-43.177359,-22.934556],[-43.177986,-22.93482],[-43.178233,-22.934935],[-43.178242,-22.93494],[-43.178282,-22.93513],[-43.178249,-22.935268],[-43.178218,-22.935484],[-43.178216,-22.93554],[-43.178223,-22.935617],[-43.178316,-22.936263],[-43.178501,-22.936445],[-43.178581,-22.936862],[-43.178587,-22.936894],[-43.178895,-22.938495],[-43.1793,-22.939678],[-43.179467,-22.939888],[-43.179439,-22.939896],[-43.179518,-22.939991],[-43.179799,-22.940262],[-43.180129,-22.940531],[-43.180668,-22.94095],[-43.181342,-22.941475],[-43.181379,-22.941501],[-43.181401,-22.941521],[-43.181434,-22.94155],[-43.181484,-22.941585],[-43.181842,-22.941825],[-43.182064,-22.941955],[-43.182131,-22.941962],[-43.182192,-22.941947],[-43.182232,-22.941845],[-43.182241,-22.941952],[-43.182251,-22.942104],[-43.182253,-22.942322],[-43.182217,-22.942418],[-43.182179,-22.942488],[-43.182038,-22.942677],[-43.181939,-22.942846],[-43.181876,-22.943034],[-43.181845,-22.943307],[-43.181831,-22.943319],[-43.181782,-22.943331],[-43.181719,-22.943322],[-43.181667,-22.943309],[-43.181557,-22.943257],[-43.181852,-22.943775],[-43.181973,-22.944014],[-43.182196,-22.944454],[-43.182271,-22.944732],[-43.182412,-22.94526],[-43.182469,-22.945576],[-43.182521,-22.945835],[-43.182248,-22.945859],[-43.182264,-22.946008],[-43.182123,-22.946013],[-43.18213,-22.946104],[-43.182189,-22.9461],[-43.182217,-22.94632],[-43.182238,-22.946624],[-43.182248,-22.946953],[-43.182239,-22.94726],[-43.1822,-22.947755],[-43.182144,-22.947749],[-43.182105,-22.947748],[-43.182096,-22.947753],[-43.182074,-22.947794],[-43.18203,-22.947824],[-43.181942,-22.947934],[-43.181701,-22.948261],[-43.181642,-22.948301],[-43.181589,-22.948387],[-43.181543,-22.948481],[-43.18149,-22.948621],[-43.181464,-22.948664],[-43.181333,-22.948742],[-43.181292,-22.948763],[-43.181264,-22.948776],[-43.181233,-22.948779],[-43.181212,-22.948775],[-43.181179,-22.948758],[-43.181137,-22.948736],[-43.181125,-22.948735],[-43.180819,-22.948556],[-43.180759,-22.948647],[-43.180672,-22.948783],[-43.180635,-22.94884],[-43.180576,-22.948905],[-43.180438,-22.949048],[-43.180311,-22.94914],[-43.180213,-22.949198],[-43.18015,-22.949233],[-43.180085,-22.949258],[-43.18007,-22.949264],[-43.179999,-22.949251],[-43.179896,-22.949287],[-43.179874,-22.949321],[-43.179846,-22.949341],[-43.1797,-22.949367],[-43.179593,-22.949381],[-43.179522,-22.949384],[-43.178616,-22.949367],[-43.178282,-22.949415],[-43.178164,-22.949472],[-43.178113,-22.949497],[-43.178096,-22.949566],[-43.177855,-22.94968],[-43.177477,-22.94986],[-43.17742,-22.94988],[-43.176713,-22.950228],[-43.175322,-22.951006],[-43.174961,-22.951255],[-43.174161,-22.951723],[-43.173772,-22.951965],[-43.173793,-22.951985],[-43.173336,-22.952269],[-43.173379,-22.95233],[-43.173427,-22.952371],[-43.173181,-22.952529],[-43.173213,-22.952579],[-43.173238,-22.952611],[-43.173303,-22.952631],[-43.173334,-22.952645],[-43.173363,-22.952669],[-43.173532,-22.952939],[-43.173543,-22.952988],[-43.173528,-22.953029],[-43.173509,-22.953052],[-43.173382,-22.953127],[-43.173174,-22.953248],[-43.173107,-22.953282],[-43.172872,-22.952794],[-43.172843,-22.952742],[-43.172725,-22.95281],[-43.172665,-22.952843],[-43.172641,-22.95279],[-43.172552,-22.952841],[-43.172157,-22.952992],[-43.171346,-22.953295],[-43.171086,-22.953392],[-43.168965,-22.954028],[-43.16839,-22.954191],[-43.167589,-22.95443],[-43.16761,-22.954482],[-43.167521,-22.954504],[-43.167158,-22.954622],[-43.167011,-22.954791],[-43.166996,-22.954912],[-43.16703,-22.955028],[-43.166871,-22.955072],[-43.166751,-22.955114],[-43.166699,-22.955039],[-43.166643,-22.954961],[-43.166596,-22.954905],[-43.16655,-22.954882],[-43.166531,-22.954856],[-43.166399,-22.954896]]}}]}
