{"type":"FeatureCollection","features":[{"type":"Feature","properties":{"source":"BRouter, profile hiking-mountain; \u00a9 OpenStreetMap contributors, ODbL"},"geometry":{"type":"LineString","coordinates":[[12.491888,41.89094],[12.491499,41.890885],[12.491412,41.890837],[12.491309,41.890763],[12.491204,41.890649],[12.491131,41.89051],[12.491109,41.890431],[12.491094,41.890307],[12.491101,41.890183],[12.491132,41.890029],[12.491208,41.889867],[12.491116,41.88981],[12.490626,41.889889],[12.490377,41.88993],[12.490361,41.889846],[12.490363,41.889753],[12.490395,41.889656],[12.490477,41.889567],[12.490567,41.889519],[12.490417,41.888971],[12.490358,41.888756],[12.490365,41.888747],[12.490326,41.888723],[12.490309,41.888707],[12.490279,41.888654],[12.490231,41.888522],[12.490037,41.887867],[12.490014,41.88779],[12.489588,41.886319],[12.489312,41.885376],[12.489187,41.885297],[12.488962,41.885217],[12.488974,41.885201],[12.488999,41.885161],[12.489018,41.88513],[12.489042,41.8851],[12.489104,41.885055],[12.489094,41.885028],[12.48908,41.884981],[12.489055,41.884892],[12.489036,41.884889],[12.488941,41.884935],[12.488778,41.885042],[12.488495,41.885184],[12.487507,41.885743],[12.487399,41.885637],[12.487339,41.885577],[12.487295,41.885534],[12.487283,41.885523],[12.487159,41.885404],[12.485481,41.886336],[12.485455,41.88635],[12.48364,41.887396],[12.483514,41.887409],[12.483383,41.887381],[12.483271,41.887298],[12.483238,41.887197],[12.483259,41.88709],[12.482687,41.887388],[12.482583,41.887283],[12.482516,41.887325],[12.482449,41.887366],[12.48236,41.887421],[12.482325,41.887416],[12.481652,41.8878],[12.481321,41.887993],[12.481284,41.888016],[12.48128,41.888026],[12.481286,41.888039],[12.48131,41.888069],[12.48144,41.888227],[12.48131,41.888069],[12.481231,41.888127],[12.481137,41.888194],[12.481188,41.88826],[12.48129,41.888427],[12.481328,41.888508],[12.481337,41.888563],[12.481315,41.88869],[12.481283,41.888808],[12.481243,41.888902],[12.481173,41.889068],[12.481,41.889495],[12.480978,41.889507],[12.480942,41.8895],[12.480936,41.889514],[12.480916,41.88956],[12.480891,41.889613],[12.480889,41.889619],[12.480791,41.889844],[12.480824,41.88985],[12.480961,41.889881],[12.481099,41.889913],[12.480776,41.890679],[12.480738,41.890765],[12.480754,41.890825],[12.480789,41.890867],[12.480763,41.890933],[12.480741,41.890986],[12.480738,41.890992],[12.480705,41.891006],[12.480624,41.891088],[12.480462,41.89147],[12.480438,41.891536],[12.480408,41.891665],[12.480408,41.891719],[12.480438,41.891866],[12.480621,41.892328],[12.480631,41.892326],[12.480719,41.892488],[12.480782,41.89258],[12.480882,41.892696],[12.481165,41.892935],[12.481575,41.893243],[12.4817,41.893359],[12.481934,41.893581],[12.481954,41.893612],[12.48199,41.893649],[12.482009,41.893639],[12.482048,41.893614],[12.482066,41.893593],[12.482106,41.893605],[12.48213,41.893606],[12.482153,41.893602],[12.482173,41.893567],[12.482219,41.893534],[12.482279,41.893505],[12.48235,41.89345],[12.482383,41.893437],[12.482412,41.89341],[12.482411,41.893375],[12.482327,41.893272],[12.482323,41.893245],[12.482366,41.893198],[12.482428,41.893255],[12.482477,41.893291],[12.482641,41.89331],[12.482789,41.893328],[12.482796,41.893299],[12.482789,41.893328],[12.482641,41.89331],[12.482477,41.893291],[12.482428,41.893255],[12.482366,41.893198],[12.482323,41.893245],[12.482327,41.893272],[12.482411,41.893375],[12.482412,41.89341],[12.482383,41.893437],[12.48235,41.89345],[12.482279,41.893505],[12.482219,41.893534],[12.482173,41.893567],[12.482153,41.893602],[12.48213,41.893606],[12.482106,41.893605],[12.482066,41.893593],[12.482048,41.893614],[12.482009,41.893639],[12.48199,41.893649],[12.482019,41.893679],[12.481917,41.893733],[12.481923,41.893748],[12.481954,41.89378],[12.481986,41.893821],[12.481982,41.893862],[12.481987,41.893941],[12.481997,41.893943],[12.482148,41.894316],[12.482249,41.894525],[12.482245,41.894551],[12.482271,41.894583],[12.482303,41.894605],[12.482274,41.894624],[12.482263,41.894649],[12.482283,41.894655],[12.482179,41.894913],[12.482167,41.894952],[12.482166,41.894988],[12.482169,41.895044],[12.482181,41.895083],[12.482218,41.895154],[12.482242,41.895183],[12.482312,41.895241],[12.482403,41.895287],[12.482443,41.8953],[12.482433,41.895337],[12.482447,41.895365],[12.482461,41.895374],[12.482556,41.895397],[12.482721,41.895437],[12.482683,41.895533],[12.482666,41.895576],[12.482424,41.89554],[12.482036,41.896612],[12.482342,41.896676],[12.482329,41.896711],[12.482529,41.89676],[12.482549,41.896764],[12.482847,41.896071],[12.482549,41.896764],[12.482529,41.89676],[12.482329,41.896711],[12.482292,41.896808],[12.482837,41.896972],[12.482878,41.896986],[12.482923,41.896999],[12.482972,41.897015],[12.483232,41.897102],[12.482973,41.897603],[12.482963,41.897628],[12.483081,41.897656],[12.48275,41.898439],[12.482829,41.89846],[12.482925,41.898495],[12.483157,41.898603],[12.483082,41.898934],[12.482985,41.899264],[12.482842,41.899617],[12.482578,41.900185],[12.482469,41.900438],[12.48245,41.900481],[12.482481,41.900509],[12.482722,41.900567],[12.483129,41.900724],[12.483007,41.900933],[12.483051,41.900948],[12.483077,41.900943],[12.483125,41.900866],[12.483163,41.900844],[12.483202,41.900831],[12.483228,41.90083],[12.483353,41.900863],[12.483365,41.900866],[12.483353,41.900863],[12.483228,41.90083],[12.483202,41.900831],[12.483163,41.900844],[12.483125,41.900866],[12.483077,41.900943],[12.483051,41.900948],[12.483007,41.900933],[12.482994,41.900953],[12.482966,41.900972],[12.482926,41.900995],[12.482842,41.901176],[12.482676,41.901533],[12.482584,41.901796],[12.482494,41.902015],[12.48248,41.902051],[12.482513,41.902111],[12.482518,41.902139],[12.482595,41.902626],[12.482937,41.902705],[12.483062,41.902753],[12.483105,41.902777],[12.483221,41.902887],[12.483288,41.903284],[12.483361,41.903569],[12.483392,41.903689],[12.483369,41.903749],[12.483148,41.904318],[12.483006,41.904611],[12.482853,41.904849],[12.482594,41.905242],[12.482494,41.905381],[12.482213,41.905675],[12.48219,41.905694],[12.482154,41.905726],[12.482129,41.905748],[12.482115,41.905761],[12.481984,41.905876],[12.481753,41.906064],[12.481242,41.906512],[12.481208,41.906544],[12.481174,41.906576],[12.481115,41.906627],[12.481137,41.906641],[12.481148,41.906649],[12.480679,41.907045],[12.480632,41.907091],[12.480607,41.907114],[12.480581,41.907139],[12.480503,41.907203],[12.479511,41.908045],[12.479499,41.908054],[12.479473,41.908073],[12.479249,41.908254],[12.478997,41.908472],[12.478956,41.908507],[12.478792,41.908656],[12.478764,41.908679],[12.478739,41.9087],[12.47858,41.908832],[12.478462,41.908934],[12.478432,41.908958],[12.478278,41.90909],[12.478264,41.909109],[12.478141,41.909214],[12.478102,41.909235],[12.477953,41.909367],[12.477936,41.90938],[12.4779,41.909408],[12.477861,41.909439],[12.477653,41.909629],[12.477531,41.909733],[12.47751,41.909749],[12.47749,41.909765],[12.477453,41.909796],[12.477267,41.909958],[12.477211,41.910011],[12.477128,41.910101],[12.477066,41.910178],[12.47695,41.91032],[12.476948,41.91034],[12.476973,41.910359],[12.476953,41.910392],[12.47679,41.910373],[12.476506,41.910305],[12.476408,41.910537],[12.476744,41.910614],[12.476619,41.910918],[12.476373,41.910862],[12.476619,41.910918],[12.476744,41.910614],[12.476408,41.910537],[12.476506,41.910305],[12.476197,41.910235],[12.4761,41.910197],[12.476116,41.910159],[12.476118,41.91015],[12.476139,41.91015],[12.476174,41.910136],[12.476189,41.910083],[12.476211,41.90992],[12.476207,41.909802],[12.476189,41.909802],[12.476188,41.909785],[12.476187,41.909763],[12.476092,41.909216],[12.476082,41.909209],[12.476078,41.909189],[12.476073,41.90916],[12.476071,41.909148],[12.476001,41.908632],[12.475988,41.908603],[12.476047,41.9086],[12.476043,41.908578],[12.475951,41.908041],[12.475849,41.907356],[12.475845,41.907328],[12.475783,41.906937],[12.475751,41.906732],[12.475733,41.906627],[12.47572,41.906537],[12.475666,41.906185],[12.475617,41.905853],[12.475587,41.905667],[12.47554,41.90541],[12.475526,41.905336],[12.475511,41.905248],[12.475502,41.905199],[12.475465,41.905011],[12.475443,41.904899],[12.475428,41.904851],[12.475386,41.904647],[12.475369,41.904541],[12.475379,41.904452],[12.475364,41.904356],[12.475326,41.904112],[12.475286,41.903866],[12.47526,41.903697],[12.475192,41.903251],[12.475176,41.90315],[12.475173,41.903106],[12.475153,41.902977],[12.475214,41.902934],[12.475222,41.902921],[12.475435,41.902753],[12.475413,41.902736],[12.475551,41.902636],[12.475541,41.90263],[12.47555,41.902624],[12.475597,41.902591],[12.475829,41.902284],[12.475841,41.902287],[12.475865,41.902255],[12.475951,41.902092],[12.475959,41.902075],[12.476156,41.901637],[12.476159,41.90163],[12.476214,41.901509],[12.47628,41.90139],[12.476354,41.901282],[12.476398,41.901241],[12.476451,41.901207],[12.47658,41.90117],[12.476595,41.900984],[12.476556,41.900489],[12.476564,41.900357],[12.476601,41.900196],[12.476686,41.900035],[12.476703,41.900003],[12.476713,41.899985],[12.476784,41.899846],[12.476879,41.899581],[12.476871,41.899458],[12.47692,41.899149],[12.476804,41.899142],[12.47678,41.899141],[12.476635,41.899133],[12.476602,41.899439],[12.476592,41.899522],[12.476505,41.899523],[12.476439,41.89952],[12.47512,41.899403],[12.475029,41.899398],[12.474837,41.899395],[12.474063,41.899394],[12.474049,41.899393],[12.474014,41.899393],[12.473993,41.899392],[12.473856,41.899387],[12.473791,41.899385],[12.473779,41.899384],[12.473804,41.899142],[12.473395,41.899123],[12.473313,41.899117],[12.47325,41.899112],[12.47291,41.899209],[12.472847,41.899206],[12.472873,41.898889],[12.472948,41.897981],[12.472971,41.897924],[12.473018,41.897877],[12.473084,41.897844],[12.473121,41.897833],[12.473182,41.897827],[12.473181,41.89779],[12.473184,41.897774],[12.473192,41.897731],[12.473146,41.897534],[12.473045,41.897229],[12.473064,41.897217],[12.47305,41.897157],[12.473089,41.897092],[12.473127,41.897026],[12.473089,41.897008],[12.473087,41.896996],[12.473032,41.896969],[12.472983,41.896898],[12.472962,41.896884],[12.472928,41.896865],[12.47286,41.896817],[12.473038,41.896738],[12.473018,41.896716],[12.472905,41.896597],[12.472574,41.896301],[12.472534,41.896254],[12.472476,41.896214],[12.47208,41.895865],[12.471803,41.895613],[12.472065,41.895465],[12.471803,41.895613],[12.47152,41.89575],[12.471504,41.895759],[12.470817,41.896174],[12.470792,41.896187],[12.47075,41.896209],[12.470459,41.896365],[12.470386,41.896419],[12.470339,41.896438],[12.470297,41.896457],[12.469945,41.896689],[12.46982,41.896818],[12.469756,41.896984],[12.469737,41.897146],[12.469244,41.897249],[12.469162,41.897258],[12.469347,41.897578],[12.469307,41.89759],[12.469302,41.897608],[12.468925,41.897736],[12.46887,41.897758],[12.46891,41.897823],[12.468807,41.89787],[12.468641,41.897954],[12.468603,41.897975],[12.46852,41.898024],[12.468282,41.898191],[12.468306,41.898214],[12.468343,41.898264],[12.468306,41.89829],[12.468283,41.898273],[12.468274,41.898271],[12.468262,41.898279],[12.468192,41.898325],[12.468162,41.898346],[12.467881,41.898554],[12.467879,41.898565],[12.467888,41.898575],[12.467882,41.898579],[12.467871,41.898587],[12.467844,41.898607],[12.467838,41.898611],[12.467822,41.898614],[12.467706,41.8987],[12.467413,41.898931],[12.467366,41.898966],[12.46707,41.899203],[12.46705,41.899219],[12.467023,41.899237],[12.466911,41.899319],[12.466884,41.899339],[12.46678,41.899412],[12.466713,41.899475],[12.466601,41.899559],[12.466627,41.899831],[12.466642,41.899892],[12.466633,41.900146],[12.466582,41.900478],[12.466572,41.900543],[12.466521,41.901073],[12.466521,41.901121],[12.466521,41.901212],[12.466519,41.901234],[12.466516,41.901281],[12.466513,41.901316],[12.466512,41.901327],[12.466415,41.902457],[12.466414,41.902467],[12.46641,41.902513],[12.466497,41.902517],[12.46641,41.902513],[12.465836,41.902483],[12.465426,41.902431],[12.465068,41.902407],[12.464867,41.902404],[12.464406,41.902399],[12.464293,41.902396],[12.464253,41.902395],[12.464233,41.902394],[12.463632,41.902381],[12.463073,41.902368],[12.462948,41.902365],[12.462767,41.90236],[12.462014,41.902337],[12.461947,41.902335],[12.460904,41.902308],[12.460697,41.902303],[12.460609,41.902301],[12.459678,41.902281],[12.459619,41.902279],[12.459187,41.902269],[12.459178,41.902268],[12.458794,41.902264],[12.45838,41.902258],[12.458365,41.902257],[12.458275,41.902256],[12.457483,41.902245],[12.45748,41.902209],[12.45747,41.902183]]}}]}
