{"type":"FeatureCollection","features":[{"type":"Feature","properties":{"source":"BRouter, profile hiking-mountain; \u00a9 OpenStreetMap contributors, ODbL"},"geometry":{"type":"LineString","coordinates":[[-122.393615,37.795421],[-122.393627,37.795412],[-122.393728,37.795366],[-122.393775,37.79534],[-122.393973,37.795556],[-122.394242,37.79585],[-122.394461,37.796088],[-122.394531,37.796058],[-122.394552,37.796045],[-122.394619,37.796006],[-122.394665,37.795978],[-122.394691,37.795966],[-122.39471,37.795956],[-122.394732,37.795944],[-122.39475,37.795934],[-122.394774,37.795921],[-122.394828,37.795935],[-122.394848,37.795943],[-122.394928,37.795977],[-122.394975,37.795955],[-122.395058,37.795917],[-122.395093,37.795896],[-122.395184,37.795856],[-122.39517,37.795827],[-122.395182,37.795802],[-122.395202,37.79579],[-122.395235,37.795788],[-122.395254,37.7957],[-122.395369,37.795691],[-122.395439,37.795673],[-122.395509,37.795634],[-122.395534,37.795609],[-122.395626,37.795599],[-122.395799,37.795581],[-122.39608,37.795545],[-122.396635,37.795476],[-122.396641,37.795519],[-122.39665,37.795578],[-122.396729,37.795565],[-122.396845,37.795542],[-122.396941,37.795523],[-122.39789,37.795409],[-122.397943,37.795421],[-122.398042,37.79542],[-122.398128,37.795418],[-122.398956,37.795309],[-122.399306,37.795263],[-122.399421,37.795248],[-122.400244,37.79514],[-122.400276,37.795106],[-122.400348,37.79509],[-122.400465,37.795065],[-122.401433,37.794949],[-122.401532,37.794937],[-122.40164,37.794925],[-122.401957,37.794886],[-122.402226,37.794875],[-122.40223,37.794901],[-122.402246,37.794971],[-122.402362,37.794966],[-122.402423,37.795107],[-122.402332,37.795119],[-122.402371,37.795313],[-122.402488,37.795298],[-122.40249,37.795298],[-122.402488,37.795298],[-122.402371,37.795313],[-122.402332,37.795119],[-122.402423,37.795107],[-122.402362,37.794966],[-122.402246,37.794971],[-122.40223,37.794901],[-122.402226,37.794875],[-122.402398,37.794868],[-122.403094,37.794776],[-122.403171,37.794748],[-122.403231,37.794729],[-122.403248,37.794711],[-122.403237,37.794657],[-122.403224,37.794606],[-122.403204,37.794597],[-122.403135,37.794273],[-122.40316,37.794255],[-122.404592,37.794063],[-122.404588,37.794032],[-122.404703,37.79402],[-122.404813,37.794006],[-122.404807,37.79397],[-122.406144,37.793808],[-122.406158,37.793796],[-122.406103,37.79345],[-122.406153,37.793448],[-122.40614,37.793387],[-122.40613,37.793335],[-122.405974,37.792562],[-122.405957,37.792476],[-122.405953,37.792458],[-122.405951,37.792446],[-122.405935,37.79237],[-122.405818,37.79179],[-122.405777,37.79159],[-122.40576,37.791505],[-122.405745,37.791435],[-122.405668,37.791056],[-122.405598,37.7907],[-122.405668,37.791056],[-122.405745,37.791435],[-122.40576,37.791505],[-122.405777,37.79159],[-122.405818,37.79179],[-122.405935,37.79237],[-122.405951,37.792446],[-122.405953,37.792458],[-122.405957,37.792476],[-122.405974,37.792562],[-122.40613,37.793335],[-122.406066,37.793345],[-122.406071,37.793394],[-122.406075,37.793433],[-122.406103,37.79345],[-122.406158,37.793796],[-122.406168,37.793836],[-122.406177,37.793875],[-122.406206,37.794014],[-122.406218,37.794021],[-122.406256,37.794216],[-122.406256,37.794229],[-122.406233,37.794236],[-122.40624,37.794276],[-122.406246,37.794321],[-122.406265,37.794332],[-122.406431,37.7951],[-122.406418,37.795112],[-122.406426,37.795157],[-122.406432,37.795207],[-122.406448,37.795212],[-122.406511,37.795491],[-122.406544,37.795652],[-122.406606,37.795976],[-122.406594,37.795988],[-122.406604,37.796037],[-122.406613,37.796088],[-122.406625,37.796096],[-122.406779,37.796861],[-122.40677,37.796873],[-122.40678,37.796917],[-122.406789,37.796964],[-122.4068,37.796971],[-122.406909,37.797487],[-122.406411,37.797553],[-122.406492,37.797608],[-122.40674,37.79778],[-122.406845,37.797849],[-122.406958,37.79792],[-122.406999,37.797932],[-122.407013,37.797948],[-122.407134,37.798056],[-122.407853,37.798555],[-122.407912,37.798618],[-122.407951,37.798637],[-122.407997,37.798646],[-122.408041,37.798675],[-122.408158,37.798751],[-122.408174,37.798775],[-122.408825,37.799232],[-122.408849,37.799241],[-122.408839,37.799254],[-122.40881,37.799337],[-122.408787,37.799415],[-122.408777,37.799453],[-122.408808,37.799479],[-122.408858,37.79952],[-122.408915,37.799573],[-122.40899,37.799622],[-122.409082,37.799674],[-122.409125,37.799702],[-122.409145,37.799717],[-122.409124,37.799742],[-122.409251,37.800355],[-122.409277,37.800368],[-122.409285,37.800434],[-122.409304,37.800501],[-122.409289,37.800513],[-122.409303,37.800583],[-122.409359,37.800826],[-122.409421,37.801166],[-122.409442,37.801282],[-122.409468,37.801298],[-122.409481,37.801363],[-122.40952,37.801358],[-122.409561,37.801353],[-122.409806,37.801322],[-122.409561,37.801353],[-122.40952,37.801358],[-122.409481,37.801363],[-122.40939,37.801375],[-122.409306,37.801385],[-122.409269,37.80139],[-122.408945,37.80143],[-122.408569,37.801477],[-122.408148,37.801529],[-122.407894,37.80156],[-122.407849,37.801567],[-122.40779,37.801573],[-122.407803,37.801658],[-122.40792,37.802214],[-122.407922,37.802226],[-122.407962,37.802422],[-122.407967,37.802447],[-122.407929,37.802451],[-122.407914,37.802453],[-122.406976,37.802583],[-122.406874,37.802592],[-122.406776,37.802586],[-122.406732,37.802595],[-122.406697,37.802619],[-122.406695,37.80263],[-122.406656,37.802589],[-122.406564,37.802606],[-122.406498,37.802623],[-122.406446,37.802636],[-122.406331,37.802597],[-122.406305,37.802603],[-122.406267,37.80255],[-122.406043,37.80265],[-122.406002,37.80265],[-122.405985,37.802604],[-122.405938,37.802467],[-122.40587,37.802482],[-122.405778,37.802496],[-122.405724,37.802452],[-122.405724,37.802452],[-122.405778,37.802496],[-122.40587,37.802482],[-122.405938,37.802467],[-122.405985,37.802604],[-122.406002,37.80265],[-122.406043,37.80265],[-122.406267,37.80255],[-122.406305,37.802603],[-122.406331,37.802597],[-122.406446,37.802636],[-122.406498,37.802623],[-122.406564,37.802606],[-122.406656,37.802589],[-122.406695,37.80263],[-122.406697,37.802619],[-122.406732,37.802595],[-122.406776,37.802586],[-122.406874,37.802592],[-122.406976,37.802583],[-122.407914,37.802453],[-122.407929,37.802451],[-122.407967,37.802447],[-122.407979,37.802505],[-122.407995,37.802586],[-122.408041,37.80287],[-122.408089,37.803097],[-122.408143,37.803355],[-122.408148,37.803377],[-122.408162,37.803444],[-122.408175,37.803512],[-122.408256,37.803919],[-122.408334,37.804306],[-122.408345,37.804364],[-122.408363,37.80445],[-122.408438,37.804834],[-122.408517,37.805219],[-122.40852,37.805235],[-122.408472,37.805237],[-122.408213,37.805267],[-122.408196,37.8053],[-122.408158,37.805295],[-122.408026,37.805315],[-122.408043,37.805376],[-122.407854,37.805321],[-122.407876,37.805389],[-122.407039,37.805495],[-122.406977,37.805502],[-122.406991,37.805577],[-122.407066,37.805952],[-122.407152,37.806352],[-122.407166,37.806435],[-122.407179,37.806535],[-122.407274,37.807009],[-122.407316,37.807223],[-122.407392,37.807262],[-122.407411,37.807271],[-122.40744,37.807286],[-122.407455,37.807294],[-122.407554,37.807345],[-122.407663,37.807406],[-122.407713,37.807434],[-122.407703,37.807447],[-122.407665,37.807501],[-122.407645,37.807531],[-122.407599,37.807596],[-122.407596,37.807601],[-122.40758,37.807624],[-122.407563,37.807647],[-122.407656,37.807686],[-122.408939,37.808213],[-122.408997,37.808229],[-122.409035,37.808243],[-122.409118,37.808307],[-122.409287,37.808375],[-122.409655,37.808415],[-122.409627,37.808556],[-122.409614,37.808623],[-122.409604,37.808674],[-122.409614,37.808623],[-122.409627,37.808556],[-122.409655,37.808415],[-122.410138,37.808469],[-122.410539,37.808512],[-122.410633,37.808562],[-122.4108,37.808598],[-122.41089,37.808612],[-122.411055,37.808635],[-122.411572,37.808709],[-122.411843,37.808748],[-122.412402,37.808826],[-122.412403,37.808743],[-122.412432,37.808681],[-122.412552,37.808692],[-122.412644,37.808698],[-122.412661,37.808705],[-122.412669,37.808693],[-122.412705,37.80868],[-122.413007,37.808672],[-122.413013,37.808667],[-122.413074,37.80866],[-122.413549,37.808599],[-122.414109,37.808528],[-122.41421,37.808515],[-122.414284,37.808505],[-122.41436,37.808496],[-122.415521,37.808347],[-122.415734,37.808322],[-122.415799,37.808313],[-122.415866,37.808304],[-122.415933,37.808295],[-122.415918,37.808224],[-122.415916,37.808213],[-122.416607,37.808126],[-122.417292,37.80804],[-122.417387,37.808012],[-122.417358,37.807949],[-122.41731,37.807708],[-122.417202,37.807167],[-122.417292,37.807155],[-122.41732,37.807151],[-122.417397,37.807141],[-122.417752,37.807096],[-122.418115,37.807049],[-122.418175,37.807042],[-122.418552,37.806998],[-122.418843,37.806965],[-122.418945,37.806953],[-122.418929,37.806871],[-122.418914,37.806805],[-122.418834,37.806379],[-122.41882,37.806269],[-122.418815,37.806137],[-122.418793,37.806028],[-122.418862,37.806019],[-122.41884,37.80592],[-122.418826,37.805856],[-122.418643,37.805092],[-122.418654,37.805072],[-122.418634,37.804999],[-122.418622,37.804916],[-122.418614,37.804907],[-122.418451,37.804163],[-122.418442,37.804153],[-122.418378,37.804082],[-122.418362,37.804083],[-122.418215,37.803352],[-122.418189,37.803221],[-122.41817,37.803128],[-122.418161,37.803082],[-122.418011,37.802338],[-122.418001,37.802289],[-122.418093,37.802273],[-122.418078,37.802215],[-122.418057,37.802129],[-122.418115,37.802109],[-122.418244,37.802092],[-122.41832,37.802096],[-122.418378,37.802089],[-122.418467,37.802071],[-122.418695,37.80205],[-122.418725,37.802048],[-122.418876,37.80202],[-122.41896,37.802014],[-122.418972,37.802012],[-122.418985,37.802011],[-122.419012,37.802007],[-122.419036,37.802006],[-122.419066,37.802004],[-122.41924,37.801976],[-122.419286,37.801971],[-122.419325,37.801966],[-122.41949,37.801941],[-122.419524,37.801933],[-122.419532,37.801998],[-122.419544,37.802056],[-122.419551,37.802092],[-122.419711,37.802877],[-122.419722,37.802931],[-122.419743,37.803028],[-122.419816,37.803018],[-122.419837,37.803016],[-122.419853,37.803013],[-122.419936,37.803002],[-122.420077,37.803686],[-122.42019,37.804233],[-122.420196,37.804261],[-122.420288,37.804708],[-122.420303,37.804786],[-122.420317,37.804855],[-122.421719,37.804671],[-122.421767,37.804679],[-122.421891,37.804661],[-122.421925,37.804657],[-122.421976,37.8049],[-122.421981,37.804928],[-122.421987,37.804954],[-122.422079,37.805397],[-122.422116,37.805417],[-122.422129,37.805482],[-122.422149,37.805579],[-122.422198,37.805849],[-122.422347,37.805833],[-122.422357,37.805884],[-122.42245,37.805874],[-122.422489,37.805908],[-122.422519,37.805897],[-122.422565,37.805901],[-122.422584,37.805911],[-122.422603,37.805935],[-122.422826,37.805879],[-122.42285,37.805876],[-122.422895,37.80587],[-122.422967,37.805861],[-122.423097,37.805847],[-122.423123,37.805812],[-122.423169,37.805807],[-122.423415,37.805782],[-122.423391,37.805659],[-122.423404,37.805657],[-122.423576,37.805633],[-122.423617,37.805628],[-122.423634,37.805626],[-122.423584,37.805398],[-122.423579,37.805375],[-122.423565,37.805302],[-122.423555,37.805254],[-122.423553,37.805246],[-122.423552,37.805237],[-122.423563,37.805216],[-122.423408,37.804468],[-122.423502,37.804455],[-122.423606,37.80444],[-122.424938,37.804265],[-122.424967,37.80427],[-122.425012,37.80427],[-122.425069,37.804261],[-122.425152,37.804247],[-122.425222,37.804244],[-122.425322,37.804241],[-122.425356,37.804236],[-122.425373,37.804235],[-122.425396,37.804244],[-122.42547,37.804362],[-122.42573,37.805193],[-122.426221,37.80562],[-122.426285,37.805605],[-122.426495,37.805556],[-122.426725,37.805516],[-122.426871,37.805498],[-122.427031,37.805493],[-122.427102,37.805518],[-122.42719,37.805499],[-122.427307,37.805479],[-122.427817,37.805821],[-122.427866,37.805862],[-122.427852,37.805874],[-122.427832,37.805915],[-122.427836,37.805936],[-122.427868,37.80598],[-122.428024,37.805957],[-122.428111,37.805947],[-122.428279,37.805927],[-122.428285,37.805971],[-122.428293,37.806026],[-122.428305,37.806052],[-122.428359,37.806168],[-122.428392,37.806202],[-122.428343,37.806236],[-122.428337,37.806255],[-122.42834,37.806272],[-122.428382,37.80632],[-122.428684,37.806258],[-122.428844,37.806228],[-122.428684,37.806258],[-122.428666,37.806214],[-122.428653,37.806179],[-122.428618,37.80603],[-122.428599,37.805948],[-122.428721,37.805748],[-122.428737,37.805699],[-122.428736,37.805648],[-122.42892,37.805611],[-122.428976,37.80561],[-122.429029,37.805621],[-122.429075,37.80565],[-122.429106,37.805693],[-122.429123,37.805792],[-122.429111,37.805896],[-122.429127,37.805938],[-122.429158,37.805967],[-122.429212,37.805984],[-122.429274,37.805985],[-122.42932,37.805973],[-122.429366,37.805938],[-122.429381,37.805863],[-122.429381,37.805809],[-122.429368,37.805742],[-122.429314,37.805605],[-122.429316,37.805564],[-122.42936,37.805542],[-122.429434,37.805676],[-122.429472,37.805723],[-122.429513,37.805757],[-122.429649,37.805821],[-122.429712,37.805827],[-122.429809,37.805805],[-122.430028,37.805709],[-122.430045,37.805652],[-122.43008,37.805594],[-122.430126,37.805545],[-122.430188,37.8055],[-122.430281,37.805461],[-122.430595,37.805378],[-122.430745,37.805324],[-122.430828,37.80529],[-122.431011,37.805197],[-122.431052,37.805166],[-122.431081,37.805124],[-122.431139,37.805004],[-122.4312,37.804949],[-122.43125,37.804922],[-122.431309,37.8049],[-122.431387,37.804881],[-122.431449,37.804877],[-122.431516,37.804881],[-122.431584,37.804893],[-122.431642,37.804912],[-122.431698,37.804939],[-122.431734,37.804969],[-122.431775,37.804987],[-122.431843,37.805041],[-122.431874,37.805055],[-122.431907,37.80506],[-122.431936,37.805085],[-122.431941,37.805136],[-122.431969,37.805182],[-122.431982,37.805223],[-122.431998,37.805242],[-122.43202,37.805269],[-122.432068,37.805285],[-122.432141,37.805305],[-122.432223,37.805309],[-122.432271,37.805317],[-122.433591,37.80514],[-122.433749,37.805166],[-122.433894,37.80519],[-122.435251,37.806042],[-122.435264,37.80605],[-122.435617,37.806283],[-122.435942,37.806495],[-122.436009,37.806522],[-122.436087,37.806554],[-122.436126,37.80657],[-122.436245,37.806603],[-122.436371,37.806625],[-122.436488,37.806634],[-122.436645,37.806629],[-122.437343,37.806538],[-122.437675,37.806497],[-122.439639,37.806241],[-122.440175,37.806175],[-122.442114,37.805934],[-122.442137,37.805932],[-122.442249,37.805921],[-122.442374,37.805908],[-122.442479,37.805893],[-122.443927,37.805701],[-122.445599,37.805486],[-122.447238,37.805259],[-122.447218,37.805177],[-122.447194,37.805075],[-122.447213,37.805064],[-122.447215,37.805055],[-122.447231,37.805053],[-122.447285,37.805047],[-122.447379,37.805035],[-122.447392,37.805031],[-122.447427,37.805043],[-122.447476,37.805042],[-122.447696,37.805004],[-122.447789,37.80497],[-122.447887,37.804925],[-122.448143,37.804755],[-122.448191,37.8047],[-122.448198,37.804648],[-122.448261,37.80463],[-122.448284,37.804618],[-122.448313,37.8046],[-122.448356,37.804573],[-122.448293,37.804485],[-122.44823,37.804387],[-122.44821,37.804255],[-122.448165,37.804238],[-122.448187,37.80414],[-122.448183,37.804093],[-122.44816,37.804002],[-122.448335,37.804023],[-122.448368,37.803969],[-122.44833,37.803775],[-122.448299,37.803599],[-122.448317,37.803589],[-122.448462,37.803574],[-122.448514,37.803542],[-122.448565,37.803487],[-122.448603,37.803425],[-122.44865,37.803315],[-122.448665,37.803235],[-122.448553,37.803184],[-122.448504,37.803179],[-122.44847,37.803185],[-122.448448,37.803114],[-122.44841,37.802921],[-122.448406,37.802899]]}}]}
