{"type":"FeatureCollection","features":[{"type":"Feature","properties":{"source":"BRouter, profile hiking-mountain; \u00a9 OpenStreetMap contributors, ODbL"},"geometry":{"type":"LineString","coordinates":[[126.976748,37.571088],[126.976687,37.571611],[126.976695,37.572023],[126.976686,37.573556],[126.976672,37.5742],[126.976581,37.574236],[126.976587,37.574628],[126.976601,37.574773],[126.976752,37.574882],[126.976765,37.57503],[126.976773,37.575141],[126.976781,37.575254],[126.976785,37.575306],[126.976888,37.575312],[126.976991,37.575326],[126.977065,37.575347],[126.977165,37.5754],[126.977154,37.575415],[126.977354,37.575553],[126.977473,37.575653],[126.977567,37.575711],[126.977676,37.575761],[126.977815,37.575808],[126.978008,37.57586],[126.978822,37.57592],[126.978878,37.575931],[126.979343,37.576396],[126.979415,37.576373],[126.979483,37.576402],[126.979581,37.5764],[126.979628,37.576377],[126.979643,37.576374],[126.979678,37.57781],[126.980422,37.57771],[126.980658,37.577678],[126.980718,37.577721],[126.980881,37.578155],[126.980956,37.57841],[126.980989,37.578403],[126.98107,37.578678],[126.981199,37.578745],[126.98123,37.578743],[126.981289,37.578677],[126.981335,37.578659],[126.981511,37.578636],[126.981508,37.578622],[126.981793,37.578624],[126.982139,37.578645],[126.982157,37.578873],[126.982162,37.578928],[126.98228,37.57892],[126.982858,37.578936],[126.983182,37.578929],[126.983706,37.579426],[126.983982,37.579598],[126.98417,37.579603],[126.984194,37.579644],[126.984243,37.579923],[126.984373,37.580295],[126.984725,37.580209],[126.985038,37.580164],[126.985057,37.580607],[126.98506,37.580968],[126.985071,37.58126],[126.985075,37.581459],[126.985086,37.5818],[126.985124,37.582547],[126.984995,37.582554],[126.985124,37.582547],[126.985086,37.5818],[126.985075,37.581459],[126.985071,37.58126],[126.98506,37.580968],[126.985057,37.580607],[126.985038,37.580164],[126.985036,37.580067],[126.98502,37.579616],[126.985016,37.579382],[126.985,37.579262],[126.98509,37.5792],[126.985172,37.579063],[126.985277,37.578795],[126.985506,37.578219],[126.985551,37.578133],[126.985664,37.577883],[126.985752,37.577878],[126.985798,37.577875],[126.986023,37.577879],[126.986759,37.577911],[126.98677,37.577646],[126.987532,37.577658],[126.988157,37.577663],[126.988162,37.577361],[126.988698,37.577368],[126.988892,37.57737],[126.988888,37.57755],[126.988886,37.577705],[126.988886,37.577781],[126.989066,37.57778],[126.989065,37.577874],[126.989129,37.577875],[126.98915,37.577861],[126.989156,37.577735],[126.989166,37.577723],[126.989181,37.577723],[126.989193,37.577737],[126.989184,37.577922],[126.989195,37.577932],[126.989238,37.577934],[126.989215,37.578233],[126.989371,37.578257],[126.989486,37.578292],[126.989556,37.57833],[126.989792,37.578409],[126.990016,37.578461],[126.990157,37.578472],[126.990223,37.578479],[126.99037,37.578489],[126.990412,37.578492],[126.990495,37.578508],[126.990578,37.578524],[126.990571,37.578548],[126.991156,37.578659],[126.991146,37.578764],[126.991179,37.578767],[126.991174,37.578816],[126.991168,37.578882],[126.991052,37.578872],[126.991055,37.578853],[126.990802,37.57883],[126.990744,37.579197],[126.990718,37.579438],[126.990901,37.57945],[126.990909,37.579391],[126.990901,37.57945],[126.990718,37.579438],[126.990744,37.579197],[126.990802,37.57883],[126.991055,37.578853],[126.991052,37.578872],[126.991168,37.578882],[126.991174,37.578816],[126.991179,37.578767],[126.991146,37.578764],[126.991156,37.578659],[126.990571,37.578548],[126.990578,37.578524],[126.990495,37.578508],[126.990412,37.578492],[126.99037,37.578489],[126.990223,37.578479],[126.990157,37.578472],[126.990016,37.578461],[126.989792,37.578409],[126.989947,37.577948],[126.989871,37.577936],[126.98988,37.577901],[126.989912,37.577778],[126.989926,37.577723],[126.990002,37.577735],[126.990094,37.577502],[126.990016,37.577496],[126.990042,37.577357],[126.990069,37.577248],[126.990162,37.577245],[126.990205,37.577126],[126.990224,37.577043],[126.990333,37.576672],[126.990604,37.576716],[126.990717,37.576327],[126.990901,37.575698],[126.991056,37.575714],[126.991416,37.575751],[126.991573,37.575258],[126.991957,37.574582],[126.992208,37.57429],[126.992434,37.574027],[126.992574,37.573768],[126.992597,37.573771],[126.992706,37.573575],[126.993174,37.572885],[126.993611,37.572361],[126.99385,37.572102],[126.99384,37.572092],[126.994067,37.572039],[126.994044,37.571882],[126.994073,37.571825],[126.994106,37.571788],[126.994194,37.571634],[126.994106,37.571788],[126.994073,37.571825],[126.994044,37.571882],[126.994067,37.572039],[126.99384,37.572092],[126.99385,37.572102],[126.993611,37.572361],[126.993174,37.572885],[126.992706,37.573575],[126.992597,37.573771],[126.992574,37.573768],[126.992434,37.574027],[126.992208,37.57429],[126.991567,37.574215],[126.991342,37.574186],[126.991066,37.574157],[126.990978,37.574449],[126.990701,37.574388],[126.990239,37.574311],[126.990083,37.574299],[126.989565,37.574241],[126.989094,37.574166],[126.989053,37.574151],[126.987732,37.57357],[126.987625,37.573518],[126.987036,37.573266],[126.986812,37.573186],[126.986512,37.573078],[126.986233,37.572978],[126.986084,37.573166],[126.98604,37.573208],[126.985911,37.573321],[126.985816,37.573379],[126.98549,37.573593],[126.985358,37.57369],[126.985172,37.573804],[126.985033,37.573902],[126.985118,37.573924],[126.985218,37.573976],[126.985118,37.573924],[126.985033,37.573902],[126.984918,37.573994],[126.984677,37.574166],[126.984373,37.573975],[126.983878,37.573739],[126.9838,37.573744],[126.983685,37.573752],[126.982971,37.573729],[126.982961,37.57388],[126.982683,37.573863],[126.982473,37.573857],[126.982118,37.573861],[126.982083,37.573667],[126.981802,37.573654],[126.982083,37.573667],[126.981999,37.573383],[126.98168,37.573413],[126.981605,37.573096],[126.98121,37.573141],[126.981067,37.57318],[126.980866,37.572791],[126.980569,37.572398],[126.980134,37.572507],[126.980118,37.572475],[126.980086,37.572452],[126.980045,37.572442],[126.980003,37.572446],[126.979967,37.572464],[126.979943,37.572493],[126.979941,37.572508],[126.979247,37.572459],[126.97925,37.572152],[126.979279,37.571766],[126.979296,37.571549],[126.979312,37.571351],[126.979317,37.571202],[126.979336,37.570415],[126.979546,37.570408],[126.979545,37.570261],[126.979545,37.570238],[126.979544,37.570186],[126.979544,37.570167],[126.979544,37.570136],[126.979542,37.570054],[126.979939,37.570055],[126.980814,37.570053],[126.980847,37.569835],[126.980846,37.569663],[126.980814,37.56952],[126.980793,37.569489],[126.980805,37.569222],[126.981016,37.569204],[126.981019,37.56918],[126.981043,37.569148],[126.98136,37.569124],[126.98136,37.56911],[126.981324,37.569112],[126.981323,37.569101],[126.981305,37.569101],[126.980193,37.569143],[126.980184,37.569072],[126.980168,37.568997],[126.980092,37.569003],[126.979433,37.569062],[126.979027,37.569078],[126.978693,37.569083],[126.978664,37.569083],[126.978003,37.569128],[126.977893,37.569128],[126.977886,37.569096],[126.977886,37.569072],[126.977885,37.569024],[126.977552,37.569045],[126.977344,37.568778],[126.977347,37.56804],[126.977296,37.568029],[126.977271,37.567932],[126.977304,37.567249],[126.977311,37.567044],[126.977312,37.567002],[126.977314,37.56694],[126.977305,37.566936],[126.977288,37.566909],[126.977288,37.566889],[126.977239,37.56688],[126.977114,37.566869],[126.976951,37.566869],[126.976953,37.56683],[126.97692,37.566725],[126.976922,37.566685],[126.976925,37.566638],[126.976925,37.566606],[126.976897,37.566606],[126.976836,37.566594],[126.976803,37.566537],[126.976818,37.5658],[126.976803,37.566537],[126.976836,37.566594],[126.976897,37.566606],[126.976925,37.566606],[126.976967,37.566597],[126.977005,37.566575],[126.976994,37.566127],[126.977025,37.565859],[126.97706,37.565234],[126.977057,37.565047],[126.977026,37.564999],[126.976994,37.564972],[126.976952,37.564867],[126.976899,37.56462],[126.976796,37.564342],[126.976731,37.564283],[126.976748,37.564255],[126.976809,37.564148],[126.976742,37.563985],[126.97667,37.56389],[126.97671,37.563846],[126.976769,37.563838],[126.97692,37.56382],[126.976976,37.563813],[126.977065,37.563804],[126.97695,37.563479],[126.976796,37.563059],[126.976558,37.562442],[126.976529,37.562369],[126.976481,37.562223],[126.976361,37.561864],[126.976339,37.561808],[126.97627,37.561751],[126.975912,37.56087],[126.975896,37.560817],[126.975921,37.56076],[126.975983,37.560697],[126.97598,37.560644],[126.975974,37.560516],[126.975974,37.560442],[126.975961,37.560256],[126.975949,37.560235],[126.97581,37.560226],[126.975721,37.56022],[126.975644,37.560216],[126.975629,37.560231],[126.975587,37.560272],[126.975461,37.560305],[126.975401,37.560293],[126.975461,37.560305],[126.975587,37.560272],[126.975629,37.560231],[126.975436,37.560063],[126.975276,37.559922],[126.974814,37.559497],[126.974712,37.559227],[126.975222,37.558983],[126.975534,37.559026],[126.975556,37.558915],[126.975638,37.558742],[126.975712,37.558584],[126.975811,37.558427],[126.975924,37.558473],[126.975959,37.558487],[126.976033,37.558513],[126.976166,37.558579],[126.976202,37.558498],[126.976852,37.558553],[126.977212,37.558606],[126.977235,37.558908],[126.977258,37.559215],[126.977235,37.558908],[126.977212,37.558606],[126.976852,37.558553],[126.976202,37.558498],[126.976142,37.558428],[126.976252,37.558126],[126.976387,37.557797],[126.976429,37.557747],[126.976457,37.557668],[126.976494,37.557294],[126.976515,37.557048],[126.976541,37.556854],[126.976681,37.55659],[126.97682,37.556417],[126.976917,37.556285],[126.976983,37.556197],[126.977004,37.556169],[126.977036,37.556127],[126.977177,37.556123],[126.977188,37.556094],[126.977202,37.556023],[126.977222,37.555921],[126.977337,37.555694],[126.977644,37.555428],[126.977776,37.555359],[126.977848,37.555322],[126.978034,37.555162],[126.978068,37.555132],[126.978494,37.554929],[126.978549,37.554917],[126.978652,37.554922],[126.978716,37.554942],[126.978773,37.554973],[126.978814,37.555007],[126.978841,37.555043],[126.978857,37.555127],[126.978851,37.555301],[126.978859,37.555333],[126.978895,37.555366],[126.978985,37.555403],[126.979039,37.555413],[126.979071,37.555411],[126.979112,37.555399],[126.979289,37.55531],[126.979495,37.555203],[126.979602,37.555161],[126.979849,37.55504],[126.979948,37.554974],[126.980011,37.554922],[126.979878,37.554715],[126.979862,37.5547],[126.979948,37.554668],[126.980092,37.554581],[126.980244,37.55451],[126.980365,37.554414],[126.980457,37.554303],[126.980569,37.554196],[126.980693,37.554238],[126.980839,37.554248],[126.98109,37.554288],[126.981439,37.554193],[126.981452,37.554206],[126.981584,37.55415],[126.981978,37.554119],[126.982651,37.553877],[126.983052,37.553689],[126.983124,37.553774],[126.983374,37.5537],[126.983459,37.553607],[126.983486,37.55355],[126.983598,37.553346],[126.983656,37.553267],[126.984031,37.553176],[126.984415,37.553205],[126.984496,37.55323],[126.984693,37.553394],[126.984712,37.55344],[126.984621,37.553566],[126.984603,37.553586],[126.984561,37.553674],[126.984565,37.553738],[126.984622,37.553796],[126.984663,37.553822],[126.984734,37.55385],[126.984808,37.553905],[126.984809,37.55401],[126.984834,37.55407],[126.984921,37.554105],[126.985034,37.554128],[126.985069,37.554088],[126.985081,37.554028],[126.985101,37.554018],[126.985135,37.554034],[126.985323,37.5542],[126.985394,37.554205],[126.98541,37.554047],[126.985441,37.553913],[126.985487,37.553854],[126.985536,37.553823],[126.985581,37.553764],[126.985641,37.553721],[126.985756,37.553661],[126.985887,37.553635],[126.985931,37.553615],[126.985954,37.553604],[126.986098,37.553523],[126.986223,37.553409],[126.986341,37.553288],[126.986542,37.552939],[126.986558,37.552907],[126.986622,37.552789],[126.986858,37.552555],[126.987007,37.552449],[126.987097,37.552399],[126.987116,37.552366],[126.987137,37.55225],[126.987163,37.552189],[126.987363,37.552277],[126.987405,37.552234],[126.987461,37.552228],[126.987516,37.552228],[126.98767,37.552059],[126.987652,37.552005],[126.987769,37.551876],[126.987824,37.551858],[126.987937,37.551861],[126.987994,37.551813],[126.988045,37.551726],[126.987975,37.551726],[126.9879,37.55169],[126.987957,37.551517],[126.987984,37.551449],[126.988035,37.551269]]}}]}
