{"type":"FeatureCollection","features":[{"type":"Feature","properties":{"source":"BRouter, profile hiking-mountain; \u00a9 OpenStreetMap contributors, ODbL"},"geometry":{"type":"LineString","coordinates":[[103.844349,1.28159],[103.844656,1.28142],[103.844683,1.281471],[103.844721,1.281452],[103.84473,1.281449],[103.844819,1.281396],[103.845012,1.281712],[103.845062,1.2818],[103.845133,1.281927],[103.845296,1.282217],[103.845438,1.282474],[103.845564,1.282701],[103.845503,1.282741],[103.845482,1.282712],[103.845503,1.282741],[103.845564,1.282701],[103.845587,1.282739],[103.845667,1.282881],[103.845843,1.283202],[103.845873,1.283251],[103.84604,1.283529],[103.845968,1.283569],[103.845995,1.283618],[103.846028,1.283676],[103.846108,1.283805],[103.846554,1.284541],[103.846845,1.285065],[103.847123,1.285479],[103.847152,1.285531],[103.847144,1.285646],[103.847624,1.286443],[103.847313,1.286608],[103.846931,1.286794],[103.846535,1.286985],[103.846261,1.287115],[103.846164,1.287128],[103.846095,1.287156],[103.846015,1.287212],[103.845862,1.28732],[103.8458,1.287364],[103.845854,1.287444],[103.845924,1.287532],[103.845972,1.287597],[103.845985,1.287613],[103.846022,1.287663],[103.846396,1.288099],[103.846472,1.288195],[103.846498,1.288232],[103.84659,1.288327],[103.846914,1.288722],[103.846833,1.288789],[103.846815,1.288829],[103.846817,1.28888],[103.846841,1.288924],[103.846778,1.288942],[103.8467,1.288964],[103.846676,1.288897],[103.846512,1.288946],[103.846564,1.289102],[103.846495,1.289123],[103.846288,1.289022],[103.846495,1.289123],[103.846564,1.289102],[103.846512,1.288946],[103.846676,1.288897],[103.8467,1.288964],[103.846778,1.288942],[103.846841,1.288924],[103.846887,1.288949],[103.846939,1.288951],[103.846986,1.288926],[103.847203,1.289191],[103.847262,1.289143],[103.847396,1.289304],[103.847504,1.28947],[103.847507,1.289555],[103.847635,1.289632],[103.847923,1.290046],[103.847979,1.290066],[103.848019,1.290078],[103.84806,1.290134],[103.848103,1.290227],[103.848155,1.290347],[103.848362,1.290419],[103.848807,1.291181],[103.848492,1.29136],[103.848259,1.29148],[103.848132,1.291545],[103.848205,1.291833],[103.848219,1.291914],[103.848213,1.291971],[103.848175,1.292051],[103.84805,1.292282],[103.848037,1.292578],[103.847985,1.292869],[103.847943,1.293069],[103.847875,1.293411],[103.847839,1.293511],[103.847422,1.29376],[103.847124,1.294443],[103.84708,1.294545],[103.847022,1.294565],[103.84708,1.294545],[103.847064,1.294664],[103.846982,1.294839],[103.846937,1.295109],[103.847001,1.295134],[103.846984,1.295279],[103.847105,1.295304],[103.847126,1.295196],[103.847212,1.295108],[103.847323,1.295054],[103.847404,1.295045],[103.847446,1.295041],[103.847747,1.295102],[103.8479,1.295156],[103.848027,1.29518],[103.848146,1.295261],[103.848182,1.295294],[103.848227,1.295337],[103.848298,1.295363],[103.848353,1.295369],[103.84844,1.295377],[103.848605,1.2955],[103.848697,1.295571],[103.848736,1.295604],[103.848778,1.295623],[103.848799,1.295644],[103.848813,1.29567],[103.848819,1.295723],[103.848998,1.295778],[103.848992,1.295795],[103.849065,1.295819],[103.849102,1.295929],[103.849153,1.296009],[103.84925,1.296095],[103.84936,1.296185],[103.84939,1.296116],[103.849439,1.296156],[103.849517,1.29618],[103.84957,1.296225],[103.849619,1.296273],[103.849661,1.296314],[103.849687,1.296291],[103.849732,1.296327],[103.849762,1.296325],[103.849789,1.296372],[103.849829,1.296424],[103.849903,1.296506],[103.850045,1.296607],[103.850133,1.296787],[103.850202,1.296734],[103.850434,1.296554],[103.850705,1.296359],[103.850731,1.296343],[103.85096,1.296648],[103.851043,1.296724],[103.851095,1.296773],[103.851137,1.296745],[103.851236,1.296679],[103.851918,1.296115],[103.851949,1.296087],[103.852061,1.295983],[103.852092,1.295955],[103.85211,1.295953],[103.852134,1.295937],[103.852426,1.295724],[103.852564,1.29562],[103.853083,1.295226],[103.853144,1.295184],[103.85327,1.295099],[103.85393,1.294587],[103.854114,1.294841],[103.854277,1.294727],[103.854337,1.294681],[103.854526,1.29454],[103.85464,1.294564],[103.854695,1.294658],[103.854679,1.294668],[103.854695,1.294658],[103.85464,1.294564],[103.854526,1.29454],[103.854337,1.294681],[103.854277,1.294727],[103.854114,1.294841],[103.85393,1.294587],[103.85327,1.295099],[103.853224,1.295032],[103.853149,1.294922],[103.852987,1.294779],[103.85274,1.294476],[103.852674,1.294383],[103.852456,1.294071],[103.85231,1.293842],[103.852184,1.293644],[103.852227,1.293613],[103.852111,1.29352],[103.852137,1.293502],[103.852107,1.29346],[103.851886,1.293144],[103.851644,1.29273],[103.851974,1.292547],[103.851644,1.29273],[103.85142,1.292375],[103.8511,1.291824],[103.851158,1.291776],[103.851293,1.291694],[103.851353,1.291655],[103.851544,1.291532],[103.851607,1.291503],[103.851681,1.291481],[103.851774,1.291432],[103.851817,1.29139],[103.851833,1.291343],[103.851822,1.2913],[103.851798,1.291258],[103.852118,1.291073],[103.852238,1.291004],[103.852152,1.290851],[103.852137,1.290859],[103.851772,1.290215],[103.851787,1.290207],[103.851737,1.29012],[103.851584,1.289847],[103.851543,1.289776],[103.851564,1.289764],[103.851555,1.289747],[103.851564,1.28973],[103.851447,1.289522],[103.851435,1.289529],[103.851425,1.289512],[103.851402,1.289525],[103.85129,1.289325],[103.851278,1.289309],[103.851269,1.289292],[103.851237,1.289244],[103.851212,1.289209],[103.851198,1.289143],[103.851578,1.288864],[103.85153,1.288794],[103.851143,1.28824],[103.85112,1.288101],[103.851101,1.288075],[103.85076,1.287626],[103.850706,1.287704],[103.85076,1.287626],[103.850895,1.28743],[103.851327,1.286809],[103.85143,1.286712],[103.85155,1.286638],[103.851655,1.286601],[103.851766,1.2866],[103.851872,1.286636],[103.85196,1.286704],[103.852172,1.286908],[103.852185,1.286885],[103.852211,1.286815],[103.852487,1.286328],[103.852542,1.286255],[103.852587,1.28621],[103.852628,1.28618],[103.852627,1.286192],[103.852628,1.28618],[103.852587,1.28621],[103.852542,1.286255],[103.852596,1.286357],[103.85262,1.286482],[103.852869,1.286782],[103.853022,1.286862],[103.853067,1.286871],[103.853204,1.286859],[103.853238,1.28687],[103.853267,1.286891],[103.853274,1.28691],[103.8536,1.286367],[103.853615,1.286427],[103.85365,1.286571],[103.853671,1.286654],[103.853677,1.286673],[103.853691,1.286716],[103.853731,1.286678],[103.85377,1.286646],[103.853914,1.28653],[103.853991,1.286468],[103.854026,1.286441],[103.85406,1.286647],[103.854096,1.28664],[103.854118,1.28675],[103.854155,1.286784],[103.854426,1.286843],[103.854432,1.286791],[103.854426,1.286843],[103.854413,1.286945],[103.854425,1.286991],[103.854372,1.287167],[103.854345,1.287349],[103.854329,1.287585],[103.854334,1.287791],[103.854351,1.287956],[103.854385,1.288129],[103.854486,1.288424],[103.854571,1.288599],[103.854642,1.288712],[103.85476,1.288876],[103.854777,1.288898],[103.854843,1.289008],[103.854972,1.289011],[103.855467,1.288997],[103.855745,1.288988],[103.85566,1.289051],[103.855694,1.289073],[103.85576,1.289149],[103.855783,1.289208],[103.855795,1.289275],[103.855895,1.289269],[103.855968,1.289354],[103.85595,1.289365],[103.855933,1.289385],[103.855921,1.289414],[103.855922,1.289469],[103.855937,1.289502],[103.855966,1.28953],[103.856012,1.289548],[103.856045,1.289546],[103.856088,1.289529],[103.856117,1.289497],[103.856127,1.289472],[103.856129,1.289424],[103.856381,1.289407],[103.856512,1.289394],[103.856498,1.289172],[103.856609,1.289174],[103.856836,1.289162],[103.856822,1.288937],[103.857037,1.288929],[103.857283,1.288919],[103.857646,1.288891],[103.857655,1.288929],[103.857635,1.289162],[103.857587,1.289271],[103.857497,1.289448],[103.857403,1.289603],[103.857408,1.28964],[103.857542,1.289633],[103.857675,1.289628],[103.857859,1.289621],[103.858059,1.289618],[103.859854,1.289515],[103.860341,1.289493],[103.860384,1.289333],[103.860319,1.289303],[103.860274,1.289256],[103.860255,1.289213],[103.860246,1.289162],[103.860265,1.289053],[103.860316,1.288929],[103.86042,1.288657],[103.860525,1.288333],[103.860577,1.28807],[103.860608,1.28788],[103.860614,1.287738],[103.860552,1.287737],[103.86055,1.287711],[103.860539,1.287678],[103.860521,1.287676],[103.860503,1.287691],[103.860503,1.287691],[103.860521,1.287676],[103.860539,1.287678],[103.86055,1.287711],[103.860552,1.287737],[103.860614,1.287738],[103.860621,1.287582],[103.860609,1.287286],[103.860581,1.287151],[103.860683,1.287142],[103.860659,1.285498],[103.860627,1.285504],[103.860599,1.2852],[103.860523,1.284964],[103.860532,1.284715],[103.860281,1.284124],[103.860081,1.284129],[103.860023,1.284071],[103.859582,1.283368],[103.859571,1.283275],[103.859585,1.283171],[103.859611,1.283059],[103.859636,1.283014],[103.859427,1.282671],[103.85922,1.28235],[103.859283,1.282331],[103.859408,1.282263],[103.859463,1.28223],[103.859486,1.282275],[103.859474,1.282282],[103.859545,1.282396],[103.859577,1.282452],[103.859923,1.282744],[103.860084,1.282971],[103.86014,1.283082],[103.860149,1.283508],[103.860282,1.283709],[103.860337,1.283799],[103.860282,1.283709],[103.860149,1.283508],[103.86014,1.283082],[103.860226,1.283043],[103.86054,1.282909],[103.86103,1.282707],[103.861263,1.282606],[103.86154,1.28247],[103.861586,1.282452],[103.861628,1.282434],[103.861716,1.282398],[103.861817,1.282535],[103.861852,1.282571],[103.861887,1.282578],[103.86201,1.282556],[103.862305,1.282497],[103.862574,1.282444],[103.862761,1.282407],[103.862804,1.282398],[103.862851,1.2824],[103.862881,1.282402],[103.862923,1.282419],[103.863338,1.282609],[103.863443,1.282487],[103.863464,1.282465],[103.863485,1.282443],[103.863596,1.282387],[103.863628,1.282379],[103.863656,1.282361],[103.863675,1.282333],[103.863684,1.282301],[103.863681,1.282268],[103.863812,1.28206],[103.863784,1.282022],[103.863768,1.281977],[103.863765,1.281929],[103.863777,1.28188],[103.863804,1.281837],[103.86382,1.281822]]}}]}
