{"type":"FeatureCollection","features":[{"type":"Feature","properties":{"source":"BRouter, profile hiking-mountain; \u00a9 OpenStreetMap contributors, ODbL"},"geometry":{"type":"LineString","coordinates":[[151.209844,-33.847949],[151.210029,-33.848356],[151.210135,-33.848523],[151.210226,-33.848644],[151.210347,-33.848707],[151.210571,-33.848904],[151.210599,-33.84897],[151.210606,-33.849067],[151.21061,-33.849123],[151.210631,-33.849143],[151.21072,-33.849082],[151.210765,-33.849052],[151.210876,-33.848978],[151.210919,-33.84895],[151.210927,-33.848945],[151.210987,-33.848903],[151.21104,-33.848852],[151.211036,-33.848831],[151.211197,-33.848813],[151.211305,-33.848802],[151.211303,-33.848792],[151.211298,-33.848772],[151.211396,-33.84876],[151.211391,-33.84873],[151.211409,-33.848728],[151.211418,-33.848727],[151.211678,-33.848692],[151.211675,-33.848674],[151.211699,-33.848671],[151.211745,-33.848667],[151.211622,-33.847853],[151.211603,-33.847723],[151.21162,-33.847657],[151.21162,-33.847565],[151.211666,-33.847548],[151.211756,-33.84752],[151.21175,-33.847473],[151.211747,-33.847449],[151.211743,-33.847416],[151.212304,-33.847354],[151.212806,-33.847296],[151.212722,-33.846852],[151.212727,-33.846774],[151.21272,-33.846728],[151.212706,-33.84673],[151.212696,-33.846701],[151.212703,-33.846732],[151.212651,-33.846739],[151.212773,-33.847329],[151.212839,-33.847792],[151.212861,-33.848254],[151.212799,-33.848799],[151.212623,-33.849471],[151.212422,-33.8499],[151.212237,-33.850223],[151.210807,-33.852505],[151.209533,-33.854537],[151.209406,-33.85474],[151.2091,-33.855171],[151.207175,-33.858263],[151.206903,-33.858686],[151.206976,-33.858717],[151.207037,-33.858744],[151.207137,-33.858758],[151.207103,-33.858836],[151.207038,-33.859001],[151.206996,-33.859079],[151.20698,-33.859118],[151.206949,-33.859199],[151.206973,-33.859205],[151.207022,-33.85922],[151.207076,-33.859236],[151.207089,-33.85924],[151.207143,-33.85911],[151.207178,-33.859074],[151.207198,-33.859043],[151.207264,-33.858878],[151.207272,-33.858857],[151.207307,-33.858862],[151.207364,-33.858824],[151.207378,-33.858833],[151.207319,-33.858894],[151.207312,-33.858912],[151.207724,-33.858982],[151.207889,-33.859011],[151.207933,-33.859011],[151.208013,-33.859056],[151.208059,-33.859106],[151.208071,-33.859136],[151.208113,-33.859134],[151.208435,-33.859188],[151.208502,-33.859199],[151.208716,-33.859237],[151.20875,-33.859148],[151.208947,-33.858649],[151.208982,-33.858658],[151.209022,-33.858668],[151.209079,-33.858682],[151.209095,-33.858687],[151.209084,-33.858719],[151.209107,-33.858727],[151.209233,-33.858766],[151.209251,-33.858771],[151.209242,-33.858791],[151.209183,-33.858771],[151.209137,-33.858884],[151.209183,-33.858771],[151.209242,-33.858791],[151.209251,-33.858771],[151.209304,-33.858786],[151.209517,-33.858827],[151.209447,-33.859179],[151.209428,-33.859219],[151.209397,-33.859248],[151.209356,-33.859265],[151.209385,-33.859332],[151.209408,-33.859387],[151.209418,-33.859408],[151.209589,-33.859426],[151.209726,-33.859447],[151.209665,-33.859729],[151.209641,-33.859849],[151.209579,-33.860281],[151.20956,-33.860464],[151.209543,-33.860595],[151.209524,-33.860762],[151.209523,-33.86085],[151.209537,-33.860908],[151.209556,-33.860961],[151.209574,-33.860991],[151.209609,-33.861026],[151.209678,-33.861073],[151.209718,-33.861083],[151.209836,-33.861095],[151.20992,-33.861103],[151.209996,-33.86111],[151.210334,-33.86114],[151.21042,-33.861148],[151.210491,-33.861155],[151.210835,-33.861186],[151.210911,-33.861194],[151.210993,-33.861201],[151.210999,-33.861202],[151.211339,-33.861232],[151.21144,-33.861242],[151.211491,-33.861246],[151.211986,-33.861296],[151.212116,-33.861335],[151.212329,-33.861254],[151.212419,-33.861202],[151.212548,-33.861105],[151.212598,-33.861046],[151.212639,-33.860979],[151.212667,-33.860894],[151.212711,-33.86054],[151.212753,-33.86017],[151.212771,-33.860018],[151.212797,-33.859771],[151.212807,-33.859666],[151.212863,-33.859431],[151.212889,-33.85924],[151.212942,-33.85901],[151.212955,-33.858981],[151.21303,-33.858883],[151.213138,-33.858802],[151.213331,-33.858712],[151.213422,-33.858684],[151.213517,-33.858663],[151.213689,-33.858636],[151.213843,-33.858549],[151.213963,-33.858435],[151.214088,-33.858247],[151.214119,-33.858164],[151.214148,-33.858057],[151.21419,-33.857901],[151.214376,-33.857937],[151.214794,-33.858019],[151.214856,-33.85803],[151.21528,-33.858113],[151.21541,-33.858138],[151.215535,-33.858132],[151.215583,-33.858321],[151.215608,-33.85845],[151.215696,-33.858545],[151.215874,-33.858668],[151.216017,-33.85879],[151.216178,-33.858905],[151.216305,-33.858982],[151.216416,-33.85904],[151.216533,-33.859128],[151.216586,-33.859171],[151.216788,-33.859383],[151.216993,-33.859672],[151.217081,-33.859816],[151.217149,-33.859966],[151.217186,-33.86012],[151.217209,-33.86038],[151.217197,-33.860535],[151.217172,-33.860738],[151.217126,-33.860914],[151.216921,-33.861699],[151.216899,-33.861823],[151.216897,-33.861941],[151.216893,-33.862006],[151.21691,-33.86214],[151.216948,-33.862307],[151.217022,-33.862503],[151.217033,-33.862665],[151.217072,-33.862907],[151.217086,-33.863103],[151.217074,-33.863349],[151.217063,-33.863382],[151.217035,-33.863596],[151.217027,-33.863858],[151.21702,-33.863958],[151.217016,-33.864002],[151.21702,-33.863958],[151.217027,-33.863858],[151.217035,-33.863596],[151.217562,-33.863481],[151.217673,-33.863465],[151.218506,-33.863361],[151.218724,-33.863354],[151.218946,-33.863333],[151.218992,-33.863321],[151.219206,-33.863264],[151.219351,-33.86321],[151.219531,-33.863124],[151.219738,-33.862987],[151.219861,-33.862881],[151.220004,-33.862741],[151.220307,-33.862375],[151.220356,-33.862293],[151.220371,-33.862269],[151.220615,-33.861838],[151.220875,-33.861318],[151.220934,-33.86118],[151.221116,-33.860701],[151.221194,-33.860459],[151.221241,-33.860287],[151.221276,-33.860124],[151.221409,-33.859773],[151.221479,-33.859642],[151.221613,-33.859429],[151.221696,-33.859318],[151.221759,-33.859271],[151.221836,-33.859249],[151.221878,-33.859244],[151.221933,-33.859251],[151.22203,-33.859276],[151.222192,-33.859335],[151.222278,-33.85938],[151.222337,-33.85941],[151.22246,-33.859472],[151.222563,-33.859596],[151.222602,-33.859675],[151.222542,-33.85968],[151.22251,-33.859695],[151.222504,-33.859709],[151.222507,-33.859723],[151.222511,-33.85973],[151.222456,-33.859764],[151.222511,-33.85973],[151.222507,-33.859723],[151.222504,-33.859709],[151.22251,-33.859695],[151.222542,-33.85968],[151.222602,-33.859675],[151.222623,-33.859673],[151.222649,-33.85967],[151.222669,-33.859667],[151.222701,-33.859948],[151.222719,-33.86023],[151.222792,-33.860912],[151.222813,-33.86108],[151.222877,-33.861428],[151.222934,-33.861892],[151.222944,-33.862017],[151.222946,-33.862148],[151.22294,-33.862241],[151.2229,-33.862383],[151.222845,-33.862489],[151.2228,-33.862549],[151.222752,-33.862598],[151.222667,-33.862668],[151.222522,-33.862764],[151.222378,-33.86285],[151.222167,-33.86295],[151.222053,-33.862991],[151.221914,-33.863024],[151.221844,-33.863061],[151.221645,-33.863252],[151.221498,-33.863488],[151.221362,-33.863621],[151.221277,-33.863716],[151.221243,-33.863829],[151.221229,-33.863892],[151.22122,-33.863934],[151.221092,-33.86425],[151.22102,-33.864473],[151.220979,-33.86454],[151.220923,-33.8646],[151.220719,-33.86478],[151.220591,-33.864972],[151.220557,-33.865005],[151.220259,-33.865293],[151.220162,-33.865503],[151.220154,-33.86552],[151.220041,-33.865685],[151.219916,-33.86583],[151.219753,-33.865945],[151.219675,-33.866071],[151.219523,-33.86615],[151.219464,-33.866219],[151.219182,-33.866403],[151.219106,-33.866454],[151.218929,-33.866567],[151.218564,-33.866881],[151.218527,-33.866911],[151.218468,-33.866946],[151.218351,-33.866995],[151.218188,-33.867033],[151.21813,-33.867053],[151.218013,-33.867119],[151.217914,-33.867192],[151.217896,-33.867215],[151.21789,-33.867252],[151.217808,-33.867348],[151.217775,-33.86736],[151.217369,-33.867845],[151.217361,-33.867855],[151.21728,-33.867953],[151.217239,-33.868036],[151.217231,-33.868048],[151.217173,-33.868116],[151.217172,-33.868212],[151.217103,-33.868331],[151.217024,-33.868414],[151.216897,-33.868541],[151.216704,-33.868724],[151.216629,-33.868781],[151.21655,-33.868797],[151.216473,-33.868803],[151.2164,-33.868829],[151.216273,-33.868858],[151.216238,-33.868875],[151.216187,-33.868899],[151.216076,-33.868952],[151.215608,-33.869213],[151.215375,-33.869336],[151.215349,-33.869324],[151.215325,-33.869296],[151.215276,-33.869239],[151.214858,-33.869475],[151.21439,-33.86974],[151.214363,-33.869761],[151.214221,-33.869869],[151.214208,-33.869879],[151.214128,-33.869945],[151.214062,-33.869994],[151.214033,-33.870017],[151.213765,-33.870215],[151.213636,-33.870288],[151.213565,-33.870317],[151.213506,-33.870332],[151.21344,-33.870349],[151.213256,-33.870356],[151.213107,-33.870345],[151.213024,-33.870328],[151.212983,-33.870291],[151.21295,-33.870269],[151.212876,-33.870199],[151.212831,-33.870138],[151.212714,-33.87001],[151.212597,-33.869914],[151.212532,-33.869877],[151.212465,-33.869848],[151.212377,-33.869822],[151.212358,-33.869818],[151.212377,-33.869822],[151.212465,-33.869848],[151.212532,-33.869877],[151.212597,-33.869914],[151.212714,-33.87001],[151.212831,-33.870138],[151.212876,-33.870199],[151.21295,-33.870269],[151.212983,-33.870291],[151.21296,-33.870304],[151.212902,-33.870337],[151.21282,-33.870384],[151.212781,-33.870406],[151.212766,-33.870414],[151.212751,-33.870421],[151.212804,-33.870533],[151.212851,-33.870699],[151.212852,-33.870795],[151.212842,-33.870888],[151.212862,-33.870904],[151.212877,-33.870919],[151.21281,-33.871402],[151.212714,-33.872097],[151.212709,-33.872132],[151.212699,-33.872131],[151.212592,-33.872129],[151.212554,-33.872472],[151.21252,-33.872516],[151.212544,-33.872562],[151.212471,-33.873048],[151.212556,-33.873058],[151.21252,-33.873336],[151.212452,-33.873531],[151.212443,-33.873576],[151.212417,-33.873691],[151.212402,-33.873764],[151.212393,-33.873819],[151.21234,-33.873895],[151.212303,-33.873948],[151.212275,-33.873983],[151.212241,-33.874027],[151.211935,-33.874441],[151.211895,-33.874495],[151.211857,-33.874544],[151.211612,-33.874866],[151.211374,-33.874837],[151.211322,-33.874831],[151.211114,-33.874804],[151.210921,-33.874784],[151.210912,-33.874836],[151.210887,-33.874833],[151.210822,-33.875202],[151.210821,-33.875204],[151.210822,-33.875202],[151.210887,-33.874833],[151.210885,-33.874812],[151.210865,-33.874804],[151.210868,-33.87478],[151.210564,-33.874752],[151.21042,-33.874372],[151.210398,-33.874315],[151.210377,-33.87426],[151.21015,-33.873678],[151.210116,-33.873566],[151.210166,-33.873528],[151.210205,-33.873462],[151.210083,-33.873459],[151.210029,-33.873487],[151.209891,-33.873447],[151.209743,-33.873412],[151.209716,-33.873394],[151.20927,-33.87335],[151.209179,-33.873342],[151.209125,-33.873337],[151.209077,-33.873332],[151.208204,-33.873236],[151.208125,-33.873229],[151.208026,-33.87322],[151.20804,-33.873087],[151.208048,-33.873014],[151.207845,-33.87299],[151.207394,-33.87294],[151.207263,-33.872917],[151.207201,-33.8729],[151.20715,-33.872889],[151.207135,-33.872875],[151.207132,-33.872857],[151.207094,-33.872847],[151.207062,-33.872838],[151.207024,-33.872826],[151.206989,-33.872816],[151.206956,-33.872806],[151.206885,-33.872785],[151.206907,-33.872622],[151.206873,-33.871869],[151.206861,-33.871581],[151.206903,-33.87158],[151.206919,-33.87158],[151.206921,-33.8717],[151.206919,-33.87158],[151.206903,-33.87158],[151.206861,-33.871581],[151.206846,-33.87127],[151.206834,-33.870878],[151.206795,-33.870889],[151.206463,-33.87091],[151.206426,-33.87093],[151.20639,-33.87093],[151.206302,-33.870932],[151.206258,-33.870933],[151.206213,-33.870934],[151.206187,-33.870935],[151.205635,-33.870992],[151.205605,-33.870995],[151.205548,-33.871001],[151.205489,-33.871007],[151.205449,-33.87101],[151.205416,-33.870989],[151.204996,-33.87103],[151.204969,-33.871061],[151.204941,-33.871064],[151.204932,-33.871064],[151.204866,-33.871072],[151.204825,-33.871074],[151.204794,-33.871077],[151.204769,-33.871066],[151.204659,-33.871042],[151.204536,-33.871034],[151.204404,-33.871038],[151.203596,-33.871081],[151.203511,-33.871106],[151.203472,-33.871128],[151.203443,-33.871153],[151.203421,-33.871173],[151.203397,-33.871212],[151.202595,-33.871083],[151.202603,-33.871049],[151.202413,-33.871019],[151.202442,-33.870892],[151.202286,-33.870865],[151.202019,-33.870819],[151.201492,-33.87073],[151.202019,-33.870819],[151.202286,-33.870865],[151.202287,-33.870859],[151.202148,-33.870837],[151.202144,-33.870856],[151.202194,-33.870864],[151.202244,-33.870872],[151.202232,-33.87092],[151.201875,-33.872335],[151.201854,-33.87242],[151.20175,-33.872844],[151.201728,-33.872935],[151.201695,-33.873067],[151.201648,-33.873249],[151.200969,-33.873463],[151.200761,-33.873499],[151.200234,-33.873511],[151.200364,-33.873756],[151.200529,-33.874221],[151.200539,-33.87425],[151.200605,-33.874435],[151.200615,-33.874473],[151.200635,-33.874546],[151.200789,-33.875012],[151.201018,-33.87557],[151.201056,-33.87568],[151.2011,-33.875874],[151.201103,-33.875887],[151.201187,-33.876135],[151.201238,-33.876264],[151.20127,-33.876365],[151.201349,-33.876589],[151.201943,-33.876591],[151.201965,-33.876591],[151.201981,-33.876591],[151.20206,-33.87659],[151.202063,-33.876524],[151.202082,-33.876524],[151.202081,-33.876503],[151.202082,-33.876471],[151.202121,-33.87647],[151.202208,-33.876451],[151.202284,-33.876452],[151.202298,-33.876442],[151.202302,-33.876426],[151.202329,-33.876391],[151.202345,-33.876378],[151.202366,-33.876373],[151.202405,-33.876345],[151.202442,-33.876327],[151.202463,-33.876313],[151.202473,-33.876253],[151.202503,-33.876234],[151.202555,-33.876236],[151.202605,-33.876246],[151.202656,-33.876232],[151.202711,-33.876224],[151.202731,-33.876222],[151.20273,-33.876245],[151.202743,-33.876261],[151.202763,-33.876253],[151.202779,-33.876234],[151.202799,-33.876246],[151.202812,-33.876266]]}}]}
