{"type":"FeatureCollection","features":[{"type":"Feature","properties":{"source":"BRouter, profile hiking-mountain; \u00a9 OpenStreetMap contributors, ODbL"},"geometry":{"type":"LineString","coordinates":[[139.79637,35.7111],[139.796379,35.711189],[139.796383,35.711228],[139.796411,35.711498],[139.796412,35.711507],[139.796446,35.711832],[139.796477,35.712136],[139.796507,35.712423],[139.796551,35.712846],[139.796567,35.713031],[139.796578,35.713141],[139.796593,35.713305],[139.796618,35.713568],[139.796637,35.713742],[139.796643,35.7138],[139.796649,35.713853],[139.796665,35.714014],[139.796671,35.714058],[139.796696,35.714261],[139.79672,35.714447],[139.796722,35.714465],[139.796723,35.714478],[139.796725,35.714488],[139.796726,35.7145],[139.796694,35.714502],[139.796696,35.714522],[139.796606,35.714528],[139.796696,35.714522],[139.796694,35.714502],[139.796726,35.7145],[139.796725,35.714488],[139.796723,35.714478],[139.796722,35.714465],[139.79672,35.714447],[139.796432,35.714471],[139.796384,35.714469],[139.796356,35.71447],[139.796347,35.714395],[139.79598,35.714424],[139.795659,35.71445],[139.795626,35.714452],[139.795339,35.714395],[139.795235,35.714374],[139.795105,35.714347],[139.794941,35.714313],[139.794659,35.714256],[139.794546,35.714213],[139.794176,35.714022],[139.793711,35.713816],[139.793284,35.713655],[139.793283,35.713641],[139.793278,35.713607],[139.793277,35.713579],[139.792789,35.713667],[139.792587,35.713706],[139.792558,35.713699],[139.792541,35.713658],[139.792463,35.713674],[139.792357,35.713696],[139.792259,35.713716],[139.792218,35.713495],[139.791485,35.713633],[139.79145,35.713448],[139.791,35.71353],[139.790948,35.713538],[139.790578,35.713593],[139.790545,35.713598],[139.790503,35.713604],[139.790459,35.713613],[139.790105,35.713676],[139.789656,35.71375],[139.789295,35.713813],[139.788983,35.713868],[139.78894,35.713876],[139.788854,35.713892],[139.788749,35.71391],[139.788698,35.713685],[139.787953,35.713801],[139.787948,35.713767],[139.787915,35.713506],[139.787948,35.713767],[139.787953,35.713801],[139.787243,35.713931],[139.787214,35.713937],[139.787216,35.713962],[139.787235,35.714164],[139.787251,35.714338],[139.787254,35.714366],[139.787256,35.714384],[139.78729,35.714746],[139.787233,35.714759],[139.787193,35.714768],[139.787165,35.714791],[139.786329,35.714961],[139.7863,35.714967],[139.786272,35.714972],[139.785512,35.715126],[139.785494,35.715123],[139.785475,35.715108],[139.785414,35.71511],[139.78535,35.715112],[139.785347,35.715141],[139.785328,35.71516],[139.78494,35.715235],[139.784919,35.715239],[139.7849,35.715242],[139.784328,35.715353],[139.784289,35.71536],[139.784247,35.715369],[139.78398,35.715422],[139.783929,35.715432],[139.783653,35.715488],[139.783619,35.715495],[139.783585,35.715501],[139.783396,35.715539],[139.7831,35.715598],[139.783073,35.715596],[139.783058,35.715578],[139.783006,35.715578],[139.782919,35.715578],[139.782855,35.715577],[139.782854,35.715616],[139.78281,35.715658],[139.782653,35.715694],[139.782587,35.715667],[139.782539,35.715682],[139.782499,35.715693],[139.782485,35.715721],[139.781978,35.715859],[139.781389,35.716019],[139.781357,35.716028],[139.781327,35.716036],[139.781127,35.71609],[139.781093,35.716083],[139.78103,35.715995],[139.780982,35.716017],[139.780753,35.716121],[139.780697,35.716146],[139.780711,35.716166],[139.78071,35.716187],[139.780684,35.716209],[139.780473,35.716266],[139.780157,35.716348],[139.780122,35.716342],[139.780102,35.716338],[139.779661,35.715825],[139.779635,35.715801],[139.779616,35.715776],[139.779586,35.715745],[139.779533,35.715774],[139.779477,35.715803],[139.77935,35.715868],[139.7793,35.715895],[139.77921,35.715828],[139.779174,35.715784],[139.77919,35.715774],[139.779221,35.715807],[139.779241,35.715796],[139.779171,35.715726],[139.779114,35.715704],[139.779036,35.715706],[139.778042,35.716292],[139.777954,35.716344],[139.777955,35.716382],[139.777914,35.7164],[139.777864,35.716423],[139.777847,35.716432],[139.777637,35.716529],[139.777291,35.7167],[139.776905,35.71689],[139.776895,35.716911],[139.77687,35.71691],[139.77683,35.716925],[139.776791,35.71694],[139.775568,35.717543],[139.775614,35.717609],[139.775564,35.717631],[139.775609,35.717695],[139.775665,35.717771],[139.775726,35.717853],[139.775889,35.717781],[139.775921,35.717832],[139.776027,35.717837],[139.776102,35.717849],[139.776222,35.717889],[139.776291,35.717933],[139.776355,35.717994],[139.776473,35.717945],[139.776529,35.717921],[139.776562,35.717972],[139.776529,35.717921],[139.776473,35.717945],[139.776355,35.717994],[139.776291,35.717933],[139.776222,35.717889],[139.776102,35.717849],[139.776027,35.717837],[139.775921,35.717832],[139.775889,35.717781],[139.775726,35.717853],[139.775665,35.717771],[139.775609,35.717695],[139.775564,35.717631],[139.775614,35.717609],[139.775568,35.717543],[139.775534,35.717493],[139.775506,35.717449],[139.775499,35.717439],[139.775483,35.717417],[139.77534,35.717211],[139.775299,35.71723],[139.775268,35.717185],[139.775226,35.717198],[139.775174,35.717201],[139.77512,35.717196],[139.775091,35.717186],[139.775048,35.717204],[139.774993,35.717125],[139.774725,35.71674],[139.774626,35.716678],[139.774683,35.71637],[139.774277,35.71628],[139.774035,35.715928],[139.774001,35.715918],[139.773949,35.715916],[139.773902,35.715855],[139.773859,35.715716],[139.773748,35.715626],[139.773693,35.715512],[139.773689,35.715447],[139.773644,35.715358],[139.773624,35.715334],[139.773612,35.715277],[139.77358,35.71521],[139.772923,35.715251],[139.772869,35.715247],[139.772806,35.715242],[139.770989,35.715371],[139.770987,35.715352],[139.770961,35.715354],[139.770944,35.715166],[139.770707,35.715178],[139.770944,35.715166],[139.770961,35.715354],[139.770987,35.715352],[139.770985,35.715332],[139.771617,35.71529],[139.771616,35.715285],[139.771563,35.715013],[139.77155,35.71495],[139.771448,35.714515],[139.771436,35.714461],[139.771453,35.714416],[139.771525,35.714338],[139.771722,35.714062],[139.771789,35.713975],[139.772132,35.713468],[139.772161,35.713424],[139.772118,35.713406],[139.772065,35.713385],[139.772299,35.712994],[139.772352,35.71289],[139.772581,35.712516],[139.77267,35.712434],[139.772427,35.712383],[139.77233,35.712361],[139.77204,35.712302],[139.771952,35.712284],[139.771449,35.712181],[139.771433,35.712266],[139.771231,35.712243],[139.771171,35.712238],[139.771146,35.712237],[139.771076,35.712234],[139.771033,35.712251],[139.770969,35.712278],[139.770868,35.712283],[139.770805,35.712285],[139.770868,35.712283],[139.770969,35.712278],[139.771033,35.712251],[139.771076,35.712234],[139.771146,35.712237],[139.771171,35.712238],[139.771231,35.712243],[139.771433,35.712266],[139.771449,35.712181],[139.771952,35.712284],[139.77204,35.712302],[139.77233,35.712361],[139.772427,35.712383],[139.77267,35.712434],[139.772856,35.712109],[139.772975,35.711815],[139.773104,35.711303],[139.773128,35.711274],[139.773164,35.711125],[139.773217,35.71091],[139.773269,35.710916],[139.773314,35.710923],[139.773351,35.710772],[139.773367,35.710754],[139.773386,35.710748],[139.773458,35.710747],[139.773501,35.710746],[139.773616,35.710731],[139.773651,35.710726],[139.773758,35.710701],[139.773776,35.710696],[139.773832,35.710677],[139.773944,35.710639],[139.773993,35.710621],[139.774042,35.710604],[139.774022,35.71057],[139.774003,35.710536],[139.774539,35.710377],[139.774561,35.710211],[139.774672,35.70962],[139.77469,35.709523],[139.774748,35.709213],[139.77477,35.708946],[139.774166,35.709124],[139.773573,35.709295],[139.773565,35.709268],[139.773554,35.70922],[139.773525,35.709201],[139.77344,35.708851],[139.773416,35.708755],[139.77342,35.708728],[139.773412,35.708696],[139.773376,35.708557],[139.773341,35.708421],[139.77326,35.708108],[139.773293,35.708061],[139.773285,35.708033],[139.773267,35.707965],[139.773256,35.707919],[139.773247,35.707885],[139.773217,35.707861],[139.7732,35.707848],[139.773046,35.707282],[139.773018,35.70718],[139.773032,35.707163],[139.773026,35.707147],[139.773015,35.707114],[139.773004,35.707096],[139.772998,35.707084],[139.772983,35.707079],[139.772713,35.706648],[139.772707,35.706638],[139.772686,35.706607],[139.772662,35.706571],[139.772596,35.706477],[139.772565,35.706433],[139.772592,35.706388],[139.772583,35.706374],[139.772568,35.706349],[139.772558,35.706331],[139.772548,35.706315],[139.772477,35.706291],[139.772227,35.705823],[139.772228,35.705789],[139.772227,35.705767],[139.772226,35.705735],[139.772205,35.705711],[139.772195,35.705681],[139.772143,35.70518],[139.772117,35.705182],[139.77207,35.705184],[139.771938,35.705192],[139.771871,35.705195],[139.771833,35.705198],[139.771827,35.705172],[139.771816,35.70515],[139.771801,35.705138],[139.7718,35.705126],[139.771798,35.7051],[139.771795,35.705064],[139.771794,35.705052],[139.771818,35.705029],[139.771778,35.704649],[139.771771,35.70461],[139.771754,35.70458],[139.771731,35.704561],[139.77173,35.704549],[139.771728,35.70452],[139.771725,35.704498],[139.771723,35.704485],[139.771746,35.704473],[139.771755,35.704438],[139.771674,35.703692],[139.771669,35.703647],[139.771239,35.703667],[139.771201,35.703669],[139.770804,35.703677],[139.770701,35.703679],[139.770353,35.703685],[139.77032,35.703685],[139.769931,35.703698],[139.769875,35.703696],[139.76987,35.703658],[139.769799,35.703378],[139.769742,35.703146],[139.769723,35.703144],[139.769622,35.703134],[139.769548,35.703126],[139.769525,35.703123],[139.769493,35.703093],[139.769452,35.703068],[139.769447,35.703054],[139.769428,35.703004],[139.769398,35.702915],[139.769387,35.702885],[139.769377,35.702858],[139.769348,35.702859],[139.769026,35.702839],[139.768984,35.702837],[139.768954,35.702834],[139.768553,35.702816],[139.768501,35.702814],[139.768459,35.702811],[139.768108,35.702793],[139.768114,35.702733],[139.768118,35.702686],[139.768134,35.702687],[139.768139,35.702629],[139.768124,35.702628],[139.768132,35.702544],[139.768138,35.702382],[139.7681,35.702298],[139.768272,35.702237],[139.768187,35.701976],[139.767924,35.701657],[139.767861,35.701671],[139.767772,35.701712],[139.767696,35.701754],[139.767805,35.701891],[139.767725,35.701932],[139.767805,35.701891],[139.767696,35.701754],[139.767626,35.701667],[139.767593,35.701626],[139.767569,35.701594],[139.767564,35.701588],[139.767489,35.701494],[139.76745,35.701446],[139.767111,35.701056],[139.767085,35.701027],[139.767055,35.701063],[139.767005,35.701072],[139.766975,35.701086],[139.766938,35.701104],[139.766876,35.701113],[139.766439,35.701375],[139.766427,35.701361],[139.766378,35.701309],[139.766329,35.701256],[139.766316,35.701243],[139.76622,35.701244],[139.766196,35.701232],[139.766139,35.701205],[139.7661,35.701118],[139.765963,35.700816],[139.765898,35.700673],[139.76574,35.700324],[139.765783,35.700311],[139.765728,35.700184],[139.765845,35.700143],[139.766175,35.700026],[139.76628,35.699986],[139.766396,35.69994],[139.766418,35.699976],[139.76643,35.699996],[139.766449,35.700027],[139.766581,35.699955],[139.766791,35.699868],[139.766806,35.699863],[139.76691,35.699827],[139.766899,35.699741],[139.767008,35.699704],[139.767027,35.699711],[139.767068,35.699699],[139.767106,35.699688],[139.767102,35.699681],[139.767107,35.699665],[139.767452,35.699526],[139.767769,35.699379],[139.768082,35.699219],[139.768102,35.699209],[139.768123,35.699214],[139.768139,35.699253],[139.768234,35.699224],[139.768324,35.699196],[139.76834,35.699155],[139.768781,35.698913],[139.768826,35.698918],[139.76886,35.698952],[139.768901,35.698938],[139.768956,35.698924],[139.769057,35.698896],[139.769102,35.698883],[139.769124,35.698878],[139.769181,35.698797],[139.769205,35.698759],[139.769569,35.698726],[139.770034,35.698696],[139.770514,35.698657],[139.771113,35.6986],[139.771109,35.698561],[139.771106,35.698528],[139.771197,35.69852],[139.771194,35.6985],[139.771197,35.69852],[139.771346,35.698507],[139.7714,35.698502],[139.771381,35.698308],[139.771384,35.698274],[139.771412,35.698241],[139.77141,35.69819],[139.771408,35.698135],[139.771381,35.697812],[139.771373,35.697711],[139.771427,35.69766],[139.771421,35.697606],[139.771412,35.697533],[139.771407,35.697485],[139.771339,35.697471],[139.77127,35.697434],[139.771248,35.697395],[139.771165,35.69719],[139.77108,35.696968],[139.771064,35.696912],[139.771076,35.696876],[139.771035,35.696779],[139.771008,35.696717],[139.770994,35.696709],[139.770984,35.696693],[139.77095,35.696605],[139.770949,35.696601],[139.770902,35.696474],[139.770888,35.696438],[139.770873,35.696398],[139.770867,35.696381],[139.770848,35.696374],[139.770844,35.696367],[139.7707,35.695983],[139.770689,35.695955],[139.770692,35.695929],[139.770697,35.695918],[139.770729,35.695906],[139.770725,35.695874],[139.770719,35.695828],[139.770703,35.695711],[139.770698,35.695671],[139.770693,35.695638],[139.770616,35.695639],[139.77058,35.695629],[139.770539,35.695588],[139.770532,35.695568],[139.770436,35.695293],[139.77042,35.695245],[139.770427,35.695188],[139.770549,35.69489],[139.7707,35.69454],[139.770759,35.694404],[139.770775,35.694366],[139.770782,35.694351],[139.770801,35.694308],[139.770814,35.694279],[139.770821,35.694264],[139.770822,35.694218],[139.770987,35.693805],[139.771099,35.693538],[139.771152,35.693414],[139.771201,35.693297],[139.771211,35.693286],[139.771237,35.693257],[139.771245,35.693234],[139.77127,35.693168],[139.77129,35.693111],[139.771297,35.693092],[139.771281,35.693056],[139.771517,35.692489],[139.771588,35.692338],[139.771668,35.692139],[139.771699,35.692061],[139.771753,35.691938],[139.771854,35.691706],[139.771868,35.691665],[139.771881,35.691632],[139.772098,35.691094],[139.772113,35.691073],[139.772165,35.691052],[139.772175,35.691028],[139.772206,35.690959],[139.77223,35.690908],[139.77224,35.690885],[139.772207,35.690858],[139.772204,35.690827],[139.772282,35.690635],[139.7724,35.690351],[139.772417,35.69031],[139.772433,35.690273],[139.772512,35.690083],[139.772568,35.689929],[139.772601,35.689877],[139.772606,35.689859],[139.772619,35.689823],[139.772633,35.689795],[139.772646,35.689779],[139.772641,35.689759],[139.772772,35.689461],[139.772919,35.689108],[139.773039,35.688822],[139.773129,35.688791],[139.773139,35.688764],[139.773169,35.688684],[139.773199,35.688604],[139.773207,35.688582],[139.773159,35.68851],[139.773262,35.688255],[139.773378,35.687971],[139.7735,35.687669],[139.773504,35.687658],[139.773511,35.687643],[139.773516,35.687631],[139.773535,35.687585],[139.773554,35.68754],[139.773562,35.687523],[139.773567,35.687489],[139.77354,35.687478],[139.773458,35.687449],[139.773378,35.68742],[139.773353,35.687411],[139.773388,35.687327],[139.773681,35.686623],[139.773796,35.686344],[139.773818,35.686287],[139.773504,35.686188],[139.773818,35.686287],[139.773825,35.686269],[139.773842,35.686225],[139.773858,35.686184],[139.773865,35.686168],[139.773881,35.686133],[139.774147,35.685528],[139.77416,35.685499],[139.774193,35.685419],[139.774303,35.685134],[139.774432,35.684779],[139.774391,35.684756],[139.77435,35.684748],[139.774354,35.684718],[139.774374,35.684641],[139.774398,35.684554],[139.774407,35.684529],[139.774443,35.684513],[139.774454,35.684482],[139.774424,35.684295],[139.774329,35.683881],[139.774301,35.683885],[139.774329,35.683881],[139.774267,35.683741],[139.774215,35.683647],[139.774197,35.683629],[139.774174,35.683622],[139.774168,35.683607],[139.774144,35.683549],[139.774119,35.683494],[139.774114,35.683478],[139.774122,35.683447],[139.77384,35.682991],[139.773687,35.682744],[139.773601,35.682725],[139.773584,35.682695],[139.77356,35.682654],[139.773506,35.682559],[139.773478,35.68251],[139.773466,35.68249],[139.773488,35.682433],[139.773361,35.682225],[139.773195,35.681953],[139.773075,35.681758],[139.772917,35.6815],[139.772904,35.681479],[139.77288,35.681439],[139.772862,35.68141],[139.772849,35.68139],[139.772756,35.681243],[139.77255,35.680918],[139.772527,35.680883],[139.7723,35.680977],[139.772191,35.681023],[139.771443,35.68132],[139.771416,35.681366],[139.771387,35.681376],[139.771345,35.681395],[139.771295,35.681382],[139.770941,35.681522],[139.770485,35.681706],[139.770262,35.681797],[139.770243,35.681847],[139.770227,35.681801],[139.770209,35.681776],[139.770186,35.681744],[139.770016,35.681725],[139.769766,35.681698],[139.769677,35.681683],[139.769593,35.681584],[139.769382,35.68135],[139.769224,35.681242],[139.7688,35.681047],[139.768518,35.680975],[139.768258,35.68104],[139.767838,35.681143],[139.767837,35.681159],[139.767872,35.681254],[139.767862,35.681264],[139.767767,35.681287],[139.767683,35.681307],[139.767669,35.68127],[139.767169,35.681314],[139.767153,35.681318],[139.767052,35.681342],[139.76696,35.681364],[139.766869,35.681385],[139.766848,35.68139],[139.766754,35.681412],[139.766658,35.681434],[139.766553,35.681459],[139.766393,35.681496],[139.76629,35.68152],[139.766214,35.681538],[139.76602,35.681585],[139.765961,35.681599],[139.765872,35.681621],[139.7658,35.681637],[139.765791,35.681608],[139.765737,35.681451],[139.765689,35.681308],[139.765675,35.681267],[139.765691,35.681098],[139.765692,35.6811],[139.765635,35.681113],[139.765686,35.681261],[139.765688,35.681268],[139.765734,35.681258],[139.765745,35.681266],[139.765831,35.681274],[139.765819,35.681244],[139.765831,35.681274],[139.765745,35.681266],[139.765734,35.681258],[139.765688,35.681268],[139.765686,35.681261],[139.765635,35.681113],[139.764734,35.681316],[139.764694,35.681348],[139.764668,35.681353],[139.76456,35.681374],[139.764444,35.681398],[139.764378,35.681415],[139.764356,35.681421],[139.764283,35.681437],[139.763605,35.681586],[139.763473,35.681615],[139.763378,35.681637],[139.763299,35.681655],[139.763276,35.68166],[139.762562,35.681816],[139.762408,35.681852],[139.762292,35.681829],[139.762246,35.681839],[139.762175,35.681855],[139.762034,35.681887],[139.76197,35.681902],[139.761977,35.681936],[139.761925,35.681998],[139.761883,35.682025],[139.761836,35.682042],[139.761694,35.682075],[139.761685,35.682044],[139.761298,35.682129],[139.761287,35.682098],[139.760869,35.682186],[139.760091,35.682365],[139.759838,35.68242],[139.759767,35.682426],[139.759714,35.682409],[139.759665,35.682427],[139.759627,35.682442],[139.759488,35.682495],[139.759425,35.682519],[139.759386,35.682534],[139.758873,35.681722],[139.757855,35.680125],[139.757824,35.680078],[139.757314,35.679294],[139.756267,35.67966],[139.755678,35.679888],[139.755211,35.680067]]}}]}
