{"type":"FeatureCollection","features":[{"type":"Feature","properties":{"source":"BRouter, profile hiking-mountain; \u00a9 OpenStreetMap contributors, ODbL"},"geometry":{"type":"LineString","coordinates":[[10.186168,36.799959],[10.186132,36.799963],[10.186065,36.799981],[10.186004,36.800008],[10.185953,36.800043],[10.185842,36.800084],[10.185796,36.800092],[10.185806,36.800033],[10.185235,36.799974],[10.185245,36.799911],[10.185201,36.799922],[10.185105,36.799945],[10.184343,36.799875],[10.184262,36.799867],[10.184236,36.799825],[10.184063,36.799805],[10.183391,36.799725],[10.182781,36.799658],[10.182577,36.799635],[10.182426,36.799616],[10.1823,36.799601],[10.181543,36.799529],[10.181425,36.799519],[10.181393,36.799516],[10.181299,36.799509],[10.180955,36.799481],[10.180918,36.799442],[10.180726,36.799426],[10.180514,36.7994],[10.180556,36.799079],[10.180514,36.7994],[10.179562,36.799308],[10.179528,36.799305],[10.179529,36.799369],[10.17953,36.799437],[10.179482,36.799719],[10.179471,36.799822],[10.17944,36.800099],[10.179455,36.800149],[10.179157,36.800116],[10.179091,36.800518],[10.179294,36.800496],[10.179427,36.800928],[10.179003,36.800938],[10.178526,36.800986],[10.178483,36.800991],[10.178164,36.801018],[10.177776,36.800966],[10.17706,36.800923],[10.176656,36.800882],[10.176273,36.800836],[10.176278,36.800759],[10.176045,36.800751],[10.175928,36.800754],[10.175761,36.800766],[10.175638,36.800768],[10.175412,36.800764],[10.175403,36.800661],[10.175202,36.800671],[10.175136,36.800159],[10.175148,36.800015],[10.175137,36.79945],[10.175126,36.799391],[10.174926,36.799392],[10.175037,36.799114],[10.175252,36.799218],[10.175423,36.799079],[10.175523,36.799166],[10.175534,36.799172],[10.175567,36.799167],[10.175596,36.799165],[10.175567,36.799167],[10.175534,36.799172],[10.175523,36.799166],[10.175423,36.799079],[10.175252,36.799218],[10.175037,36.799114],[10.174808,36.799045],[10.1747,36.798995],[10.173946,36.798641],[10.173899,36.798597],[10.173871,36.798577],[10.17366,36.798477],[10.173567,36.798423],[10.173277,36.798272],[10.173198,36.798184],[10.172196,36.797729],[10.172139,36.797704],[10.171612,36.797476],[10.171625,36.797457],[10.171718,36.797326],[10.171774,36.797343],[10.171811,36.797297],[10.171838,36.797265],[10.172238,36.796807],[10.172241,36.796744],[10.172135,36.796674],[10.172182,36.796472],[10.172279,36.796229],[10.172368,36.796078],[10.172289,36.796029],[10.172099,36.795874],[10.171872,36.795759],[10.171901,36.795718],[10.172027,36.795539],[10.172199,36.795237],[10.17232,36.794975],[10.172457,36.794732],[10.172427,36.794543],[10.172419,36.794294],[10.172498,36.794028],[10.172688,36.793806],[10.17277,36.793744],[10.172919,36.793614],[10.17277,36.793744],[10.172688,36.793806],[10.172498,36.794028],[10.172419,36.794294],[10.172427,36.794543],[10.172457,36.794732],[10.17232,36.794975],[10.172199,36.795237],[10.172027,36.795539],[10.171901,36.795718],[10.171872,36.795759],[10.171705,36.796071],[10.171558,36.796346],[10.171413,36.796272],[10.171304,36.796351],[10.171151,36.79629],[10.171006,36.796432],[10.170652,36.796821],[10.170561,36.79679],[10.170288,36.796698],[10.170171,36.796888],[10.17003,36.797149],[10.169884,36.797111],[10.169828,36.797256],[10.16932,36.797183],[10.169216,36.797183],[10.168833,36.797212],[10.168783,36.797226],[10.168759,36.79726],[10.168696,36.797424],[10.168668,36.797468],[10.168696,36.797424],[10.168759,36.79726],[10.168783,36.797226],[10.168833,36.797212],[10.169216,36.797183],[10.16932,36.797183],[10.169828,36.797256],[10.169673,36.797585],[10.169716,36.797606],[10.170397,36.797934],[10.170417,36.797943],[10.170215,36.798238],[10.170479,36.798363],[10.170215,36.798238],[10.170022,36.798557],[10.169994,36.7986],[10.169879,36.798769],[10.169046,36.799627],[10.168978,36.799693],[10.169101,36.799781],[10.169124,36.799793],[10.168896,36.80025],[10.168787,36.800419],[10.168716,36.80053],[10.169106,36.800704],[10.168962,36.800959],[10.168666,36.800896],[10.168528,36.801457],[10.168387,36.801415],[10.168265,36.801685],[10.168135,36.801855],[10.168122,36.801984],[10.168296,36.802058],[10.168254,36.802122],[10.168216,36.802181],[10.16817,36.802484],[10.168237,36.80251],[10.168195,36.802621],[10.168366,36.802712],[10.16858,36.802861],[10.168525,36.802942],[10.16857,36.803094],[10.16854,36.80318],[10.16824,36.803477],[10.167893,36.803912],[10.167839,36.803993],[10.167931,36.804035],[10.167987,36.804103],[10.168194,36.804323],[10.16834,36.804479],[10.168439,36.804628],[10.167935,36.804999],[10.168043,36.805132],[10.168079,36.805148],[10.168109,36.805171],[10.168131,36.8052],[10.168142,36.805232],[10.168142,36.805265],[10.168132,36.805297],[10.168111,36.805326],[10.168082,36.805349],[10.168047,36.805366],[10.168007,36.805375],[10.167966,36.805375],[10.16792,36.805547],[10.167845,36.805882],[10.16776,36.806179],[10.167667,36.80646],[10.167373,36.806371],[10.167346,36.80637],[10.167327,36.806378],[10.167236,36.806503],[10.167001,36.806855],[10.166863,36.807062],[10.166781,36.807123],[10.166775,36.807158],[10.166783,36.807176],[10.166965,36.807429],[10.167162,36.807704],[10.167247,36.807812],[10.167249,36.807845],[10.167717,36.808159],[10.167818,36.808225],[10.167827,36.808237],[10.167801,36.808419],[10.167837,36.808441],[10.16808,36.808477],[10.168366,36.808516],[10.168619,36.808547],[10.168979,36.808599],[10.169099,36.808618],[10.169369,36.808665],[10.169487,36.808685],[10.169667,36.808714],[10.169743,36.808727],[10.169992,36.808781],[10.170232,36.808827],[10.17027,36.808832],[10.17047,36.808867],[10.170699,36.808914],[10.170581,36.809409],[10.170796,36.80943],[10.170986,36.809452],[10.171641,36.809519],[10.171559,36.809781],[10.171509,36.809897],[10.171425,36.810101],[10.171325,36.810325],[10.171288,36.810395],[10.171325,36.810325],[10.171425,36.810101],[10.171509,36.809897],[10.171559,36.809781],[10.171641,36.809519],[10.171915,36.809529],[10.172202,36.809511],[10.17224,36.809505],[10.172525,36.809456],[10.172567,36.809427],[10.172578,36.809403],[10.172578,36.80938],[10.172575,36.809315],[10.172787,36.809302],[10.172944,36.809293],[10.173122,36.809278],[10.1734,36.809261],[10.173434,36.809262],[10.17352,36.809269],[10.173603,36.809285],[10.174039,36.80942],[10.174197,36.809424],[10.174345,36.80941],[10.174433,36.808965],[10.174457,36.808901],[10.174473,36.808877],[10.174739,36.808772],[10.174851,36.808709],[10.175293,36.808395],[10.175356,36.80839],[10.1754,36.808398],[10.175471,36.808418],[10.175527,36.808409],[10.176036,36.808182],[10.17636,36.808025],[10.176715,36.807833],[10.176967,36.808176],[10.177448,36.808856],[10.177465,36.80888],[10.177495,36.808914],[10.178033,36.809608],[10.178298,36.809624],[10.178771,36.809676],[10.178938,36.809692],[10.178871,36.810186],[10.178851,36.81033],[10.179759,36.810408],[10.179746,36.810494],[10.180079,36.810527],[10.180316,36.810551],[10.180265,36.810876],[10.180197,36.811304],[10.179633,36.811245],[10.17871,36.811158],[10.17861,36.811822],[10.178562,36.812138],[10.178515,36.812451],[10.178483,36.812661],[10.178408,36.813158],[10.178349,36.813552],[10.178248,36.814217],[10.177992,36.814397],[10.177685,36.814583],[10.177996,36.814917],[10.177611,36.815137],[10.17704,36.815485],[10.176685,36.8157],[10.176455,36.815804],[10.176376,36.815854],[10.176298,36.815918],[10.176195,36.815988],[10.176023,36.816097],[10.176239,36.816629],[10.176104,36.816693],[10.176017,36.81678],[10.175954,36.816876],[10.175936,36.816944],[10.175933,36.816995],[10.17594,36.817074],[10.176083,36.817212],[10.176251,36.817425],[10.176338,36.817547],[10.176407,36.817676],[10.176422,36.817966],[10.176406,36.818106],[10.17636,36.818233],[10.176335,36.818325],[10.17629,36.818415],[10.176081,36.818635],[10.175951,36.818735],[10.175837,36.818805],[10.175716,36.81886],[10.175342,36.818981],[10.175099,36.818981],[10.174885,36.819],[10.174755,36.819028],[10.174631,36.819072],[10.17455,36.819107],[10.174451,36.819169],[10.174371,36.819257],[10.174328,36.819341],[10.174284,36.819465],[10.174248,36.819608],[10.1742,36.820088],[10.174205,36.820168],[10.173905,36.81988],[10.173814,36.819928],[10.173642,36.819962],[10.173494,36.819964],[10.173291,36.820005],[10.172847,36.820054],[10.172484,36.820059],[10.172385,36.819963],[10.172323,36.819978],[10.172276,36.820005],[10.172065,36.820166],[10.172165,36.820257],[10.172279,36.82039],[10.172375,36.820545],[10.172431,36.820694],[10.172467,36.820853],[10.172473,36.820935],[10.172477,36.820995],[10.17245,36.82106],[10.172329,36.821076],[10.172315,36.821288],[10.172318,36.821491],[10.172342,36.821685],[10.172409,36.821834],[10.172647,36.822207],[10.172511,36.822217],[10.172151,36.822302],[10.172092,36.822338],[10.171984,36.822444],[10.171912,36.82248],[10.171811,36.822494],[10.17175,36.822412],[10.171525,36.822508],[10.171626,36.822543],[10.171712,36.822588],[10.17179,36.822652],[10.171835,36.822716],[10.171841,36.82277],[10.171837,36.82282],[10.171802,36.822914],[10.17176,36.822987],[10.171698,36.823074],[10.171613,36.823167],[10.171542,36.823275]]}}]}
