{"type":"FeatureCollection","features":[{"type":"Feature","properties":{"source":"BRouter, profile hiking-mountain; \u00a9 OpenStreetMap contributors, ODbL"},"geometry":{"type":"LineString","coordinates":[[16.380934,48.19136],[16.380771,48.191342],[16.380241,48.191142],[16.380088,48.191238],[16.380069,48.191247],[16.379957,48.191293],[16.37983,48.191254],[16.379788,48.191242],[16.379674,48.191217],[16.379601,48.1912],[16.37958,48.191195],[16.379562,48.191191],[16.379475,48.191173],[16.379443,48.191234],[16.379424,48.191219],[16.377543,48.190819],[16.377514,48.190828],[16.377508,48.190838],[16.377213,48.191344],[16.37714,48.191325],[16.377102,48.191391],[16.37706,48.191463],[16.376991,48.191448],[16.376984,48.19146],[16.37685,48.191671],[16.376776,48.191811],[16.376486,48.192299],[16.376456,48.192291],[16.374948,48.191884],[16.374909,48.191889],[16.374902,48.191904],[16.37489,48.191929],[16.374873,48.191965],[16.374864,48.191984],[16.374847,48.192017],[16.374682,48.192309],[16.374498,48.192636],[16.374473,48.192681],[16.374341,48.192922],[16.374171,48.193254],[16.373932,48.193699],[16.37397,48.193711],[16.37395,48.193747],[16.373939,48.193768],[16.373929,48.193794],[16.373878,48.193825],[16.373441,48.19463],[16.373284,48.194928],[16.372984,48.195466],[16.372646,48.196051],[16.372188,48.196839],[16.372181,48.196872],[16.37217,48.196894],[16.372158,48.196915],[16.372152,48.196931],[16.372122,48.196955],[16.371921,48.197328],[16.371925,48.19735],[16.371909,48.197373],[16.371865,48.19743],[16.371845,48.197453],[16.371617,48.197843],[16.371941,48.197928],[16.371617,48.197843],[16.371347,48.198282],[16.37128,48.198338],[16.371243,48.198529],[16.370955,48.198556],[16.370855,48.198634],[16.370762,48.198838],[16.370437,48.198929],[16.369973,48.199058],[16.369662,48.199146],[16.369105,48.199303],[16.36897,48.199341],[16.368692,48.199421],[16.368512,48.19947],[16.36838,48.199506],[16.368319,48.199522],[16.368266,48.199537],[16.368221,48.199548],[16.368201,48.199553],[16.368178,48.199559],[16.368138,48.199568],[16.368091,48.199577],[16.368005,48.199597],[16.36786,48.199635],[16.367519,48.199752],[16.367313,48.199824],[16.367035,48.199919],[16.366989,48.199932],[16.366977,48.199898],[16.366943,48.199896],[16.366828,48.199886],[16.366717,48.199877],[16.36667,48.199889],[16.366626,48.199887],[16.366552,48.199865],[16.366122,48.199635],[16.366034,48.199671],[16.365933,48.199712],[16.365845,48.199755],[16.365692,48.199856],[16.365622,48.199914],[16.365665,48.19994],[16.365668,48.199942],[16.365689,48.199956],[16.365756,48.199996],[16.365855,48.200056],[16.365818,48.200079],[16.365772,48.20011],[16.365725,48.20014],[16.365712,48.20015],[16.365745,48.200171],[16.365838,48.200229],[16.365907,48.200273],[16.366011,48.200337],[16.366115,48.200401],[16.366183,48.200445],[16.366055,48.200535],[16.366183,48.200445],[16.3662,48.200499],[16.366218,48.200545],[16.366333,48.200622],[16.36641,48.200666],[16.366432,48.200707],[16.366451,48.200745],[16.366517,48.200749],[16.366649,48.200776],[16.366685,48.200794],[16.366765,48.200884],[16.366927,48.201048],[16.36713,48.201244],[16.367169,48.201314],[16.367185,48.201353],[16.367211,48.201399],[16.367258,48.20141],[16.367335,48.20139],[16.367434,48.201363],[16.367745,48.201972],[16.367968,48.202419],[16.368011,48.202409],[16.368046,48.202466],[16.368062,48.202491],[16.368058,48.202544],[16.368103,48.202632],[16.368152,48.202702],[16.368184,48.202749],[16.36823,48.202833],[16.368298,48.202815],[16.368316,48.20281],[16.368427,48.202782],[16.36846,48.202792],[16.368562,48.202824],[16.368666,48.202809],[16.369058,48.20272],[16.368666,48.202809],[16.368562,48.202824],[16.36846,48.202792],[16.368427,48.202782],[16.368316,48.20281],[16.368298,48.202815],[16.36823,48.202833],[16.368159,48.20285],[16.368066,48.20287],[16.367928,48.202883],[16.367938,48.202942],[16.367835,48.202964],[16.3677,48.202974],[16.366257,48.203295],[16.366222,48.203286],[16.366153,48.203287],[16.366029,48.203315],[16.366006,48.203324],[16.365978,48.203348],[16.365947,48.203369],[16.36592,48.203416],[16.364413,48.203755],[16.364068,48.20401],[16.364012,48.204016],[16.363965,48.204002],[16.363848,48.204093],[16.363691,48.20404],[16.363634,48.204008],[16.363572,48.203973],[16.363545,48.203958],[16.363466,48.203913],[16.363409,48.203878],[16.363368,48.203854],[16.362744,48.204314],[16.362265,48.204668],[16.361838,48.204992],[16.36182,48.204983],[16.361561,48.204965],[16.361201,48.204759],[16.360962,48.204621],[16.361005,48.204575],[16.361025,48.204522],[16.361022,48.204493],[16.361025,48.204522],[16.361005,48.204575],[16.360962,48.204621],[16.361201,48.204759],[16.361561,48.204965],[16.361634,48.205125],[16.361651,48.205137],[16.361411,48.205315],[16.36123,48.20545],[16.36071,48.205841],[16.36032,48.206134],[16.360116,48.206285],[16.360065,48.206312],[16.360028,48.206347],[16.360026,48.206349],[16.359988,48.206391],[16.359942,48.206438],[16.359935,48.206484],[16.359919,48.206503],[16.359892,48.206531],[16.359625,48.206733],[16.359575,48.206767],[16.359498,48.206806],[16.359396,48.20684],[16.359356,48.206862],[16.359328,48.206877],[16.359306,48.206901],[16.359393,48.206974],[16.359474,48.207202],[16.359557,48.207538],[16.359371,48.207577],[16.359277,48.207607],[16.359228,48.207647],[16.359203,48.207697],[16.359205,48.207749],[16.35924,48.207888],[16.359302,48.208084],[16.359349,48.208234],[16.359394,48.208292],[16.359465,48.208322],[16.359535,48.208334],[16.359629,48.208335],[16.359771,48.208323],[16.359815,48.208493],[16.35973,48.208505],[16.359749,48.208611],[16.359746,48.208638],[16.359765,48.208701],[16.359769,48.208716],[16.359773,48.208731],[16.359789,48.208785],[16.359816,48.208803],[16.359437,48.208851],[16.35944,48.208894],[16.359429,48.208939],[16.3594,48.208978],[16.359183,48.209096],[16.359065,48.209188],[16.35903,48.209224],[16.358989,48.209386],[16.358972,48.209516],[16.358977,48.209599],[16.358873,48.209718],[16.358814,48.209773],[16.358732,48.209825],[16.358631,48.20986],[16.358517,48.209882],[16.358453,48.209889],[16.358213,48.209884],[16.358244,48.210007],[16.358141,48.21002],[16.35801,48.21004],[16.357952,48.21005],[16.357979,48.210153],[16.357968,48.210154],[16.358012,48.210304],[16.357968,48.210154],[16.357979,48.210153],[16.357952,48.21005],[16.35801,48.21004],[16.358141,48.21002],[16.358244,48.210007],[16.358213,48.209884],[16.358453,48.209889],[16.358517,48.209882],[16.358631,48.20986],[16.358732,48.209825],[16.358814,48.209773],[16.358873,48.209718],[16.358977,48.209599],[16.358972,48.209516],[16.358989,48.209386],[16.35903,48.209224],[16.359065,48.209188],[16.359183,48.209096],[16.3594,48.208978],[16.359429,48.208939],[16.35944,48.208894],[16.359437,48.208851],[16.359816,48.208803],[16.359895,48.208795],[16.359993,48.208782],[16.360079,48.208771],[16.360154,48.208759],[16.360226,48.208748],[16.360317,48.208735],[16.360398,48.208723],[16.360488,48.208712],[16.360447,48.208565],[16.360484,48.208561],[16.360576,48.208557],[16.360757,48.208534],[16.360619,48.208046],[16.36104,48.207993],[16.361217,48.20797],[16.361323,48.207922],[16.361694,48.207958],[16.361815,48.20797],[16.361917,48.207981],[16.362414,48.208034],[16.362686,48.208063],[16.36273,48.208076],[16.362797,48.208072],[16.363106,48.207977],[16.363176,48.207966],[16.363284,48.207848],[16.363288,48.207835],[16.363583,48.208002],[16.363441,48.208116],[16.363495,48.208161],[16.363525,48.208195],[16.363594,48.208191],[16.363665,48.208204],[16.363957,48.20835],[16.3641,48.208399],[16.364159,48.208414],[16.364269,48.208425],[16.364434,48.208419],[16.36557,48.208339],[16.366308,48.208224],[16.366331,48.208222],[16.366378,48.208233],[16.366414,48.208184],[16.366457,48.208123],[16.366501,48.208076],[16.366525,48.208028],[16.366501,48.208076],[16.366457,48.208123],[16.366414,48.208184],[16.366503,48.208199],[16.366534,48.208198],[16.366609,48.208193],[16.36668,48.208176],[16.366749,48.208145],[16.3669,48.208261],[16.367857,48.208954],[16.368503,48.209419],[16.369053,48.209071],[16.369174,48.208984],[16.369681,48.20867],[16.369694,48.208713],[16.369681,48.20867],[16.370214,48.20836],[16.370396,48.208255],[16.370517,48.208217],[16.370616,48.208194],[16.371075,48.208099],[16.37112,48.208201],[16.371173,48.208191],[16.371192,48.208186],[16.371312,48.208164],[16.371369,48.208151],[16.371413,48.208143],[16.371784,48.208077],[16.37179,48.208114],[16.371803,48.208196],[16.371889,48.208156],[16.371928,48.20817],[16.372123,48.208354],[16.372127,48.208381],[16.372064,48.208411],[16.372014,48.208434],[16.372073,48.208489],[16.37209,48.208507],[16.372196,48.208606],[16.372215,48.208622],[16.372298,48.208583],[16.372215,48.208622],[16.372196,48.208606],[16.37209,48.208507],[16.372073,48.208489],[16.372014,48.208434],[16.372064,48.208411],[16.372127,48.208381],[16.372123,48.208354],[16.371928,48.20817],[16.371889,48.208156],[16.371803,48.208196],[16.37179,48.208114],[16.371784,48.208077],[16.371746,48.207859],[16.371718,48.207838],[16.371707,48.207785],[16.371692,48.207714],[16.371712,48.207679],[16.371765,48.207648],[16.371646,48.207164],[16.371633,48.207102],[16.372188,48.207058],[16.372425,48.207037],[16.372751,48.206983],[16.372962,48.206928],[16.373277,48.206855],[16.373611,48.206718],[16.37379,48.206623],[16.37401,48.206495],[16.374202,48.206288],[16.374213,48.206269],[16.374715,48.205954],[16.374932,48.205885],[16.375354,48.205659],[16.375437,48.205577],[16.375754,48.205372],[16.376052,48.205204],[16.376068,48.205194],[16.376121,48.205162],[16.376175,48.205137],[16.376204,48.205123],[16.376717,48.204889],[16.376828,48.204839],[16.377359,48.204601],[16.377401,48.204582],[16.377473,48.20455],[16.377528,48.204526],[16.377514,48.204463],[16.377586,48.204434],[16.377648,48.204409],[16.37772,48.204379],[16.377732,48.204374],[16.377805,48.204374],[16.377823,48.204387],[16.377896,48.204353],[16.377981,48.204315],[16.378007,48.204299],[16.378237,48.204187],[16.378384,48.204159],[16.378533,48.204144],[16.378869,48.203977],[16.378991,48.203909],[16.379005,48.203884],[16.379009,48.203765],[16.379018,48.203731],[16.379043,48.203661],[16.379058,48.203561],[16.37906,48.203346],[16.379088,48.203239],[16.379012,48.203166],[16.378898,48.203109],[16.378846,48.203077],[16.378802,48.203039],[16.378704,48.202913],[16.378592,48.202817],[16.37853,48.202735],[16.378458,48.202639],[16.378603,48.202565],[16.378672,48.20253],[16.378757,48.202608],[16.378793,48.202594],[16.378847,48.202582],[16.378839,48.20256],[16.378848,48.202539],[16.37889,48.202532],[16.378947,48.202533],[16.378998,48.202547],[16.379142,48.202652],[16.379308,48.202739],[16.37947,48.202857],[16.379503,48.20288],[16.379514,48.202887],[16.379589,48.202954],[16.379648,48.203006],[16.379777,48.203087],[16.379874,48.203172],[16.380018,48.20333],[16.380058,48.20335],[16.380083,48.203378],[16.38011,48.203395],[16.380178,48.203413],[16.380188,48.203441],[16.380214,48.203474],[16.380265,48.203521],[16.380302,48.20355],[16.380382,48.203588],[16.380435,48.203714],[16.380489,48.203708],[16.38054,48.203718],[16.380698,48.2038],[16.380992,48.203579],[16.381059,48.203525],[16.381275,48.203636],[16.381466,48.203711],[16.381786,48.203815],[16.381894,48.203866],[16.382024,48.203959],[16.382106,48.204032],[16.382319,48.204172],[16.382504,48.204199],[16.382603,48.204234],[16.382669,48.204266],[16.382724,48.204298],[16.38281,48.204366],[16.382897,48.204465],[16.382961,48.204598],[16.382982,48.204636],[16.383017,48.204636],[16.383082,48.204634],[16.383272,48.204632],[16.383359,48.204633],[16.383392,48.204604],[16.383442,48.204589],[16.384185,48.204517],[16.384272,48.204515],[16.384339,48.204529],[16.384441,48.204574],[16.384484,48.20461],[16.38461,48.204783],[16.384802,48.205044],[16.385307,48.205731],[16.385297,48.205752],[16.385343,48.205821],[16.385355,48.205839],[16.385367,48.205856],[16.385417,48.205931],[16.385454,48.205929],[16.385519,48.205916],[16.385567,48.205904],[16.385594,48.205898],[16.385634,48.205888],[16.385674,48.205877],[16.385714,48.205863],[16.386002,48.206251],[16.386068,48.206346],[16.386393,48.206801],[16.386738,48.207257],[16.386749,48.207283],[16.38727,48.207103],[16.387357,48.207078],[16.387413,48.207062],[16.387497,48.20704],[16.388292,48.206873],[16.388646,48.206805],[16.388729,48.2068],[16.389455,48.206796],[16.389854,48.206789],[16.389978,48.206801],[16.390018,48.206852],[16.390049,48.206884],[16.390707,48.207566],[16.391505,48.207446],[16.391908,48.207366],[16.392243,48.207305],[16.392666,48.207381],[16.392766,48.207402],[16.393464,48.207538],[16.393523,48.207549],[16.393542,48.207553],[16.39356,48.207558],[16.393583,48.207566],[16.393651,48.207461],[16.393678,48.207468],[16.393752,48.207356],[16.393678,48.207468],[16.393604,48.207586],[16.393565,48.207649],[16.393378,48.207948],[16.393307,48.208053],[16.393107,48.208351],[16.393076,48.208397],[16.39304,48.208451],[16.392851,48.208646],[16.392544,48.208889],[16.392491,48.208903],[16.39234,48.209021],[16.392339,48.209041],[16.392301,48.209072],[16.391731,48.209513],[16.39147,48.209724],[16.391047,48.210069],[16.390875,48.210243],[16.390808,48.210297],[16.390569,48.210551],[16.390537,48.210583],[16.390536,48.210598],[16.390514,48.210624],[16.390348,48.21078],[16.390438,48.210851],[16.39036,48.210898],[16.39042,48.210938],[16.390461,48.211034],[16.390468,48.211053],[16.39095,48.212159],[16.391007,48.212208],[16.391199,48.212646],[16.391256,48.212669],[16.391275,48.21272],[16.391305,48.2128],[16.39161,48.213493],[16.391618,48.213505],[16.391646,48.213544],[16.391656,48.213556],[16.391675,48.213583],[16.39171,48.213618],[16.391734,48.213642],[16.391745,48.213676],[16.391699,48.213912],[16.392081,48.214019],[16.3924,48.214057],[16.392523,48.214071],[16.39284,48.214111],[16.392818,48.214196],[16.392792,48.214282],[16.392846,48.21429],[16.393218,48.214347],[16.39353,48.214389],[16.39406,48.214461],[16.3947,48.214571],[16.395387,48.214696],[16.395467,48.214738],[16.395521,48.214763],[16.395811,48.214962],[16.395863,48.215008],[16.395924,48.215059],[16.396012,48.215137],[16.395716,48.215292],[16.39579,48.215379],[16.39585,48.215441],[16.39597,48.215545],[16.396097,48.215722],[16.396148,48.215882],[16.3962,48.216139],[16.396217,48.216353],[16.396248,48.216738],[16.396261,48.216786],[16.396092,48.216793]]}}]}
