{"type":"FeatureCollection","features":[{"type":"Feature","properties":{"source":"BRouter, profile hiking-mountain; \u00a9 OpenStreetMap contributors, ODbL"},"geometry":{"type":"LineString","coordinates":[[39.199014,-6.165248],[39.199026,-6.165218],[39.199025,-6.165165],[39.199013,-6.165129],[39.199122,-6.165176],[39.19923,-6.165197],[39.19929,-6.164445],[39.199303,-6.164255],[39.199291,-6.164176],[39.199269,-6.163933],[39.199291,-6.163356],[39.199319,-6.163012],[39.19935,-6.162527],[39.199335,-6.162468],[39.199271,-6.162442],[39.199017,-6.162398],[39.198913,-6.162396],[39.198733,-6.162361],[39.198694,-6.162371],[39.198646,-6.162413],[39.198615,-6.162452],[39.198552,-6.162698],[39.198538,-6.162716],[39.198516,-6.162724],[39.198473,-6.162719],[39.198289,-6.162674],[39.197987,-6.16264],[39.197748,-6.162598],[39.19749,-6.162571],[39.197381,-6.16255],[39.197259,-6.162548],[39.19717,-6.162391],[39.197128,-6.162324],[39.197059,-6.162274],[39.196901,-6.162101],[39.196759,-6.161846],[39.196685,-6.161724],[39.196594,-6.161638],[39.196491,-6.161564],[39.196299,-6.161405],[39.196007,-6.161282],[39.195773,-6.16118],[39.195673,-6.161153],[39.195551,-6.161072],[39.19548,-6.161055],[39.195479,-6.161022],[39.195489,-6.160965],[39.195383,-6.160991],[39.195275,-6.161001],[39.195138,-6.160986],[39.194983,-6.160984],[39.194813,-6.160953],[39.194713,-6.160945],[39.194531,-6.160918],[39.194485,-6.160904],[39.194249,-6.16087],[39.194178,-6.161128],[39.194014,-6.161795],[39.193967,-6.161955],[39.194074,-6.161987],[39.194056,-6.162036],[39.193999,-6.162029],[39.193928,-6.162036],[39.193891,-6.162062],[39.193842,-6.16224],[39.193891,-6.162062],[39.193928,-6.162036],[39.193999,-6.162029],[39.194056,-6.162036],[39.194074,-6.161987],[39.193967,-6.161955],[39.193806,-6.161915],[39.1938,-6.161907],[39.193815,-6.161808],[39.193708,-6.161759],[39.193455,-6.161666],[39.193357,-6.161637],[39.193208,-6.16163],[39.193115,-6.161662],[39.193044,-6.161648],[39.192881,-6.161632],[39.192613,-6.161589],[39.19265,-6.161516],[39.192575,-6.161501],[39.19233,-6.16142],[39.19224,-6.161403],[39.192146,-6.161393],[39.192178,-6.161548],[39.192177,-6.161598],[39.192171,-6.161807],[39.192233,-6.161819],[39.192236,-6.161993],[39.192194,-6.16232],[39.192242,-6.162335],[39.192218,-6.162693],[39.192183,-6.16295],[39.192157,-6.163015],[39.192097,-6.16313],[39.192028,-6.163226],[39.192161,-6.163292],[39.192261,-6.163356],[39.192359,-6.16341],[39.192278,-6.163669],[39.19231,-6.16368],[39.192556,-6.163734],[39.19263,-6.163489],[39.192668,-6.163277],[39.192653,-6.163212],[39.192641,-6.163207],[39.192651,-6.163173],[39.192648,-6.163148],[39.192637,-6.163124],[39.19262,-6.163105],[39.192597,-6.163093],[39.192572,-6.163088],[39.192597,-6.163093],[39.19262,-6.163105],[39.192637,-6.163124],[39.192648,-6.163148],[39.192651,-6.163173],[39.192641,-6.163207],[39.192653,-6.163212],[39.192668,-6.163277],[39.19263,-6.163489],[39.192556,-6.163734],[39.19231,-6.16368],[39.192278,-6.163669],[39.19208,-6.163578],[39.191899,-6.163503],[39.191759,-6.163471],[39.191749,-6.163413],[39.191728,-6.163327],[39.191717,-6.163302],[39.191657,-6.163227],[39.191664,-6.163094],[39.191654,-6.16294],[39.191623,-6.162801],[39.191627,-6.162707],[39.191572,-6.162635],[39.191581,-6.162528],[39.191404,-6.162487],[39.191398,-6.162453],[39.19129,-6.162453],[39.191155,-6.162471],[39.19109,-6.162472],[39.191092,-6.162444],[39.191112,-6.162211],[39.191092,-6.162444],[39.19109,-6.162472],[39.191074,-6.162761],[39.190947,-6.162748],[39.190795,-6.16293],[39.190683,-6.162929],[39.190652,-6.162938],[39.190406,-6.162993],[39.190412,-6.163045],[39.190335,-6.163094],[39.190196,-6.163136],[39.190029,-6.163144],[39.189975,-6.163158],[39.189795,-6.16325],[39.189737,-6.163291],[39.189708,-6.16318],[39.189662,-6.163123],[39.189613,-6.163124],[39.189572,-6.163111],[39.189483,-6.163047],[39.189361,-6.16284],[39.189311,-6.16279],[39.189079,-6.162693],[39.188989,-6.162843],[39.189079,-6.162693],[39.188882,-6.162534],[39.188803,-6.162456],[39.188746,-6.162371],[39.188724,-6.162327],[39.188596,-6.162339],[39.188568,-6.162348],[39.188441,-6.162345],[39.188193,-6.162396],[39.188169,-6.1624],[39.188052,-6.162411],[39.187812,-6.162414],[39.187717,-6.162416],[39.187703,-6.162207],[39.187703,-6.162205],[39.187693,-6.162045],[39.187692,-6.161925],[39.188033,-6.161855],[39.187975,-6.161646],[39.187938,-6.161613],[39.188005,-6.161525],[39.18795,-6.161383],[39.187944,-6.161354],[39.187952,-6.161328],[39.187975,-6.161307],[39.188109,-6.161236],[39.188077,-6.161181],[39.188205,-6.161111],[39.188189,-6.161078],[39.188176,-6.161048],[39.188168,-6.161035],[39.188192,-6.161016],[39.18821,-6.160991],[39.188218,-6.160961],[39.188213,-6.160919],[39.188231,-6.160909],[39.188279,-6.160883],[39.188289,-6.160898],[39.188598,-6.160712],[39.188591,-6.160692],[39.188593,-6.160671],[39.188619,-6.160639],[39.18854,-6.160501],[39.188563,-6.160487],[39.188666,-6.160427],[39.188755,-6.160402],[39.18879,-6.160384],[39.188755,-6.160402],[39.188666,-6.160427],[39.188563,-6.160487],[39.18854,-6.160501],[39.188619,-6.160639],[39.188593,-6.160671],[39.188591,-6.160692],[39.188598,-6.160712],[39.188289,-6.160898],[39.18837,-6.161017],[39.188403,-6.161064],[39.188394,-6.161105],[39.188432,-6.161113],[39.188458,-6.161137],[39.188508,-6.16121],[39.188503,-6.161399],[39.188512,-6.161448],[39.188571,-6.161568],[39.188662,-6.16153],[39.188685,-6.161514],[39.188991,-6.161245],[39.189015,-6.161232],[39.189074,-6.161203],[39.189128,-6.161192],[39.189127,-6.161284],[39.189137,-6.161341],[39.189164,-6.161409],[39.189197,-6.161441],[39.189278,-6.161375],[39.189197,-6.161441],[39.189164,-6.161409],[39.189137,-6.161341],[39.189127,-6.161284],[39.189128,-6.161192],[39.189074,-6.161203],[39.189015,-6.161232],[39.188991,-6.161245],[39.188685,-6.161514],[39.188662,-6.16153],[39.188571,-6.161568],[39.188629,-6.161693],[39.188659,-6.161757],[39.18868,-6.161774],[39.188715,-6.161787],[39.188748,-6.16179],[39.189163,-6.16173],[39.189333,-6.161677],[39.189443,-6.161651],[39.189494,-6.161652],[39.189569,-6.16164],[39.189576,-6.161571],[39.189568,-6.161548],[39.189909,-6.161427],[39.190042,-6.161374],[39.190125,-6.161349],[39.190186,-6.16134],[39.19032,-6.161338],[39.19033,-6.161345],[39.19032,-6.161178],[39.190322,-6.161119],[39.190334,-6.161063],[39.19029,-6.160828],[39.19024,-6.160554],[39.190217,-6.160442],[39.190167,-6.160309],[39.190331,-6.160203],[39.190484,-6.160121],[39.190604,-6.1601],[39.190722,-6.160098],[39.19117,-6.160097],[39.191197,-6.160121],[39.191223,-6.160124],[39.191449,-6.160104],[39.191628,-6.160013],[39.191842,-6.159968],[39.191843,-6.159926],[39.191831,-6.159831],[39.191764,-6.15948],[39.191861,-6.159456],[39.191869,-6.159449],[39.191871,-6.159434],[39.191858,-6.15925],[39.191919,-6.159067],[39.192028,-6.158897],[39.192047,-6.158837],[39.192051,-6.158757],[39.192049,-6.158697],[39.192036,-6.158649],[39.191978,-6.158566],[39.192169,-6.158366],[39.192342,-6.15812]]}}]}
